{
"type": "FeatureCollection",
"name": "all_clean_generators",
"crs": { "type": "name", "properties": { "name": "urn:ogc:def:crs:OGC:1.3:CRS84" } },
"features": [
{ "type": "Feature", "properties": { "id": 7715010108, "Type": "node", "Region": "GH", "refs": null, "tags.generator:method": "combustion", "power_output_MW": 126.0, "tags.generator:source": "gas", "tags.generator:type": "gas_turbine", "tags.power": "generator", "other_tags": { "tags.frequency": "50", "tags.operator": "VRA", "tags.start_date": "2008", "tags.generator:plant": "output", "tags.name": "TTPS1" }, "Country": "GH" }, "geometry": { "type": "Point", "coordinates": [ 0.0129068, 5.673979899999988 ] } },
{ "type": "Feature", "properties": { "id": 7715010109, "Type": "node", "Region": "GH", "refs": null, "tags.generator:method": "combustion", "power_output_MW": 126.0, "tags.generator:source": "gas", "tags.generator:type": "gas_turbine", "tags.power": "generator", "other_tags": { "tags.frequency": "50", "tags.operator": "CENIT Energy Limited", "tags.start_date": "2012", "tags.generator:plant": "output", "tags.name": "TTPS2" }, "Country": "GH" }, "geometry": { "type": "Point", "coordinates": [ 0.0122818, 5.674508399999988 ] } },
{ "type": "Feature", "properties": { "id": 7715010110, "Type": "node", "Region": "GH", "refs": null, "tags.generator:method": "combustion", "power_output_MW": 180.0, "tags.generator:source": "gas", "tags.generator:type": "combined_cycle", "tags.power": "generator", "other_tags": null, "Country": "GH" }, "geometry": { "type": "Point", "coordinates": [ 0.0460213, 5.679998299999988 ] } },
{ "type": "Feature", "properties": { "id": 7715010111, "Type": "node", "Region": "GH", "refs": null, "tags.generator:method": "combustion", "power_output_MW": 180.0, "tags.generator:source": "gas", "tags.generator:type": "combined_cycle", "tags.power": "generator", "other_tags": null, "Country": "GH" }, "geometry": { "type": "Point", "coordinates": [ 0.046311, 5.679597899999988 ] } },
{ "type": "Feature", "properties": { "id": 7715010112, "Type": "node", "Region": "GH", "refs": null, "tags.generator:method": "combustion", "power_output_MW": 100.0, "tags.generator:source": "gas", "tags.generator:type": "combined_cycle", "tags.power": "generator", "other_tags": null, "Country": "GH" }, "geometry": { "type": "Point", "coordinates": [ 0.0473973, 5.680137 ] } },
{ "type": "Feature", "properties": { "id": 7715010113, "Type": "node", "Region": "GH", "refs": null, "tags.generator:method": "combustion", "power_output_MW": 100.0, "tags.generator:source": "gas", "tags.generator:type": "combined_cycle", "tags.power": "generator", "other_tags": null, "Country": "GH" }, "geometry": { "type": "Point", "coordinates": [ 0.0471022, 5.680569499999987 ] } },
{ "type": "Feature", "properties": { "id": 7715010114, "Type": "node", "Region": "GH", "refs": null, "tags.generator:method": "combustion", "power_output_MW": 110.0, "tags.generator:source": "gas;oil", "tags.generator:type": "gas_turbine", "tags.power": "generator", "other_tags": null, "Country": "GH" }, "geometry": { "type": "Point", "coordinates": [ 0.009326, 5.734788399999988 ] } },
{ "type": "Feature", "properties": { "id": 7715010115, "Type": "node", "Region": "GH", "refs": null, "tags.generator:method": "combustion", "power_output_MW": 110.0, "tags.generator:source": "gas;oil", "tags.generator:type": "gas_turbine", "tags.power": "generator", "other_tags": null, "Country": "GH" }, "geometry": { "type": "Point", "coordinates": [ 0.0092496, 5.734470799999988 ] } },
{ "type": "Feature", "properties": { "id": 7715010132, "Type": "node", "Region": "GH", "refs": null, "tags.generator:method": "combustion", "power_output_MW": 330.0, "tags.generator:source": "oil", "tags.generator:type": "combined_cycle", "tags.power": "generator", "other_tags": { "tags.operator": "Volta River Authority", "tags.name": "Takoradi 2" }, "Country": "GH" }, "geometry": { "type": "Point", "coordinates": [ -1.6598314, 4.971912199999989 ] } },
{ "type": "Feature", "properties": { "id": 7715010133, "Type": "node", "Region": "GH", "refs": null, "tags.generator:method": "combustion", "power_output_MW": 132.0, "tags.generator:source": "oil", "tags.generator:type": "combined_cycle", "tags.power": "generator", "other_tags": { "tags.operator": "Volta River Authority", "tags.name": "Takoradi 3" }, "Country": "GH" }, "geometry": { "type": "Point", "coordinates": [ -1.6580719, 4.974814099999989 ] } },
{ "type": "Feature", "properties": { "id": 7715010134, "Type": "node", "Region": "GH", "refs": null, "tags.generator:method": "combustion", "power_output_MW": 330.0, "tags.generator:source": "oil", "tags.generator:type": "combined_cycle", "tags.power": "generator", "other_tags": { "tags.operator": "Volta River Authority", "tags.name": "Takoradi 1" }, "Country": "GH" }, "geometry": { "type": "Point", "coordinates": [ -1.6583777, 4.971981699999989 ] } },
{ "type": "Feature", "properties": { "id": 11584318313, "Type": "node", "Region": "GH", "refs": null, "tags.generator:method": "combustion", "power_output_MW": 20.0, "tags.generator:source": "gas", "tags.generator:type": "combined_cycle", "tags.power": "generator", "other_tags": { "tags.start_date": "2019", "tags.generator:plant": "output" }, "Country": "GH" }, "geometry": { "type": "Point", "coordinates": [ -1.6960349, 4.9378567 ] } },
{ "type": "Feature", "properties": { "id": 11584318314, "Type": "node", "Region": "GH", "refs": null, "tags.generator:method": "combustion", "power_output_MW": 20.0, "tags.generator:source": "gas", "tags.generator:type": "combined_cycle", "tags.power": "generator", "other_tags": { "tags.start_date": "2019", "tags.generator:plant": "output" }, "Country": "GH" }, "geometry": { "type": "Point", "coordinates": [ -1.6965857, 4.9384341 ] } },
{ "type": "Feature", "properties": { "id": 11584318315, "Type": "node", "Region": "GH", "refs": null, "tags.generator:method": "combustion", "power_output_MW": 20.0, "tags.generator:source": "gas", "tags.generator:type": "combined_cycle", "tags.power": "generator", "other_tags": { "tags.start_date": "2019", "tags.generator:plant": "output" }, "Country": "GH" }, "geometry": { "type": "Point", "coordinates": [ -1.6964756, 4.9383229 ] } },
{ "type": "Feature", "properties": { "id": 11584318316, "Type": "node", "Region": "GH", "refs": null, "tags.generator:method": "combustion", "power_output_MW": 20.0, "tags.generator:source": "gas", "tags.generator:type": "combined_cycle", "tags.power": "generator", "other_tags": { "tags.start_date": "2019", "tags.generator:plant": "output" }, "Country": "GH" }, "geometry": { "type": "Point", "coordinates": [ -1.6962456, 4.9380821 ] } },
{ "type": "Feature", "properties": { "id": 11584318317, "Type": "node", "Region": "GH", "refs": null, "tags.generator:method": "combustion", "power_output_MW": 20.0, "tags.generator:source": "gas", "tags.generator:type": "combined_cycle", "tags.power": "generator", "other_tags": { "tags.start_date": "2019", "tags.generator:plant": "output" }, "Country": "GH" }, "geometry": { "type": "Point", "coordinates": [ -1.696091, 4.9379128 ] } },
{ "type": "Feature", "properties": { "id": 11584318318, "Type": "node", "Region": "GH", "refs": null, "tags.generator:method": "combustion", "power_output_MW": 20.0, "tags.generator:source": "gas", "tags.generator:type": "combined_cycle", "tags.power": "generator", "other_tags": { "tags.start_date": "2019", "tags.generator:plant": "output" }, "Country": "GH" }, "geometry": { "type": "Point", "coordinates": [ -1.6963101, 4.9381444 ] } },
{ "type": "Feature", "properties": { "id": 11584318319, "Type": "node", "Region": "GH", "refs": null, "tags.generator:method": "combustion", "power_output_MW": 20.0, "tags.generator:source": "gas", "tags.generator:type": "combined_cycle", "tags.power": "generator", "other_tags": { "tags.start_date": "2019", "tags.generator:plant": "output" }, "Country": "GH" }, "geometry": { "type": "Point", "coordinates": [ -1.6961449, 4.9379728 ] } },
{ "type": "Feature", "properties": { "id": 11584318320, "Type": "node", "Region": "GH", "refs": null, "tags.generator:method": "combustion", "power_output_MW": 20.0, "tags.generator:source": "gas", "tags.generator:type": "combined_cycle", "tags.power": "generator", "other_tags": { "tags.start_date": "2019", "tags.generator:plant": "output" }, "Country": "GH" }, "geometry": { "type": "Point", "coordinates": [ -1.6962004, 4.9380352 ] } },
{ "type": "Feature", "properties": { "id": 11584318321, "Type": "node", "Region": "GH", "refs": null, "tags.generator:method": "combustion", "power_output_MW": 20.0, "tags.generator:source": "gas", "tags.generator:type": "combined_cycle", "tags.power": "generator", "other_tags": { "tags.start_date": "2019", "tags.generator:plant": "output" }, "Country": "GH" }, "geometry": { "type": "Point", "coordinates": [ -1.6965212, 4.9383718 ] } },
{ "type": "Feature", "properties": { "id": 11584318322, "Type": "node", "Region": "GH", "refs": null, "tags.generator:method": "combustion", "power_output_MW": 20.0, "tags.generator:source": "gas", "tags.generator:type": "combined_cycle", "tags.power": "generator", "other_tags": { "tags.start_date": "2019", "tags.generator:plant": "output" }, "Country": "GH" }, "geometry": { "type": "Point", "coordinates": [ -1.6963661, 4.9382005 ] } },
{ "type": "Feature", "properties": { "id": 11584318323, "Type": "node", "Region": "GH", "refs": null, "tags.generator:method": "combustion", "power_output_MW": 20.0, "tags.generator:source": "gas", "tags.generator:type": "combined_cycle", "tags.power": "generator", "other_tags": { "tags.start_date": "2019", "tags.generator:plant": "output" }, "Country": "GH" }, "geometry": { "type": "Point", "coordinates": [ -1.69642, 4.9382605 ] } },
{ "type": "Feature", "properties": { "id": 11584318324, "Type": "node", "Region": "GH", "refs": null, "tags.generator:method": "combustion", "power_output_MW": 20.0, "tags.generator:source": "gas", "tags.generator:type": "combined_cycle", "tags.power": "generator", "other_tags": { "tags.start_date": "2019", "tags.generator:plant": "output" }, "Country": "GH" }, "geometry": { "type": "Point", "coordinates": [ -1.6970783, 4.9389597 ] } },
{ "type": "Feature", "properties": { "id": 11584318325, "Type": "node", "Region": "GH", "refs": null, "tags.generator:method": "combustion", "power_output_MW": 20.0, "tags.generator:source": "gas", "tags.generator:type": "combined_cycle", "tags.power": "generator", "other_tags": { "tags.start_date": "2019", "tags.generator:plant": "output" }, "Country": "GH" }, "geometry": { "type": "Point", "coordinates": [ -1.6966956, 4.9385503 ] } },
{ "type": "Feature", "properties": { "id": 11584318326, "Type": "node", "Region": "GH", "refs": null, "tags.generator:method": "combustion", "power_output_MW": 20.0, "tags.generator:source": "gas", "tags.generator:type": "combined_cycle", "tags.power": "generator", "other_tags": { "tags.start_date": "2019", "tags.generator:plant": "output" }, "Country": "GH" }, "geometry": { "type": "Point", "coordinates": [ -1.6967943, 4.9386643 ] } },
{ "type": "Feature", "properties": { "id": 11584318327, "Type": "node", "Region": "GH", "refs": null, "tags.generator:method": "combustion", "power_output_MW": 20.0, "tags.generator:source": "gas", "tags.generator:type": "combined_cycle", "tags.power": "generator", "other_tags": { "tags.start_date": "2019", "tags.generator:plant": "output" }, "Country": "GH" }, "geometry": { "type": "Point", "coordinates": [ -1.6967512, 4.9386126 ] } },
{ "type": "Feature", "properties": { "id": 11584318328, "Type": "node", "Region": "GH", "refs": null, "tags.generator:method": "combustion", "power_output_MW": 20.0, "tags.generator:source": "gas", "tags.generator:type": "combined_cycle", "tags.power": "generator", "other_tags": { "tags.start_date": "2019", "tags.generator:plant": "output" }, "Country": "GH" }, "geometry": { "type": "Point", "coordinates": [ -1.6968588, 4.9387266 ] } },
{ "type": "Feature", "properties": { "id": 11584318329, "Type": "node", "Region": "GH", "refs": null, "tags.generator:method": "combustion", "power_output_MW": 20.0, "tags.generator:source": "gas", "tags.generator:type": "combined_cycle", "tags.power": "generator", "other_tags": { "tags.start_date": "2019", "tags.generator:plant": "output" }, "Country": "GH" }, "geometry": { "type": "Point", "coordinates": [ -1.6969148, 4.9387827 ] } },
{ "type": "Feature", "properties": { "id": 11584318330, "Type": "node", "Region": "GH", "refs": null, "tags.generator:method": "combustion", "power_output_MW": 20.0, "tags.generator:source": "gas", "tags.generator:type": "combined_cycle", "tags.power": "generator", "other_tags": { "tags.start_date": "2019", "tags.generator:plant": "output" }, "Country": "GH" }, "geometry": { "type": "Point", "coordinates": [ -1.6969687, 4.9388427 ] } },
{ "type": "Feature", "properties": { "id": 11584318331, "Type": "node", "Region": "GH", "refs": null, "tags.generator:method": "combustion", "power_output_MW": 20.0, "tags.generator:source": "gas", "tags.generator:type": "combined_cycle", "tags.power": "generator", "other_tags": { "tags.start_date": "2019", "tags.generator:plant": "output" }, "Country": "GH" }, "geometry": { "type": "Point", "coordinates": [ -1.6970243, 4.9389051 ] } },
{ "type": "Feature", "properties": { "id": 11584318332, "Type": "node", "Region": "GH", "refs": null, "tags.generator:method": "combustion", "power_output_MW": 20.0, "tags.generator:source": "gas", "tags.generator:type": "combined_cycle", "tags.power": "generator", "other_tags": { "tags.start_date": "2019", "tags.generator:plant": "output" }, "Country": "GH" }, "geometry": { "type": "Point", "coordinates": [ -1.6966417, 4.9384902 ] } },
{ "type": "Feature", "properties": { "id": 11584318333, "Type": "node", "Region": "GH", "refs": null, "tags.generator:method": "combustion", "power_output_MW": 20.0, "tags.generator:source": "gas", "tags.generator:type": "combined_cycle", "tags.power": "generator", "other_tags": { "tags.start_date": "2019", "tags.generator:plant": "output" }, "Country": "GH" }, "geometry": { "type": "Point", "coordinates": [ -1.6971989, 4.9390781 ] } },
{ "type": "Feature", "properties": { "id": 11584318334, "Type": "node", "Region": "GH", "refs": null, "tags.generator:method": "combustion", "power_output_MW": 20.0, "tags.generator:source": "gas", "tags.generator:type": "combined_cycle", "tags.power": "generator", "other_tags": { "tags.start_date": "2019", "tags.generator:plant": "output" }, "Country": "GH" }, "geometry": { "type": "Point", "coordinates": [ -1.6971428, 4.939022 ] } },
{ "type": "Feature", "properties": { "id": 11584318335, "Type": "node", "Region": "GH", "refs": null, "tags.generator:method": "combustion", "power_output_MW": 20.0, "tags.generator:source": "gas", "tags.generator:type": "combined_cycle", "tags.power": "generator", "other_tags": { "tags.start_date": "2019", "tags.generator:plant": "output" }, "Country": "GH" }, "geometry": { "type": "Point", "coordinates": [ -1.6972528, 4.9391381 ] } },
{ "type": "Feature", "properties": { "id": 11584318336, "Type": "node", "Region": "GH", "refs": null, "tags.generator:method": "combustion", "power_output_MW": 20.0, "tags.generator:source": "gas", "tags.generator:type": "combined_cycle", "tags.power": "generator", "other_tags": { "tags.start_date": "2019", "tags.generator:plant": "output" }, "Country": "GH" }, "geometry": { "type": "Point", "coordinates": [ -1.6973083, 4.9392005 ] } },
{ "type": "Feature", "properties": { "id": 11584327366, "Type": "node", "Region": "GH", "refs": null, "tags.generator:method": "combustion", "power_output_MW": 200.0, "tags.generator:source": "gas", "tags.generator:type": "combined_cycle", "tags.power": "generator", "other_tags": { "tags.generator:plant": "output" }, "Country": "GH" }, "geometry": { "type": "Point", "coordinates": [ -1.666258, 4.9682568 ] } },
{ "type": "Feature", "properties": { "id": 11585311292, "Type": "node", "Region": "GH", "refs": null, "tags.generator:method": "combustion", "power_output_MW": 100.0, "tags.generator:source": "gas", "tags.generator:type": "combined_cycle", "tags.power": "generator", "other_tags": null, "Country": "GH" }, "geometry": { "type": "Point", "coordinates": [ 0.0477138, 5.680342599999989 ] } },
{ "type": "Feature", "properties": { "id": 11585311293, "Type": "node", "Region": "GH", "refs": null, "tags.generator:method": "combustion", "power_output_MW": 100.0, "tags.generator:source": "gas", "tags.generator:type": "combined_cycle", "tags.power": "generator", "other_tags": null, "Country": "GH" }, "geometry": { "type": "Point", "coordinates": [ 0.0474134, 5.680767 ] } }
]
}
