{
"type": "FeatureCollection",
"name": "africa_shape",
"features": [
{ "type": "Feature", "properties": { "index": 0 }, "geometry": { "type": "Polygon", "coordinates": [ [ [ 1.303885833164856, 5.812433333431656 ], [ 2.166937963916411, 2.675564828354339 ], [ 1.912082432958186, 2.58468438037994 ], [ 1.655863511791921, 2.515939344325304 ], [ 1.38872532541339, 2.466248587102584 ], [ 1.097298406596565, 2.433879666413802 ], [ 0.500216144859451, 2.132155199003407 ], [ 0.175350924206128, 2.012346347806073 ], [ -0.159917106189027, 1.926591853831241 ], [ -0.546818117361852, 1.728184745130392 ], [ -0.800700162781936, 1.619466701227481 ], [ -1.162557580267844, 1.505139529965547 ], [ -1.575108073678393, 1.422603061182627 ], [ -1.849536390291973, 1.394118274638743 ], [ -2.136792470195985, 1.387221047413647 ], [ -2.403221117560122, 1.40159369759121 ], [ -2.666407004779074, 1.437085017659498 ], [ -3.139141696131958, 1.556621769978818 ], [ -3.410673847719607, 1.660301793792797 ], [ -3.667219172426485, 1.784613215027932 ], [ -3.788075973413441, 1.80955940549984 ], [ -3.110451937002159, 5.070113184055688 ], [ -3.11304364491069, 5.070703901758622 ], [ -3.114872298849866, 5.0712130910694 ], [ -3.116644443135674, 5.071893351029819 ], [ -3.118344114075374, 5.072738553774851 ], [ -3.119956000825003, 5.073741085614667 ], [ -3.121465583311328, 5.074891915619687 ], [ -3.122859263030453, 5.076180676972293 ], [ -3.124124485544799, 5.077595760352404 ], [ -3.125249853575019, 5.07912441851564 ], [ -3.126225229668087, 5.080752881122072 ], [ -3.127041827516711, 5.08246647878112 ], [ -3.127692291107474, 5.084249775195226 ], [ -3.128170760984693, 5.086086706211913 ], [ -3.128472927033123, 5.087960724531634 ], [ -3.128596067303996, 5.089854948767874 ], [ -3.129045225304034, 5.115601573767885 ], [ -3.128984760996809, 5.11754298688441 ], [ -3.128736258637169, 5.11946937921172 ], [ -3.128302062062605, 5.121362581302386 ], [ -3.127686266550969, 5.12320473675438 ], [ -3.126894680194424, 5.124978470630022 ], [ -3.125934769118371, 5.126667053333811 ], [ -3.124815587062066, 5.128254558403507 ], [ -3.123547689985083, 5.129726012726156 ], [ -3.122143036505073, 5.131067537762285 ], [ -3.120614875105844, 5.132266480446225 ], [ -3.118977619179631, 5.133311532527963 ], [ -3.117246711082101, 5.134192837230873 ], [ -3.11543847648235, 5.134902082219384 ], [ -3.113569970381601, 5.135432577999695 ], [ -3.111658816252957, 5.13577932101409 ], [ -3.066038695253, 5.141785381013981 ], [ -3.064135927630632, 5.14194395924083 ], [ -3.062226709168764, 5.141920368063983 ], [ -3.020276262168673, 5.139395766063989 ], [ -3.018316310604519, 5.13918044487383 ], [ -3.016387085953956, 5.138773178871787 ], [ -3.014507339187435, 5.13817792645263 ], [ -3.012695340378408, 5.137400473132588 ], [ -2.955423961703628, 5.109408410549404 ], [ -2.958678568399131, 5.118416437752046 ], [ -2.959255957130102, 5.120300094927545 ], [ -2.959645214044847, 5.122231421196145 ], [ -2.959842561850608, 5.124191675247287 ], [ -2.959846085512845, 5.126161835059401 ], [ -2.959655750838449, 5.12812278248684 ], [ -2.95927340480755, 5.130055488779611 ], [ -2.958702757650689, 5.131941199235601 ], [ -2.957949346845276, 5.133761615193492 ], [ -2.957020483380714, 5.13549907160033 ], [ -2.955925180813614, 5.137136708430633 ], [ -2.954674067801545, 5.138658634293641 ], [ -2.953279284964083, 5.140050080641073 ], [ -2.951754367071993, 5.141297545078981 ], [ -2.950114111707772, 5.142388922393024 ], [ -2.948374435672056, 5.143313622015719 ], [ -2.946552220529282, 5.144062670795776 ], [ -2.944665148791436, 5.144628800072256 ], [ -2.942731532329517, 5.145006516208602 ], [ -2.940770134677787, 5.145192153902103 ], [ -2.877750786677776, 5.148035655902179 ], [ -2.875705228842954, 5.148023235748219 ], [ -2.873671639123008, 5.147801935122934 ], [ -2.871671291210708, 5.147374069085978 ], [ -2.869725111051197, 5.146744113609336 ], [ -2.867853457932481, 5.145918658753502 ], [ -2.866075911503803, 5.14490633972784 ], [ -2.848219858778755, 5.133489971152965 ], [ -2.847314072935223, 5.134535064054424 ], [ -2.845946948461409, 5.135963247416236 ], [ -2.844445496521343, 5.137249474112245 ], [ -2.842824389067059, 5.138381175337624 ], [ -2.841099467305447, 5.139347292286123 ], [ -2.839287586900468, 5.140138384214984 ], [ -2.837406453262255, 5.140746720698391 ], [ -2.835474448532642, 5.141166357167977 ], [ -2.833510451957756, 5.141393193002213 ], [ -2.831533655403003, 5.141425011597027 ], [ -2.829563375813179, 5.14126150202612 ], [ -2.827618866450321, 5.140904262079283 ], [ -2.825719128753867, 5.140356782649047 ], [ -2.823882726661577, 5.139624413618237 ], [ -2.822127605205656, 5.138714311581747 ], [ -2.820470915156722, 5.137635369913435 ], [ -2.81892884542918, 5.136398131861459 ], [ -2.81751646488569, 5.135014687521332 ], [ -2.812009705205591, 5.129059574052076 ], [ -2.792753377285109, 5.136306862363607 ], [ -2.790860523055942, 5.136913711396569 ], [ -2.788916778757071, 5.137329669305852 ], [ -2.786941344514311, 5.137550627297827 ], [ -2.7849537334838, 5.137574402769952 ], [ -2.782973579102854, 5.137400760870322 ], [ -2.781020441152699, 5.137031416817505 ], [ -2.779113612548764, 5.136470018957784 ], [ -2.777271928767052, 5.13572211272712 ], [ -2.775513581789059, 5.134795085873858 ], [ -2.761723714250586, 5.126624411177456 ], [ -2.747799570837082, 5.143331436343497 ], [ -2.782413875643063, 5.207406612893911 ], [ -2.783246252879299, 5.209142355177842 ], [ -2.783907902236886, 5.210950081171247 ], [ -2.784392694108275, 5.21281304386037 ], [ -2.784696137317165, 5.214713984511366 ], [ -2.784815420725356, 5.216635292557505 ], [ -2.784749439275509, 5.218559168745805 ], [ -2.784498804228542, 5.22046779003167 ], [ -2.784065837500824, 5.222343474693952 ], [ -2.778598459178062, 5.241721013578896 ], [ -2.786732280817283, 5.245189063888009 ], [ -2.788520780571714, 5.246059141982391 ], [ -2.790214018344221, 5.24710255614162 ], [ -2.791795248998437, 5.248308987606765 ], [ -2.793248835083223, 5.249666505472593 ], [ -2.794560401477963, 5.251161684677276 ], [ -2.79571697755414, 5.252779738768443 ], [ -2.796707125447309, 5.254504666132588 ], [ -2.797521053170921, 5.256319408241721 ], [ -2.798150711453368, 5.258206018352282 ], [ -2.798589873340601, 5.260145838987992 ], [ -2.798834195777079, 5.26211968645144 ], [ -2.798881262556063, 5.264108040539685 ], [ -2.798730608214496, 5.266091237587709 ], [ -2.798383722636156, 5.268049664930621 ], [ -2.797892915188609, 5.269790579462825 ], [ -2.799967616100745, 5.272042274095575 ], [ -2.801254194342071, 5.273587810051734 ], [ -2.802379064854505, 5.275254732753331 ], [ -2.803330855295693, 5.277026189757861 ], [ -2.804099943147648, 5.278884271790177 ], [ -2.804678552999552, 5.280810193803685 ], [ -2.805060835156485, 5.282784484895528 ], [ -2.805242924779324, 5.284787185155699 ], [ -2.805222980957934, 5.286798047459992 ], [ -2.805001205322601, 5.288796742166648 ], [ -2.804579840005573, 5.290763062647252 ], [ -2.803963144973296, 5.292677129573982 ], [ -2.803157354958528, 5.294519591897868 ], [ -2.802170616427738, 5.296271822486201 ], [ -2.80101290522104, 5.297916106441217 ], [ -2.799695925697326, 5.299435820196158 ], [ -2.788520210220129, 5.311092268603324 ], [ -2.796134887061628, 5.341575878258337 ], [ -2.796526076103712, 5.343566443839205 ], [ -2.796713605565525, 5.34558639752663 ], [ -2.796695546059482, 5.347614957127092 ], [ -2.796472083389917, 5.349631251905565 ], [ -2.796045516641444, 5.351614537313035 ], [ -2.795420234524938, 5.353544408415768 ], [ -2.7946026702245, 5.35540100983046 ], [ -2.793601235209962, 5.357165240005364 ], [ -2.792426232695898, 5.358818947745664 ], [ -2.784077404696002, 5.369389696745731 ], [ -2.782754981052876, 5.370901355259765 ], [ -2.781287611716448, 5.372272757092 ], [ -2.779690094797432, 5.373490071943797 ], [ -2.777978540917498, 5.374541023451254 ], [ -2.776170210737049, 5.375415012989764 ], [ -2.774283340885098, 5.376103226558905 ], [ -2.772336960046705, 5.376598723669775 ], [ -2.770350697062691, 5.376896507338373 ], [ -2.768344582976919, 5.376993574479116 ], [ -2.766338849027429, 5.376888946190333 ], [ -2.764353722618671, 5.376583677626281 ], [ -2.762409223332384, 5.376080847356135 ], [ -2.760524961034333, 5.375385526317269 ], [ -2.758719938112946, 5.374504726675912 ], [ -2.757012357844223, 5.373447331110944 ], [ -2.755419440815537, 5.372224003233933 ], [ -2.753957251259634, 5.370847080048874 ], [ -2.747663933861754, 5.36429411785695 ], [ -2.745344589564753, 5.364436135755565 ], [ -2.787764378660179, 5.549911907914447 ], [ -2.788097802014836, 5.551768914686659 ], [ -2.788254755820846, 5.553649077123326 ], [ -2.78823384332852, 5.555535663446062 ], [ -2.788035250640495, 5.557411884709596 ], [ -2.78317103058444, 5.589031368970527 ], [ -2.859277390696163, 5.634355491329141 ], [ -2.925665918961419, 5.601805782462981 ], [ -2.927560375434626, 5.600995170775128 ], [ -2.929528183221613, 5.600383787793001 ], [ -2.931548453764093, 5.599978123433526 ], [ -2.933599741604201, 5.599782483881317 ], [ -2.935660272031064, 5.599798945877921 ], [ -2.937708172222445, 5.600027334676914 ], [ -2.939721703427841, 5.600465225898858 ], [ -2.941679491728407, 5.601107971266426 ], [ -2.94356075492412, 5.601948747946536 ], [ -2.945345523139784, 5.602978630975678 ], [ -2.977525659139806, 5.623828432975778 ], [ -2.97911903400958, 5.624975627403113 ], [ -2.98059224727823, 5.626273526164499 ], [ -2.981931101226599, 5.627709621089868 ], [ -2.983122692989394, 5.62927007217868 ], [ -2.984155538903277, 5.630939840979416 ], [ -2.985019685177763, 5.632702835518836 ], [ -2.985706803822344, 5.634542065384297 ], [ -2.986210272905388, 5.636439805464538 ], [ -2.986525240371324, 5.638377766770946 ], [ -2.986648670801101, 5.640337272693045 ], [ -2.986579374665261, 5.642299438989588 ], [ -2.986318019787735, 5.644245355780648 ], [ -2.97716174588943, 5.693826558007214 ], [ -3.024376449263883, 5.689799070839469 ], [ -3.026366870948385, 5.689728812796774 ], [ -3.028354411172191, 5.689856869555492 ], [ -3.03031935992287, 5.690181971204067 ], [ -3.032242231222811, 5.690700893778796 ], [ -3.034103956367506, 5.691408491235201 ], [ -3.035886073025826, 5.692297746480245 ], [ -3.03757090832702, 5.693359840959352 ], [ -3.039141754118803, 5.694584242108133 ], [ -3.040583032658541, 5.695958807801576 ], [ -3.041880451094399, 5.697469906764913 ], [ -3.043021143204505, 5.69910255375206 ], [ -3.043993796988527, 5.700840558151113 ], [ -3.04478876684637, 5.702666684543185 ], [ -3.04539816923153, 5.704562823622383 ], [ -3.045815960830549, 5.70651017178193 ], [ -3.046037998493258, 5.708489417585522 ], [ -3.04606208031952, 5.710480933274726 ], [ -3.04066664745973, 5.853450207735697 ], [ -3.092465208809728, 5.977573828257205 ], [ -3.093219578434048, 5.979716458046581 ], [ -3.093726120702404, 5.981930809164806 ], [ -3.121472385126789, 6.145465324770921 ], [ -3.166696437840012, 6.231814750287558 ], [ -3.173622384667727, 6.231581462872726 ], [ -3.17559867634974, 6.23161261810183 ], [ -3.177562241847407, 6.231838693304058 ], [ -3.179493903510053, 6.232257480459733 ], [ -3.181374795283738, 6.232864889379966 ], [ -3.183186546971267, 6.233654987654506 ], [ -3.184911463649288, 6.234620058592094 ], [ -3.186532698490163, 6.235750676587453 ], [ -3.188034417300694, 6.2370357991788 ], [ -3.189401953170715, 6.238462874896799 ], [ -3.190621949721109, 6.240017965851605 ], [ -3.191682491552214, 6.241685883860733 ], [ -3.192573220618531, 6.243450338788214 ], [ -3.193285437393151, 6.245294097646266 ], [ -3.193812185833852, 6.247199152905546 ], [ -3.19414832132101, 6.249146898370171 ], [ -3.194290560903811, 6.251118310899749 ], [ -3.194237515363999, 6.253094136203616 ], [ -3.191115423239204, 6.293947100758938 ], [ -3.255946530406407, 6.5335087709784 ], [ -3.256379761935024, 6.535511418192474 ], [ -3.256605820894041, 6.537547881491548 ], [ -3.256622334633378, 6.539596786740173 ], [ -3.254579905352088, 6.586859946878501 ], [ -3.274132669339543, 6.601666938998786 ], [ -3.275620253334942, 6.60291142628643 ], [ -3.276980300491719, 6.604294150584264 ], [ -3.278200020740246, 6.605802108563721 ], [ -3.279267943664348, 6.607421119181553 ], [ -3.280174026370671, 6.609135957040296 ], [ -3.280909747933416, 6.610930495569999 ], [ -3.281468189526303, 6.612787858684689 ], [ -3.281844099488151, 6.614690579487397 ], [ -3.282033942710223, 6.616620764531249 ], [ -3.282035933880875, 6.618560262091886 ], [ -3.281850054274864, 6.620490832868766 ], [ -3.281478051929449, 6.622394321510046 ], [ -3.280923425205605, 6.62425282734799 ], [ -3.280191389888963, 6.626048872739306 ], [ -3.231188269254226, 6.731356437572668 ], [ -3.249221491903489, 6.767776126136996 ], [ -3.249942971478185, 6.769413613277997 ], [ -3.250515205382796, 6.771109032185542 ], [ -3.250933613032389, 6.772848811468213 ], [ -3.25119484518156, 6.774619024641221 ], [ -3.251296810734277, 6.776405501604327 ], [ -3.251842476734385, 6.820893220604344 ], [ -3.251772642521042, 6.8228262481622 ], [ -3.251516401967227, 6.824743489183921 ], [ -3.251076151865312, 6.826627010408794 ], [ -3.250456010174262, 6.828459193980331 ], [ -3.249661777501564, 6.830222902238066 ], [ -3.248700882846191, 6.831901638017771 ], [ -3.099757679846147, 7.06517226801765 ], [ -3.098644166306026, 7.066743879504768 ], [ -3.097384637756402, 7.068201090163236 ], [ -3.09599077593119, 7.069530384819318 ], [ -3.094475508463484, 7.07071943468025 ], [ -3.092852888985792, 7.071757211679941 ], [ -3.091137966786987, 7.07263409076084 ], [ -3.089346647234852, 7.073341939143342 ], [ -3.050426505860151, 7.08659270992267 ], [ -3.043480659064297, 7.144850890324895 ], [ -3.043136572416794, 7.146859734256548 ], [ -3.042589827087881, 7.148823129048241 ], [ -3.041846100822171, 7.150720685583478 ], [ -3.040913116937221, 7.152532698451301 ], [ -3.03980056411979, 7.154240350579563 ], [ -2.978242658173707, 7.238951116429685 ], [ -2.994143467271376, 7.26001486083435 ], [ -2.995276870361985, 7.261685373294706 ], [ -2.996236100230184, 7.263461631301293 ], [ -2.997011384207432, 7.265325538273391 ], [ -2.99759482367257, 7.267258104659451 ], [ -2.997980474523257, 7.269239641403338 ], [ -2.998164407734697, 7.271249960537142 ], [ -2.998144749388691, 7.273268580856925 ], [ -2.997921699765176, 7.275274936585967 ], [ -2.943201039765246, 7.611774428585997 ], [ -2.942786331306158, 7.613712698684553 ], [ -2.942181799499105, 7.615600399766625 ], [ -2.941393382167456, 7.617418990482578 ], [ -2.846853833307394, 7.808884859538018 ], [ -2.852645390939974, 7.845449812235701 ], [ -2.852847344895511, 7.84724821286623 ], [ -2.85288591004191, 7.849057506363021 ], [ -2.852760770624123, 7.850862878998838 ], [ -2.852472951230588, 7.852649549148796 ], [ -2.82814378223059, 7.969673878148742 ], [ -2.827675363385213, 7.971493414180372 ], [ -2.827038267203536, 7.973260965039725 ], [ -2.826238116262572, 7.974960931526684 ], [ -2.825281972149595, 7.976578310894774 ], [ -2.824178273141376, 7.97809882925519 ], [ -2.822936759733701, 7.979509067548411 ], [ -2.821568388678389, 7.980796579971686 ], [ -2.784739264678381, 8.012322725971606 ], [ -2.783003874428691, 8.013651066218687 ], [ -2.781133912237765, 8.014782131440169 ], [ -2.779151705767994, 8.015702416527484 ], [ -2.651096912380578, 8.066848693391011 ], [ -2.649873511086309, 8.115594470689992 ], [ -2.649722683889785, 8.117594723509464 ], [ -2.649372249248298, 8.119569807241124 ], [ -2.648825732324241, 8.121499853726768 ], [ -2.648088630750213, 8.123365447855882 ], [ -2.647168359326129, 8.125147822870023 ], [ -2.625761617326119, 8.161954009870048 ], [ -2.624654410812449, 8.163653184384414 ], [ -2.623380815553225, 8.165231492152204 ], [ -2.621953927611035, 8.166672703828057 ], [ -2.620388419318916, 8.167961999791556 ], [ -2.618700388408411, 8.169086122533681 ], [ -2.616907192480605, 8.17003351298048 ], [ -2.615027270522244, 8.170794429352139 ], [ -2.613079953302229, 8.171361047335276 ], [ -2.611085264598135, 8.171727540538411 ], [ -2.609063715296701, 8.17189014040329 ], [ -2.607036092485494, 8.171847174956032 ], [ -2.605023245704467, 8.17159908599962 ], [ -2.571430594506741, 8.165716483443612 ], [ -2.562934560538176, 8.184115095297908 ], [ -2.561998384141791, 8.185900156578441 ], [ -2.560887287264098, 8.18758192164788 ], [ -2.559612555510584, 8.18914330852402 ], [ -2.558187136554813, 8.190568457927041 ], [ -2.556625508626637, 8.19184289436498 ], [ -2.55494353345429, 8.192953673163846 ], [ -2.515752047144213, 8.216087519884631 ], [ -2.524310540877081, 8.33143336649011 ], [ -2.604772255518758, 8.763937947999873 ], [ -2.636165994110305, 8.775925198401774 ], [ -2.638001334840526, 8.776733628677386 ], [ -2.639746484873926, 8.777721801975678 ], [ -2.641383896573755, 8.778879782127408 ], [ -2.642897105621659, 8.780195925540518 ], [ -2.644270896567854, 8.781656998277478 ], [ -2.645491455823803, 8.783248309123683 ], [ -2.646546510559064, 8.784953857308913 ], [ -2.647425452105675, 8.786756493396473 ], [ -2.648119442629244, 8.788638091722294 ], [ -2.648621503994147, 8.790579732650068 ], [ -2.648926587929296, 8.792561892809855 ], [ -2.649031626788946, 8.794564641407282 ], [ -2.648935564398147, 8.796567840629429 ], [ -2.648639366672667, 8.798551348132301 ], [ -2.648146011906632, 8.800495219573875 ], [ -2.647460460825516, 8.802379909156198 ], [ -2.646589606705607, 8.804186466160106 ], [ -2.645542206061512, 8.805896725496373 ], [ -2.644328790598634, 8.807493490357265 ], [ -2.64296156131595, 8.808960705131968 ], [ -2.620905378446801, 8.830369301303996 ], [ -2.64071648735757, 8.86885475570886 ], [ -2.641524261476938, 8.87063215517745 ], [ -2.642154888922141, 8.872479844795384 ], [ -2.642602360368739, 8.874380217707037 ], [ -2.642862411807732, 8.87631516503137 ], [ -2.64293256517782, 8.878266248423625 ], [ -2.642812151979137, 8.880214875776518 ], [ -2.63928545841432, 8.911988070789823 ], [ -2.662363061008637, 8.92737407284544 ], [ -2.663971539919275, 8.928566949747777 ], [ -2.665452666695023, 8.929914697196025 ], [ -2.666791592448578, 8.931403803483891 ], [ -2.66797489391466, 8.933019339726277 ], [ -2.66899070802361, 8.934745109527308 ], [ -2.669828850833395, 8.936563811355674 ], [ -2.670480919627698, 8.938457211999381 ], [ -2.6709403771565, 8.940406329360989 ], [ -2.680953309330585, 8.994992891648543 ], [ -2.718473429567962, 8.99211245863304 ], [ -2.720473448841676, 8.992059283522245 ], [ -2.722468773540378, 8.992206198580652 ], [ -2.724439435927594, 8.992551733590819 ], [ -2.726365715069053, 8.993092430693471 ], [ -2.728228334185245, 8.993822878991185 ], [ -2.730008653559189, 8.994735768696678 ], [ -2.731688857068968, 8.995821964283746 ], [ -2.733252130478318, 8.99707059590887 ], [ -2.734682829701092, 8.998469168188585 ], [ -2.735966637355728, 9.000003685244058 ], [ -2.737090706043028, 9.001658790761502 ], [ -2.738043786913448, 9.003417921666829 ], [ -2.738673131020458, 9.004921357565355 ], [ -2.761138658210427, 9.00561496645493 ], [ -2.763110452456869, 9.005773720349886 ], [ -2.76505691879857, 9.006126486745808 ], [ -2.766959015075262, 9.006669814550783 ], [ -2.768798133196291, 9.007398388422379 ], [ -2.770556281182415, 9.008305080767308 ], [ -2.772216259180235, 9.009381021470237 ], [ -2.773761827727297, 9.010615684669574 ], [ -2.775177866621752, 9.01199699173133 ], [ -2.776450522842361, 9.013511429413644 ], [ -2.798641665842348, 9.042739448413716 ], [ -2.799796148338739, 9.044433813395949 ], [ -2.800771095530879, 9.046237470929972 ], [ -2.801556261448827, 9.048131465916445 ], [ -2.802143394582699, 9.050095893876591 ], [ -2.802526324599899, 9.052110110133457 ], [ -2.802701027190723, 9.054152946772117 ], [ -2.802665666360864, 9.056202935098719 ], [ -2.802420613726349, 9.058238531260489 ], [ -2.801968444608122, 9.0602383426556 ], [ -2.801313910967349, 9.062181352753512 ], [ -2.800463891465829, 9.064047141963078 ], [ -2.786906777034939, 9.090166578493552 ], [ -2.79834916714463, 9.132040873382529 ], [ -2.798767883048221, 9.133927354879742 ], [ -2.799002586339054, 9.135845439813346 ], [ -2.799051085982434, 9.137777222210989 ], [ -2.798912929217767, 9.13970466822985 ], [ -2.798589405785233, 9.141609784508676 ], [ -2.798083535885627, 9.143474786141898 ], [ -2.797400041985756, 9.145282262707745 ], [ -2.796545304732621, 9.147015340800433 ], [ -2.795527303387909, 9.148657841549111 ], [ -2.794355541338887, 9.150194431653114 ], [ -2.793040957381061, 9.151610766523502 ], [ -2.79159582360082, 9.152893624194663 ], [ -2.790033630811352, 9.154031028755837 ], [ -2.788368962611332, 9.1550123621503 ], [ -2.753515396770129, 9.173350190952444 ], [ -2.743350395415281, 9.206126701710655 ], [ -2.742683906835446, 9.207955879203498 ], [ -2.741842733126163, 9.209711591058612 ], [ -2.740834844612999, 9.211377201478971 ], [ -2.739669791284856, 9.212936928400568 ], [ -2.738358612305497, 9.214375993031314 ], [ -2.736913731414785, 9.215680759883679 ], [ -2.689253423004675, 9.254680804185917 ], [ -2.72928246100527, 9.283940853428003 ], [ -2.730802628757984, 9.285170430669284 ], [ -2.732195473236139, 9.286542565665682 ], [ -2.733447683128864, 9.2880441450253 ], [ -2.734547291159538, 9.289660818266105 ], [ -2.735483788456166, 9.291377134962428 ], [ -2.736248224983879, 9.293176692403513 ], [ -2.736833295079753, 9.295042292353015 ], [ -2.737233407272487, 9.296956105411255 ], [ -2.737444737719674, 9.298899841409471 ], [ -2.739504846719687, 9.33354147740936 ], [ -2.739528296909565, 9.335416326706488 ], [ -2.739376070514168, 9.337285132989356 ], [ -2.739049505455013, 9.339131471273769 ], [ -2.738551471920404, 9.340939114047313 ], [ -2.737886347139277, 9.342692173893376 ], [ -2.737059976909627, 9.344375243126025 ], [ -2.736079624219644, 9.345973529208548 ], [ -2.734953905413134, 9.347472984765414 ], [ -2.733692714460265, 9.348860431045003 ], [ -2.732307135999214, 9.350123673747976 ], [ -2.730809347913016, 9.351251610203274 ], [ -2.698770371043319, 9.373103447241125 ], [ -2.694101746185681, 9.386353001215006 ], [ -2.703270744109436, 9.477101476235783 ], [ -2.783136160278105, 9.556131447978528 ], [ -2.784529098444851, 9.55766026017838 ], [ -2.785756703969188, 9.559324750537442 ], [ -2.786805849011103, 9.561107119231012 ], [ -2.787665314161766, 9.562988305860134 ], [ -2.7883259084223, 9.564948193280816 ], [ -2.788780567491027, 9.566965822733916 ], [ -2.789024429308111, 9.569019617975162 ], [ -2.791085662308231, 9.599990822975062 ], [ -2.791123675130254, 9.601814244026508 ], [ -2.790995423494872, 9.603633546316818 ], [ -2.790701973913605, 9.605433600940641 ], [ -2.790245766646636, 9.607199439051868 ], [ -2.789630595410157, 9.608916376341144 ], [ -2.78886157582869, 9.610570135147265 ], [ -2.787945102894709, 9.612146963186962 ], [ -2.767273011608419, 9.644249552304128 ], [ -2.77498309369615, 9.667007291979266 ], [ -2.79708381000425, 9.679373432263743 ], [ -2.798770710720483, 9.680430866165754 ], [ -2.800344119913949, 9.681650777635273 ], [ -2.801788445884344, 9.68302107795812 ], [ -2.803089376081717, 9.684528188141588 ], [ -2.804234018936706, 9.686157173475491 ], [ -2.805211031609555, 9.687891891527697 ], [ -2.806010732392001, 9.689715152107565 ], [ -2.806625196648174, 9.69160888761218 ], [ -2.807048335343785, 9.693554332067265 ], [ -2.807275955385417, 9.695532207088645 ], [ -2.810489899385512, 9.745071972088722 ], [ -2.810516034233821, 9.747162145325676 ], [ -2.810323866555895, 9.749243630078043 ], [ -2.809915495546858, 9.751293688689339 ], [ -2.809295382156863, 9.753289926794958 ], [ -2.8084703003607, 9.755210537953005 ], [ -2.807449263160474, 9.757034541852818 ], [ -2.806243424129655, 9.758742013499003 ], [ -2.751220243851337, 9.828599266456433 ], [ -2.779268274934394, 9.873369641294536 ], [ -2.780248590320615, 9.875124729590549 ], [ -2.781047762665814, 9.876969364173856 ], [ -2.781657717625735, 9.878884907994847 ], [ -2.782072292591832, 9.880852007580721 ], [ -2.782287298954457, 9.88285078857105 ], [ -2.782300564421991, 9.884861056516035 ], [ -2.782111954968334, 9.886862500908782 ], [ -2.781723376187026, 9.888834900390119 ], [ -2.764348780540307, 9.958387242432458 ], [ -2.809107807864208, 10.061704456766433 ], [ -2.809734004566876, 10.063343522874098 ], [ -2.810214133694274, 10.065031165027147 ], [ -2.810544499860532, 10.06675439403454 ], [ -2.810722560352885, 10.068499946805666 ], [ -2.817734762352884, 10.189731327805525 ], [ -2.817751178702302, 10.191709612930204 ], [ -2.817572066887518, 10.193679841467418 ], [ -2.817199179464593, 10.195622735314462 ], [ -2.816636165026519, 10.19751928383047 ], [ -2.815888532502824, 10.199350929849919 ], [ -2.814963597256325, 10.201099751258994 ], [ -2.813870409504469, 10.202748636358157 ], [ -2.784018778663688, 10.243269844123905 ], [ -2.862209294731723, 10.302385283224881 ], [ -2.86372464518454, 10.303653315066045 ], [ -2.865107477919583, 10.305064685099717 ], [ -2.866344295826481, 10.306605617677812 ], [ -2.867423026969578, 10.3082610725597 ], [ -2.868333142415814, 10.310014891712173 ], [ -2.869065759002158, 10.311849957019586 ], [ -2.869613726039538, 10.313748357364878 ], [ -2.869971695106996, 10.315691563450654 ], [ -2.870136172254835, 10.31766060865402 ], [ -2.870105552107248, 10.319636274149902 ], [ -2.869880133531554, 10.321599276496 ], [ -2.86946211672111, 10.323530455848427 ], [ -2.850724268721109, 10.393241719848575 ], [ -2.850131517299214, 10.395085657024016 ], [ -2.849363181782977, 10.396863610648165 ], [ -2.848426468119512, 10.398558905922684 ], [ -2.847330161415035, 10.400155643272674 ], [ -2.846084543542459, 10.401638847463152 ], [ -2.844701296711348, 10.402994608046498 ], [ -2.843193393904595, 10.404210209823612 ], [ -2.841574977209414, 10.405274252095277 ], [ -2.817732834162238, 10.419345167851922 ], [ -2.875203781713476, 10.443363856372663 ], [ -2.877070524114683, 10.44426020948403 ], [ -2.878834576811337, 10.445344780448123 ], [ -2.880477028381937, 10.446605942186741 ], [ -2.881980271022587, 10.448030174490846 ], [ -2.883328189310404, 10.449602208963142 ], [ -2.884506332967947, 10.45130519270203 ], [ -2.885502071776549, 10.453120868972119 ], [ -2.958434282776515, 10.604167449972122 ], [ -2.959132232038301, 10.605792849128543 ], [ -2.959683832498947, 10.607473561037684 ], [ -2.960084769187191, 10.609196438097065 ], [ -2.96033190572007, 10.61094800286145 ], [ -2.960423308837709, 10.612714553472049 ], [ -2.960600645837734, 10.636493333471979 ], [ -2.960513930266204, 10.638508832500731 ], [ -2.96022461483505, 10.640505342582484 ], [ -2.959735643152248, 10.642462550445401 ], [ -2.959051990206306, 10.644360542693738 ], [ -2.958180611748793, 10.6461800084145 ], [ -2.957130373523811, 10.647902435654192 ], [ -2.933836475537023, 10.682096975853305 ], [ -2.950398735900564, 10.692192766669743 ], [ -2.952034925675179, 10.693304715172845 ], [ -2.953553259275514, 10.694572867186681 ], [ -2.954938881528883, 10.695984815281715 ], [ -2.956178235692651, 10.697526745146805 ], [ -2.957259196091591, 10.699183570746566 ], [ -2.95817118675387, 10.700939081921131 ], [ -2.958905284884934, 10.702776102984176 ], [ -2.959454308166944, 10.704676660767543 ], [ -2.959812885029604, 10.706622160468305 ], [ -2.959977507204894, 10.708593567577836 ], [ -2.959946564051489, 10.710571594112885 ], [ -2.95972035831306, 10.712536887326634 ], [ -2.957576848313007, 10.725483824326615 ], [ -2.957124667432104, 10.727537929314922 ], [ -2.956459267263813, 10.729533188062071 ], [ -2.955588006826001, 10.731447533929865 ], [ -2.95452052185583, 10.7332597951391 ], [ -2.953268618242963, 10.734949928919642 ], [ -2.95184614146189, 10.73649924317419 ], [ -2.913031508254888, 10.774548910406629 ], [ -2.883776004210055, 10.891308382133515 ], [ -2.883198532408944, 10.893207720042621 ], [ -2.882435610846336, 10.895040452664515 ], [ -2.881494756127152, 10.896788523192678 ], [ -2.880385237924132, 10.89843470894502 ], [ -2.879117987649355, 10.899962791048548 ], [ -2.877705490753643, 10.901357714234122 ], [ -2.876161663714963, 10.902605735166913 ], [ -2.874501716927784, 10.903694557851184 ], [ -2.872742004844255, 10.904613454775287 ], [ -2.870899864843675, 10.905353372603365 ], [ -2.868993446417775, 10.905907021372384 ], [ -2.850181740156789, 10.910370997400095 ], [ -2.841349333512015, 10.923288716695808 ], [ -2.858620947364051, 10.958797179592056 ], [ -2.859441492867985, 10.960737870113709 ], [ -2.860053313992182, 10.962754116511558 ], [ -2.860449620172798, 10.964823540594743 ], [ -2.860626012832674, 10.966923173956642 ], [ -2.860580534200871, 10.969029712899768 ], [ -2.860313689041835, 10.971119777082027 ], [ -2.853675487041859, 11.007664600082126 ], [ -2.853228080822769, 11.009584215498155 ], [ -2.852593892900533, 11.01145046879008 ], [ -2.851779082977027, 11.013245233526442 ], [ -2.850791565088516, 11.014951077625476 ], [ -2.849640930738684, 11.01655143266837 ], [ -2.848338355738857, 11.018030754824006 ], [ -2.846896491660264, 11.01937467582213 ], [ -2.845329342952628, 11.020570142508612 ], [ -2.843652130922597, 11.021605543627334 ], [ -2.841881145893161, 11.022470822597288 ], [ -2.840033588979994, 11.023157575189526 ], [ -2.838127405021507, 11.023659131155236 ], [ -2.83618110828531, 11.023970619012145 ], [ -2.83421360264396, 11.024089013359943 ], [ -2.778325602036347, 11.024692951003667 ], [ -2.773447310749608, 11.031127445783346 ], [ -2.772247581112748, 11.032564838369264 ], [ -2.770918695568128, 11.033883743921953 ], [ -2.769472299965837, 11.035072604052198 ], [ -2.767921069969644, 11.036121000039659 ], [ -2.76627859997228, 11.037019744138595 ], [ -2.764559283959323, 11.037760960095792 ], [ -2.762778189365754, 11.038338152175061 ], [ -2.760950925030659, 11.03874626208342 ], [ -2.759093504407267, 11.038981713300052 ], [ -2.75722220522711, 11.039042442419584 ], [ -1.85637211012552, 11.026084906229894 ], [ -1.764149822988492, 11.027738715383174 ], [ -1.764510106400129, 11.037196185989192 ], [ -1.764486468944097, 11.039192002696801 ], [ -1.764264019135314, 11.041175524600455 ], [ -1.763844972486596, 11.043126996600229 ], [ -1.763233502538153, 11.045026982800666 ], [ -1.762435699290759, 11.04685656008467 ], [ -1.76145950855174, 11.048597506580332 ], [ -1.760314652797848, 11.050232483143613 ], [ -1.759012534343205, 11.051745206049429 ], [ -1.757566121776734, 11.053120609171156 ], [ -1.755989820800095, 11.054344994033341 ], [ -1.754299330752554, 11.055406166243147 ], [ -1.752511488251717, 11.056293556941712 ], [ -1.750644099507432, 11.056998328065852 ], [ -1.748715762978921, 11.057513460371684 ], [ -1.746745684141424, 11.057833823343556 ], [ -1.7447534842072, 11.057956226291962 ], [ -1.546039741207215, 11.060230467291914 ], [ -1.544134851685052, 11.060161428179274 ], [ -1.542245186060773, 11.059911359550419 ], [ -1.540387908972668, 11.059482532885294 ], [ -1.538579890860151, 11.058878843399276 ], [ -1.536837554722364, 11.058105774661271 ], [ -1.535176726941075, 11.057170348784133 ], [ -1.533612493522912, 11.056081062639807 ], [ -1.53215906306673, 11.054847810678623 ], [ -1.530829637700854, 11.053481795053791 ], [ -1.529636293162519, 11.051995423867464 ], [ -1.528589869108802, 11.050402198462656 ], [ -1.527699870655396, 11.048716590784798 ], [ -1.526974382037595, 11.046953911926876 ], [ -1.526419993177738, 11.045130173052261 ], [ -1.526041739826134, 11.043261939958473 ], [ -1.525843057819197, 11.041366182602998 ], [ -1.525298897011371, 11.031787866578988 ], [ -1.424483027637136, 11.040193019480656 ], [ -1.422410881736219, 11.040257954123078 ], [ -1.420343146493992, 11.040108033775793 ], [ -1.418302039752217, 11.039744869334863 ], [ -1.416309493229076, 11.03917236300687 ], [ -1.414386916862575, 11.03839666637967 ], [ -1.41255496876049, 11.037426114323496 ], [ -1.410833333228729, 11.036271135432671 ], [ -1.370856282428284, 11.006335028236929 ], [ -0.917249455913114, 11.022233450050001 ], [ -0.915237638970596, 11.02220269104469 ], [ -0.913239093229576, 11.021969949884468 ], [ -0.9112740457393, 11.021537582115579 ], [ -0.909362384517113, 11.020909963681977 ], [ -0.907523457264139, 11.02009344663691 ], [ -0.905775875549455, 11.019096294854526 ], [ -0.904137326444553, 11.01792860039216 ], [ -0.902624393514553, 11.016602181349802 ], [ -0.901252388977861, 11.015130462260467 ], [ -0.900035198732988, 11.013528338222073 ], [ -0.898985141820986, 11.011812024145872 ], [ -0.898112845745862, 11.009998890647219 ], [ -0.897427138914846, 11.008107288239602 ], [ -0.896934961287106, 11.006156361611209 ], [ -0.89664129413523, 11.004165855863787 ], [ -0.896549109630343, 11.00215591667474 ], [ -0.89655589521718, 11.000644771796891 ], [ -0.889307953667926, 11.000765634856437 ], [ -0.887324770867107, 11.000700259540515 ], [ -0.885357826614458, 11.000438690696098 ], [ -0.883426481974757, 10.999983503002836 ], [ -0.881549747597963, 10.999339176973283 ], [ -0.879746096593211, 10.998512054850224 ], [ -0.878033282693932, 10.997510278178586 ], [ -0.877678179047307, 10.997252195189068 ], [ -0.873112843150561, 11.006883237652866 ], [ -0.872197028308245, 11.008595227168541 ], [ -0.871119528859334, 11.010210349413073 ], [ -0.869890499225779, 11.011713383373779 ], [ -0.868521521859439, 11.013090164364945 ], [ -0.867025498088326, 11.014327717516712 ], [ -0.865416526533687, 11.015414380051059 ], [ -0.863709770243722, 11.016339911192542 ], [ -0.86192131379607, 11.017095588678005 ], [ -0.860068011715744, 11.017674290955734 ], [ -0.858167329637046, 11.018070564299402 ], [ -0.810694106637048, 11.025585111299316 ], [ -0.808871878747951, 11.025788459122401 ], [ -0.807038685752257, 11.025824071725404 ], [ -0.805209935017552, 11.025691649796434 ], [ -0.651313294017649, 11.007425314796526 ], [ -0.649341918175251, 11.007090668402823 ], [ -0.647413810792419, 11.006560844997269 ], [ -0.645548244801165, 11.005841140576635 ], [ -0.643763867983679, 11.004938749146032 ], [ -0.642078516573253, 11.003862690809239 ], [ -0.64050903696726, 11.002623721605756 ], [ -0.639071117334323, 11.001234225995825 ], [ -0.63777913079887, 10.999708093068124 ], [ -0.636645991770586, 10.998060577707532 ], [ -0.635683026854852, 10.996308148110694 ], [ -0.634899861634513, 10.994468321173601 ], [ -0.634304324454704, 10.992559487396585 ], [ -0.633902368172448, 10.990600727056993 ], [ -0.633698010653229, 10.988611619486965 ], [ -0.633693294609298, 10.986612047362801 ], [ -0.63388826718118, 10.984621997962153 ], [ -0.634280979466467, 10.98266136337565 ], [ -0.634867506000612, 10.980749741669991 ], [ -0.635641983994996, 10.978906240990028 ], [ -0.636596671940064, 10.977149288558017 ], [ -0.637304277904454, 10.975989316893179 ], [ -0.612998787670261, 10.954041464653779 ], [ -0.611663478248088, 10.952716484579659 ], [ -0.610458559905591, 10.951271910165628 ], [ -0.609394692023525, 10.949720520923927 ], [ -0.608481286171477, 10.948076041310431 ], [ -0.607726422847865, 10.946353019310449 ], [ -0.607136779995335, 10.944566697739113 ], [ -0.60704853948876, 10.944250056691635 ], [ -0.587623130490417, 10.998139024531428 ], [ -0.586887975093192, 10.999907932552551 ], [ -0.585986960927741, 11.001598394773046 ], [ -0.584928353648091, 11.003194903361415 ], [ -0.583721864623779, 11.004682812390715 ], [ -0.582378561850451, 11.006048472196245 ], [ -0.580910768415136, 11.007279354593758 ], [ -0.579331949447662, 11.008364167809571 ], [ -0.577656588595292, 11.009292960068159 ], [ -0.575900055153765, 11.010057210886973 ], [ -0.574078463073632, 11.010649909240994 ], [ -0.572208523135352, 11.011065617879932 ], [ -0.570307389649221, 11.011300523208044 ], [ -0.568392503086492, 11.011352470269008 ], [ -0.566481430085327, 11.011220982514898 ], [ -0.564591702299332, 11.010907266177897 ], [ -0.56274065556703, 11.010414199204659 ], [ -0.560945270877688, 11.009746304854826 ], [ -0.559222018592428, 11.008909710205899 ], [ -0.55758670734971, 11.007912089945128 ], [ -0.551093475937217, 11.003510852567375 ], [ -0.546850621583223, 11.010710237285974 ], [ -0.545748573690503, 11.012382691483211 ], [ -0.544484774120849, 11.013936532931831 ], [ -0.543071897559956, 11.015356178107002 ], [ -0.541524113791355, 11.01662738934254 ], [ -0.539856945587217, 11.017737417620927 ], [ -0.538087113029976, 11.018675130433591 ], [ -0.536232365826096, 11.019431123429197 ], [ -0.534311305293708, 11.019997814730178 ], [ -0.532343197809404, 11.020369520971629 ], [ -0.530347781585138, 11.020542514299942 ], [ -0.528345068713077, 11.020515059759582 ], [ -0.526355144463699, 11.020287432692996 ], [ -0.524397965849982, 11.019861915979208 ], [ -0.522493161477892, 11.019242777138741 ], [ -0.520659834690478, 11.018436225534529 ], [ -0.518916371979839, 11.017450350098018 ], [ -0.515988430577992, 11.015595303535411 ], [ -0.491543763959686, 11.047438458857423 ], [ -0.490318360627568, 11.048886955138663 ], [ -0.488961214156471, 11.050212816465919 ], [ -0.487484538032712, 11.051404110899991 ], [ -0.485901621436217, 11.052450117521225 ], [ -0.484226709646036, 11.053341422911226 ], [ -0.482474875841574, 11.054070005867844 ], [ -0.480661885453212, 11.054629309591087 ], [ -0.478804054283094, 11.055014300690294 ], [ -0.476918101672917, 11.05522151448157 ], [ -0.475021000040098, 11.055249086167811 ], [ -0.473129822136423, 11.055096767620745 ], [ -0.455426469159738, 11.052821547568081 ], [ -0.447976511580885, 11.116567252955472 ], [ -0.447646414312665, 11.118534650650643 ], [ -0.447121965436979, 11.120459376936184 ], [ -0.446408382719159, 11.122322282624156 ], [ -0.44551276562559, 11.124104833582519 ], [ -0.444444024690812, 11.125789295132032 ], [ -0.443212792866202, 11.127358908489366 ], [ -0.441831319732275, 11.128798057501001 ], [ -0.440313349627051, 11.130092424009028 ], [ -0.438673984903027, 11.131229130303142 ], [ -0.436929535673193, 11.132196867241564 ], [ -0.43509735754099, 11.132986006766194 ], [ -0.433195678928634, 11.133588697692591 ], [ -0.431243419721726, 11.133998943821762 ], [ -0.37568884872171, 11.142806619821709 ], [ -0.37370339950419, 11.143020456382196 ], [ -0.371706522869662, 11.14303523394732 ], [ -0.369718126353595, 11.142850805194556 ], [ -0.3677580329503, 11.142469008756235 ], [ -0.365845783490829, 11.141893650889592 ], [ -0.36400044183385, 11.141130467530909 ], [ -0.362240404811622, 11.140187067112029 ], [ -0.360583218825779, 11.139072854709353 ], [ -0.359045404921347, 11.137798938281446 ], [ -0.357642294082883, 11.136378017930074 ], [ -0.356387874394728, 11.13482425928861 ], [ -0.355294651589084, 11.133153152300062 ], [ -0.354373524372162, 11.131381356792618 ], [ -0.353633675771307, 11.129526536392211 ], [ -0.35308248158631, 11.127607182427884 ], [ -0.351378601601051, 11.120320496349485 ], [ -0.350128437851328, 11.121562764666695 ], [ -0.348659895039708, 11.122767927220133 ], [ -0.347083631300785, 11.12382831742903 ], [ -0.345413868611157, 11.124734367830552 ], [ -0.343665672549836, 11.125477903506193 ], [ -0.341854816367745, 11.126052215840687 ], [ -0.305699745458985, 11.135654901612112 ], [ -0.30628581008614, 11.136524116746328 ], [ -0.3072848068413, 11.138171804266401 ], [ -0.308120606608539, 11.139907980360496 ], [ -0.30878545135091, 11.141716529544002 ], [ -0.309273169865358, 11.143580664552871 ], [ -0.309579235064892, 11.145483082165871 ], [ -0.309700805999776, 11.147406123816074 ], [ -0.30963675422772, 11.149331939500692 ], [ -0.30938767428827, 11.151242653467875 ], [ -0.30895587818419, 11.153120530142505 ], [ -0.308345373921059, 11.154948138750859 ], [ -0.307561828304272, 11.156708515116025 ], [ -0.29388082730432, 11.183845202115906 ], [ -0.292931345090985, 11.185522272493253 ], [ -0.291824856515023, 11.187100171271783 ], [ -0.290571635548375, 11.188564247339743 ], [ -0.289183318603137, 11.189900906452449 ], [ -0.287672796485096, 11.191097737457616 ], [ -0.286054094699979, 11.192143627535433 ], [ -0.284342243223769, 11.193028865383368 ], [ -0.282553136946314, 11.193745231387579 ], [ -0.280703388084039, 11.194286073943715 ], [ -0.278810171932126, 11.194646371218415 ], [ -0.276891067388404, 11.194822777778048 ], [ -0.274963893729693, 11.194813655651759 ], [ -0.273046545156192, 11.194619089540346 ], [ -0.27115682464018, 11.194240886029808 ], [ -0.131625577640201, 11.159247246029713 ], [ -0.129787236849805, 11.158691125517883 ], [ -0.128010715680817, 11.157961235511481 ], [ -0.126312397064384, 11.15706430699572 ], [ -0.12470794275419, 11.156008611371115 ], [ -0.123212148895055, 11.154803884175323 ], [ -0.121838809574116, 11.153461235302807 ], [ -0.120600589612896, 11.151993046550313 ], [ -0.119508907773371, 11.150412857432974 ], [ -0.118573831455086, 11.148735240324008 ], [ -0.117803983854438, 11.146975666069512 ], [ -0.117206464442267, 11.14515036131759 ], [ -0.116786783493124, 11.143276158877555 ], [ -0.11654881126998, 11.141370342489148 ], [ -0.116494742332974, 11.139450487433328 ], [ -0.116625075301367, 11.137534298454479 ], [ -0.116938608255316, 11.135639446488732 ], [ -0.120620860437686, 11.118532474817567 ], [ -0.090854447003132, 11.105881277867717 ], [ -0.061325198838644, 11.106075923828698 ], [ -0.030195803714956, 11.130130939263408 ], [ -0.028618167744507, 11.131233034594381 ], [ -0.026941911182318, 11.132178398710225 ], [ -0.025182554275742, 11.132958278604244 ], [ -0.023356386687705, 11.133565453467202 ], [ -0.021480316672773, 11.133994301543893 ], [ -0.019571714525769, 11.134240852184252 ], [ -0.01764825175241, 11.134302822607104 ], [ -0.015727737451069, 11.134179639036146 ], [ -0.013827953420592, 11.133872442012473 ], [ -0.01196648952087, 11.133384075834446 ], [ -0.010160580810554, 11.132719062222696 ], [ -0.008426947969827, 11.131883558454087 ], [ -0.006781642485743, 11.130885300352267 ], [ -0.005239898033539, 11.129733530662655 ], [ -0.003815989429968, 11.128438913475033 ], [ -0.002523100464573, 11.127013435486088 ], [ 0.039746862535281, 11.07564450248621 ], [ 0.040851283497522, 11.074168656194864 ], [ 0.041815134489069, 11.072597395807911 ], [ 0.042630227913969, 11.070944068663575 ], [ 0.043289639822686, 11.06922271923009 ], [ 0.043787768728765, 11.067447969802581 ], [ 0.044120383191608, 11.06563489629149 ], [ 0.053695029191755, 10.995320303291455 ], [ 0.053860098538111, 10.993465692929373 ], [ 0.053851980874752, 10.991603768766636 ], [ 0.053670746558026, 10.989750668227892 ], [ 0.053317966358206, 10.987922452262843 ], [ 0.052796697845526, 10.986134966144872 ], [ 0.052111458890002, 10.984403702138986 ], [ 0.04305162188995, 10.964302658139042 ], [ 0.042178958573959, 10.962591053997196 ], [ 0.041146092034757, 10.960971079703061 ], [ 0.039962553384019, 10.959457684095934 ], [ 0.038639264109298, 10.95806483252564 ], [ 0.037188435292451, 10.956805377982723 ], [ 0.035623454927911, 10.955690942493309 ], [ 0.033958764380615, 10.954731809873071 ], [ 0.03220972512362, 10.953936830829983 ], [ 0.030392476985112, 10.953313341291535 ], [ 0.011172224120359, 10.947735219690648 ], [ -0.009387560440975, 10.855746116907245 ], [ -0.002673243990425, 10.823768884710036 ], [ -0.002360077722723, 10.821788198392714 ], [ -0.002246828476586, 10.819786107983392 ], [ -0.002334634744249, 10.817782740453902 ], [ -0.002622613811192, 10.815798235614944 ], [ -0.003107870630047, 10.813852543650986 ], [ -0.003785526924449, 10.811965224561508 ], [ -0.004648770230241, 10.810155251524732 ], [ -0.005688922381033, 10.808440820160676 ], [ -0.006895526749618, 10.806839165610981 ], [ -0.008256453368226, 10.805366389274392 ], [ -0.052999398277659, 10.761571065933268 ], [ -0.053012825038657, 10.719910911147764 ], [ -0.053103376993713, 10.718016325725616 ], [ -0.053372997181932, 10.716138838433388 ], [ -0.053819260603228, 10.714295335643264 ], [ -0.054438153504614, 10.71250239806627 ], [ -0.055224109480436, 10.710776151623133 ], [ -0.056170059537373, 10.709132122405583 ], [ -0.057267495673906, 10.707585097032613 ], [ -0.058506547402427, 10.706148989657649 ], [ -0.059876070525722, 10.704836716822777 ], [ -0.061363747369379, 10.703660081285653 ], [ -0.062956197568598, 10.702629665863901 ], [ -0.064639098412985, 10.701754738251843 ], [ -0.064998133770323, 10.701589207961304 ], [ -0.045101097346169, 10.649896393023853 ], [ 0.047290758869285, 10.620624768773514 ], [ 0.049200654495859, 10.619910641017919 ], [ 0.051027912147216, 10.619005760235011 ], [ 0.05275353894299, 10.617919531936069 ], [ 0.054359598374196, 10.616663246594614 ], [ 0.055829396738875, 10.615249962290978 ], [ 0.057147656659761, 10.613694368984003 ], [ 0.058300675880391, 10.612012635820694 ], [ 0.059276469689085, 10.610222243070867 ], [ 0.075204597893517, 10.577080373244806 ], [ 0.15047434624114, 10.545019151489999 ], [ 0.152231812146462, 10.544166889480216 ], [ 0.153897763926602, 10.543147261308805 ], [ 0.155456312412599, 10.541969991773618 ], [ 0.156892592804331, 10.540646309191573 ], [ 0.158192906444913, 10.53918883830754 ], [ 0.159344851472911, 10.537611479884683 ], [ 0.160337441106231, 10.535929278124634 ], [ 0.161161208429577, 10.534158277182039 ], [ 0.161808296686023, 10.532315368141946 ], [ 0.162272534211564, 10.530418127919527 ], [ 0.173453685965686, 10.472630731044404 ], [ 0.196688425336714, 10.434464314689617 ], [ 0.203150547886209, 10.440813199273952 ], [ 0.204635883295955, 10.442134041608208 ], [ 0.206244991282459, 10.44330092516674 ], [ 0.207961978502089, 10.444302324507181 ], [ 0.209769886075691, 10.4451283486937 ], [ 0.211650857093376, 10.445770838990931 ], [ 0.213586312989258, 10.446223449448722 ], [ 0.215557137044079, 10.446481709581811 ], [ 0.217543863203231, 10.446543068525322 ], [ 0.219526868345199, 10.446406920229956 ], [ 0.221486566101385, 10.446074609447997 ], [ 0.223403600312902, 10.445549418451046 ], [ 0.225259036213577, 10.444836534610653 ], [ 0.259026066342553, 10.429897179541186 ], [ 0.276992007873274, 10.43892383598696 ], [ 0.278788697601056, 10.439718563040957 ], [ 0.28065469115268, 10.440333179289984 ], [ 0.282571983159525, 10.440761754171147 ], [ 0.284522073263263, 10.441000152274267 ], [ 0.286486144629759, 10.441046073245351 ], [ 0.288445245516695, 10.440899073983182 ], [ 0.29038047214297, 10.440560572914903 ], [ 0.292273151095302, 10.440033836309309 ], [ 0.294105019511962, 10.439323946759933 ], [ 0.295858401305013, 10.438437754142004 ], [ 0.297516377720641, 10.437383809516565 ], [ 0.299062950591809, 10.436172282619447 ], [ 0.300483196707971, 10.434814863731338 ], [ 0.30176341181231, 10.433324650875772 ], [ 0.315962243812401, 10.415052611875705 ], [ 0.317135575323375, 10.413371441853872 ], [ 0.318130637895697, 10.411578988241049 ], [ 0.318936975811182, 10.409694085420476 ], [ 0.319546116394604, 10.407736539194563 ], [ 0.319951659041164, 10.405726918673475 ], [ 0.32014934247148, 10.403686340143171 ], [ 0.320137089507398, 10.401636245183949 ], [ 0.319915028898148, 10.399598175370921 ], [ 0.319485493967497, 10.39759354592379 ], [ 0.318852998096121, 10.395643420684312 ], [ 0.31324765660227, 10.380970346387825 ], [ 0.352476368070287, 10.338642507303293 ], [ 0.353769001458611, 10.337098638264461 ], [ 0.354899846973256, 10.335432618724454 ], [ 0.35585744227168, 10.333661335593469 ], [ 0.356632081089688, 10.33180274274206 ], [ 0.357215911624922, 10.32987567901924 ], [ 0.357535538573019, 10.328244121128879 ], [ 0.398079081027932, 10.32784278318265 ], [ 0.400076112290075, 10.327722947433191 ], [ 0.402051179860918, 10.327404195869386 ], [ 0.403984520747892, 10.326889717994662 ], [ 0.40585678948548, 10.326184661796141 ], [ 0.407649251710517, 10.325296082232658 ], [ 0.409343971622649, 10.324232870641183 ], [ 0.41092399145419, 10.323005665768001 ], [ 0.41237350115355, 10.321626747314905 ], [ 0.413677996584342, 10.3201099130656 ], [ 0.414824424657201, 10.318470340821817 ], [ 0.415801313942075, 10.316724436530647 ], [ 0.416598889454067, 10.314889670122765 ], [ 0.417209170464237, 10.312984400704165 ], [ 0.417626050356668, 10.311027692850624 ], [ 0.417845357732699, 10.309039125843043 ], [ 0.417864898150933, 10.307038597752543 ], [ 0.417684476085328, 10.305046126335666 ], [ 0.417305896881686, 10.303081648731979 ], [ 0.416732948692926, 10.301164821968335 ], [ 0.41597136457394, 10.299314826266034 ], [ 0.415028765115288, 10.29755017311899 ], [ 0.413914582189768, 10.295888520063354 ], [ 0.380751370369343, 10.251412521463113 ], [ 0.372756600518936, 10.112316360617816 ], [ 0.42862119210504, 10.074530233951016 ], [ 0.430177107051578, 10.073363694213153 ], [ 0.431612375228924, 10.072051561773202 ], [ 0.43291342730214, 10.070606241814282 ], [ 0.434067962844286, 10.069041398703041 ], [ 0.43506506662731, 10.067371826803795 ], [ 0.43589531181697, 10.065613310609407 ], [ 0.436550849096158, 10.063782475511299 ], [ 0.437025480874034, 10.061896630619399 ], [ 0.437314719879393, 10.059973605118097 ], [ 0.437415831584287, 10.058031579705286 ], [ 0.437327860056849, 10.056088914708115 ], [ 0.437051636998875, 10.054163976500504 ], [ 0.430035406998842, 10.017908648500466 ], [ 0.429582068140394, 10.016048444963072 ], [ 0.428952929099578, 10.014240114963201 ], [ 0.428153755736456, 10.012500231272609 ], [ 0.427191872221804, 10.010844739374305 ], [ 0.426076093913409, 10.009288811327245 ], [ 0.424816646566102, 10.007846706719222 ], [ 0.42342507261596, 10.006531641982262 ], [ 0.421914125397527, 10.0053556692682 ], [ 0.420297652263547, 10.00432956599453 ], [ 0.418590467678361, 10.003462736072795 ], [ 0.416808217448032, 10.002763123724703 ], [ 0.414967235331485, 10.002237140675859 ], [ 0.413084393346787, 10.001889607394331 ], [ 0.411176947144436, 10.001723708912579 ], [ 0.409262377864793, 10.001740965637648 ], [ 0.407358231928968, 10.00194121941712 ], [ 0.37958845472265, 10.006213982335948 ], [ 0.379188391642613, 9.992063834154452 ], [ 0.403916152559578, 9.94786791080662 ], [ 0.404787577531829, 9.946114034072002 ], [ 0.405483287953612, 9.944283336912033 ], [ 0.405996612892351, 9.942393373264297 ], [ 0.40632263024835, 9.940462265352739 ], [ 0.406458213951144, 9.938508529919771 ], [ 0.40640206393434, 9.936550900675478 ], [ 0.40615471860151, 9.934608148666388 ], [ 0.405718549663623, 9.932698902286237 ], [ 0.405097739397506, 9.930841468654588 ], [ 0.404298240543406, 9.929053658076034 ], [ 0.403327719226168, 9.927352613263196 ], [ 0.402195481447355, 9.925754644961032 ], [ 0.400912383853128, 9.924275075548605 ], [ 0.399490729633539, 9.922928092117964 ], [ 0.397944150551385, 9.921726610438895 ], [ 0.396287476231832, 9.920682151113967 ], [ 0.374900593352853, 9.908619834405039 ], [ 0.378112066151326, 9.849592190128778 ], [ 0.378126771212798, 9.847735625527354 ], [ 0.377969251653851, 9.845885696894502 ], [ 0.377640864918326, 9.844058346213865 ], [ 0.377144440918618, 9.842269320900851 ], [ 0.343023070341071, 9.738297794510229 ], [ 0.354862834575011, 9.732319723835268 ], [ 0.356568729351345, 9.731350589007318 ], [ 0.358171460092999, 9.730218973581291 ], [ 0.359655603324157, 9.728935767373361 ], [ 0.361006876766058, 9.727513318995429 ], [ 0.362212276778907, 9.72596531702137 ], [ 0.363260203499133, 9.724306658258483 ], [ 0.36414057246775, 9.722553304391814 ], [ 0.364844911675618, 9.720722128380906 ], [ 0.365366443091682, 9.718830752087111 ], [ 0.365700147889651, 9.716897376694055 ], [ 0.369578641488263, 9.685224835822483 ], [ 0.3960539561175, 9.659178527624281 ], [ 0.397371154180563, 9.65775028824747 ], [ 0.398543554038574, 9.656200979683065 ], [ 0.399560091524123, 9.654545223059863 ], [ 0.400411173373577, 9.652798644077871 ], [ 0.401088767760595, 9.650977725545513 ], [ 0.401586480094045, 9.649099651828125 ], [ 0.401899613365016, 9.647182146675743 ], [ 0.402025212473413, 9.645243305960578 ], [ 0.402883524473405, 9.59193128696066 ], [ 0.402824709527324, 9.59004329080496 ], [ 0.402588042891153, 9.588169263701328 ], [ 0.402175635624588, 9.586325921918503 ], [ 0.401591166388778, 9.584529708013029 ], [ 0.400839848632769, 9.582796644162119 ], [ 0.399928384089685, 9.581142189246286 ], [ 0.398864902997462, 9.579581100956565 ], [ 0.397658891577348, 9.578127304156327 ], [ 0.396321107417089, 9.576793766671896 ], [ 0.394863483513538, 9.575592383619901 ], [ 0.393299021830674, 9.574533871303169 ], [ 0.362229243830714, 9.555586994303207 ], [ 0.360573913581303, 9.554681775536379 ], [ 0.358840650996844, 9.553936564114199 ], [ 0.357044880117837, 9.55335799155994 ], [ 0.355202581236604, 9.55295120650289 ], [ 0.353330148691092, 9.552719828861489 ], [ 0.35144424497415, 9.552665917630232 ], [ 0.261189980301174, 9.554345357432831 ], [ 0.261825356896903, 9.543854645019422 ], [ 0.290210126334303, 9.543623600479831 ], [ 0.292270069579835, 9.543500365733641 ], [ 0.294306348764252, 9.543165522396256 ], [ 0.296297284880594, 9.542622635337908 ], [ 0.298221681661547, 9.541877484341843 ], [ 0.300059051243007, 9.540938002570543 ], [ 0.301789832285719, 9.539814192106245 ], [ 0.303395598232777, 9.538518017464945 ], [ 0.323912979232825, 9.520129681465129 ], [ 0.325310036794433, 9.51874797990315 ], [ 0.326564769994113, 9.51723585767448 ], [ 0.327665067930466, 9.515607910043849 ], [ 0.328600310337906, 9.513879850242761 ], [ 0.329361470095301, 9.51206835780266 ], [ 0.329941200357304, 9.51019091756123 ], [ 0.330333905467368, 9.508265650895716 ], [ 0.330535794967993, 9.506311140812253 ], [ 0.330544920186875, 9.504346252579502 ], [ 0.330361193045826, 9.502389951637813 ], [ 0.329986386910921, 9.500461120541512 ], [ 0.329424119475664, 9.498578376701243 ], [ 0.328679817842381, 9.496759892685501 ], [ 0.327760666138898, 9.49502322081586 ], [ 0.326675536176096, 9.493385123748942 ], [ 0.325434901815659, 9.491861412680359 ], [ 0.32405073787456, 9.490466794732326 ], [ 0.322536404542052, 9.489214730997976 ], [ 0.320906518424822, 9.488117306612571 ], [ 0.277380336424829, 9.461822016612393 ], [ 0.275695440163659, 9.460911271778148 ], [ 0.273931152915514, 9.460165871167709 ], [ 0.272103654656895, 9.459592650722543 ], [ 0.270229705061666, 9.459196867349281 ], [ 0.26832648980095, 9.458982150709526 ], [ 0.267577906031981, 9.458969766697765 ], [ 0.27906075487482, 9.4501673011539 ], [ 0.322835661676063, 9.467532989326868 ], [ 0.341494818610926, 9.507621198657786 ], [ 0.342436482287785, 9.509403569331873 ], [ 0.343552782465302, 9.511082095356048 ], [ 0.344832378717789, 9.512639724686402 ], [ 0.346262271704652, 9.514060633461193 ], [ 0.347827935229902, 9.515330386754499 ], [ 0.3495134638129, 9.51643608521975 ], [ 0.351301734271167, 9.517366496133407 ], [ 0.353174579673753, 9.518112167507519 ], [ 0.355112973897988, 9.518665524111899 ], [ 0.357097224914706, 9.519020944430418 ], [ 0.359107174838369, 9.519174817769651 ], [ 0.445890045838337, 9.521430780769689 ], [ 0.447724138709156, 9.521394299797674 ], [ 0.449547173789726, 9.521189921190388 ], [ 0.451343813760489, 9.520819364399111 ], [ 0.453098943365763, 9.520285746943628 ], [ 0.454797796579425, 9.519593558184303 ], [ 0.511452576579456, 9.493419256184174 ], [ 0.513226110803544, 9.492489459669487 ], [ 0.51489777687289, 9.491386972592316 ], [ 0.516450816564156, 9.490122847234574 ], [ 0.517869660867192, 9.488709756279794 ], [ 0.519140086062232, 9.487161865771219 ], [ 0.520249356310736, 9.485494693099142 ], [ 0.521186351330426, 9.483724951441213 ], [ 0.521941677874589, 9.481870382215108 ], [ 0.522507763898097, 9.479949577223255 ], [ 0.522878934466112, 9.477981792272564 ], [ 0.523051468644539, 9.475986754137587 ], [ 0.523023636801875, 9.473984462802324 ], [ 0.52165588098826, 9.452636496311351 ], [ 0.558339747366779, 9.443114556533725 ], [ 0.560208382527842, 9.442530521798311 ], [ 0.562010962845004, 9.441766585847128 ], [ 0.563730215570344, 9.440830068893868 ], [ 0.565349666420491, 9.439729944863911 ], [ 0.566853797437083, 9.438476755404071 ], [ 0.568228195683483, 9.437082508870052 ], [ 0.569459691352926, 9.435560565259575 ], [ 0.582734967352985, 9.417404230259503 ], [ 0.583832016335913, 9.415734791480171 ], [ 0.584757054715176, 9.413964241761644 ], [ 0.585500853978801, 9.41211024473783 ], [ 0.58605599372071, 9.410191296542635 ], [ 0.586416935669334, 9.408226541285968 ], [ 0.586580078939382, 9.406235580065269 ], [ 0.586543795955549, 9.40423827541801 ], [ 0.579730213955428, 9.304378067418071 ], [ 0.579508812704774, 9.302477615819452 ], [ 0.57910682552423, 9.300607016691053 ], [ 0.578527931334941, 9.298783389451156 ], [ 0.577777428082158, 9.297023423638974 ], [ 0.576862184249303, 9.295343226174712 ], [ 0.575790575998733, 9.293758173951662 ], [ 0.574572410514465, 9.292282773109374 ], [ 0.573218836248427, 9.290930526275837 ], [ 0.571742240891644, 9.289713808993634 ], [ 0.570156138004108, 9.28864375646098 ], [ 0.568475043340882, 9.287730161624218 ], [ 0.566714342006272, 9.286981385554359 ], [ 0.564890147651867, 9.286404280927931 ], [ 0.56301915500702, 9.286004129312396 ], [ 0.56111848709141, 9.285784592830106 ], [ 0.559205538507955, 9.28574768064316 ], [ 0.550678274940253, 9.285991262536699 ], [ 0.532143161284481, 9.255778547645249 ], [ 0.554995181939247, 9.225618129795532 ], [ 0.556113970677658, 9.22397841938856 ], [ 0.557064705826038, 9.222235880683806 ], [ 0.557838021838711, 9.220407679161962 ], [ 0.558426300898611, 9.21851182415495 ], [ 0.558823747959225, 9.216566991438766 ], [ 0.559026447830706, 9.214592339261285 ], [ 0.559032403747807, 9.212607319617307 ], [ 0.558841557039705, 9.210631486629948 ], [ 0.558455787707957, 9.208684303925985 ], [ 0.557878895906903, 9.206784952902661 ], [ 0.557116564508917, 9.204952143774689 ], [ 0.556176303123318, 9.203203931262813 ], [ 0.520169581123237, 9.143556632262694 ], [ 0.51909279769392, 9.141953317625195 ], [ 0.517866388042475, 9.140461339157751 ], [ 0.516501788685347, 9.13909460985939 ], [ 0.515011724785761, 9.137865874755462 ], [ 0.51341009148901, 9.136786592047729 ], [ 0.511711824347436, 9.135866826264325 ], [ 0.509932760043404, 9.135115154406003 ], [ 0.499839962676131, 9.131414321146599 ], [ 0.505527311277298, 9.102523693894446 ], [ 0.505813006698225, 9.100565581517674 ], [ 0.505903800921036, 9.098588820944741 ], [ 0.505798805109796, 9.096612763801533 ], [ 0.50549904712781, 9.094656754827668 ], [ 0.505007461475295, 9.092739942499911 ], [ 0.504328860561889, 9.090881091576913 ], [ 0.503469887595267, 9.089098399400397 ], [ 0.502438951547018, 9.08740931775109 ], [ 0.478822892960017, 9.052703104603442 ], [ 0.546123831362518, 8.88524937893917 ], [ 0.546763809141431, 8.88340037724166 ], [ 0.547220050777464, 8.881497689036925 ], [ 0.54748818960606, 8.879559524853091 ], [ 0.547565659284678, 8.877604434757011 ], [ 0.547451718355123, 8.875651130812546 ], [ 0.547147457340004, 8.873718307988391 ], [ 0.546655788305396, 8.871824465229526 ], [ 0.545981416989614, 8.869987728404791 ], [ 0.545130797764838, 8.868225676825142 ], [ 0.544112071862661, 8.866555174993019 ], [ 0.542934989454789, 8.864992211193064 ], [ 0.515280104803885, 8.831785078308744 ], [ 0.510749101766995, 8.797690555761321 ], [ 0.510393229779931, 8.795750799135179 ], [ 0.509848047817103, 8.793855521512443 ], [ 0.509118856819904, 8.792023151154289 ], [ 0.508212746895863, 8.790271504658733 ], [ 0.507138528379748, 8.788617613725366 ], [ 0.505906646168466, 8.78707755955185 ], [ 0.504529078162696, 8.785666316472392 ], [ 0.503019218802756, 8.784397606358521 ], [ 0.50139174883108, 8.783283765197883 ], [ 0.499662492547676, 8.782335623148322 ], [ 0.497848263946467, 8.78156239923354 ], [ 0.475604713946311, 8.773352933233557 ], [ 0.473723791912622, 8.772762312147481 ], [ 0.47179385922193, 8.772359744422083 ], [ 0.46983366855236, 8.772149141708276 ], [ 0.467862266591324, 8.772132550380489 ], [ 0.465898808963579, 8.772310131652546 ], [ 0.463962374100762, 8.772680160011191 ], [ 0.462071777860994, 8.773239039982483 ], [ 0.460245390699845, 8.773981341068112 ], [ 0.458500959169165, 8.774899850512213 ], [ 0.456855433478234, 8.775985643385933 ], [ 0.455324802792777, 8.777228169308749 ], [ 0.451058678337251, 8.781055118428014 ], [ 0.441883700669243, 8.768271127752229 ], [ 0.440697148954994, 8.766774275172844 ], [ 0.439373214980805, 8.765397441324122 ], [ 0.437923974588799, 8.764153184557545 ], [ 0.436362646563683, 8.763052853964957 ], [ 0.434703472061812, 8.762106485861448 ], [ 0.432961584715022, 8.76132271224229 ], [ 0.431152872594021, 8.760708682048946 ], [ 0.429293833290412, 8.760269995962281 ], [ 0.427401423439169, 8.760010655317727 ], [ 0.42549290405409, 8.759933025608385 ], [ 0.423585683086952, 8.760037814908928 ], [ 0.42169715664643, 8.76032406741712 ], [ 0.42076379390144, 8.760558392133378 ], [ 0.420786701825507, 8.760464164894444 ], [ 0.421061294601074, 8.758518289691109 ], [ 0.421143595465321, 8.75655485951229 ], [ 0.421032809838073, 8.754592830449269 ], [ 0.420730007307892, 8.752651145066139 ], [ 0.420238111305651, 8.750748549517334 ], [ 0.41956187088004, 8.748903412561411 ], [ 0.418707814847501, 8.747133548218409 ], [ 0.417684188759255, 8.745456043783001 ], [ 0.41650087529398, 8.743887094853863 ], [ 0.415169298844711, 8.74244184897198 ], [ 0.413702315221136, 8.74113425937753 ], [ 0.412114087532173, 8.739976950297224 ], [ 0.410419949447114, 8.738981095062716 ], [ 0.408636257155513, 8.738156308236785 ], [ 0.408114673516801, 8.737974836893907 ], [ 0.48591908645724, 8.614641851622199 ], [ 0.569929545695641, 8.567346272881975 ], [ 0.571638861476091, 8.566266715307146 ], [ 0.573230457624508, 8.565020109236645 ], [ 0.574688071191576, 8.563619192506868 ], [ 0.575996808263666, 8.562078279702456 ], [ 0.577143296149033, 8.560413115889681 ], [ 0.578115820020148, 8.558640715733176 ], [ 0.586505632784495, 8.54132928740623 ], [ 0.653320462631809, 8.512147253754325 ], [ 0.655060599745587, 8.511284309337132 ], [ 0.656708822045581, 8.510256635511585 ], [ 0.658249583704089, 8.509073925169368 ], [ 0.65966835244881, 8.507747333487305 ], [ 0.660951746629433, 8.506289372713123 ], [ 0.662087661431694, 8.504713794151476 ], [ 0.663065383048481, 8.503035458463367 ], [ 0.663875689731127, 8.501270195502228 ], [ 0.664510938767801, 8.499434655008717 ], [ 0.66496513856861, 8.497546149572436 ], [ 0.665234005177534, 8.495622491341742 ], [ 0.670631892065831, 8.436001650985288 ], [ 0.703523479157143, 8.422906523540105 ], [ 0.705404680956242, 8.422042233058812 ], [ 0.707186459620868, 8.420988106389352 ], [ 0.708849723756804, 8.419755438283536 ], [ 0.710376651828782, 8.418357436528177 ], [ 0.711750883114598, 8.416809080426347 ], [ 0.712957693006898, 8.415126960297215 ], [ 0.713984150784345, 8.41332909971416 ], [ 0.714819258161647, 8.411434762385868 ], [ 0.715454067133944, 8.409464245749634 ], [ 0.727212142281331, 8.365242458647675 ], [ 0.739224285294149, 8.35849220584937 ], [ 0.740930536421847, 8.357416716830807 ], [ 0.742519790483566, 8.356174846842796 ], [ 0.743975884886523, 8.354779225608544 ], [ 0.745284011261521, 8.353244046489726 ], [ 0.746430866062941, 8.351584922141079 ], [ 0.747404785864786, 8.349818725730882 ], [ 0.748195865976836, 8.347963419342133 ], [ 0.748796061174593, 8.34603787129952 ], [ 0.749199267518599, 8.344061664280007 ], [ 0.749401384431042, 8.342054896158494 ], [ 0.749400356398313, 8.34003797561396 ], [ 0.746363661398321, 8.280492903613911 ], [ 0.74616564407016, 8.278526778270832 ], [ 0.745774570232359, 8.27658979066624 ], [ 0.74519425760612, 8.274700849962358 ], [ 0.744430371289948, 8.27287839628039 ], [ 0.743490368456125, 8.271140220685302 ], [ 0.742383425552673, 8.269503291506794 ], [ 0.741120348721502, 8.267983588691928 ], [ 0.739713468307236, 8.266595947806502 ], [ 0.738176518486551, 8.265353915208037 ], [ 0.736524503193091, 8.264269615804215 ], [ 0.734773549646824, 8.263353634687725 ], [ 0.732940750917716, 8.262614913802993 ], [ 0.731043999060632, 8.262060664653605 ], [ 0.653271436920187, 8.243450552615673 ], [ 0.637390783055699, 8.207123781298279 ], [ 0.636483322092124, 8.205305678883368 ], [ 0.635396064976772, 8.203589038630829 ], [ 0.634140234871725, 8.201991580481526 ], [ 0.632728795026073, 8.200529794124487 ], [ 0.631176314963375, 8.199218768782838 ], [ 0.629498820088405, 8.198072037455992 ], [ 0.62771362626565, 8.197101437225868 ], [ 0.625796895049058, 8.196182236870664 ], [ 0.626678008398563, 8.195446050829386 ], [ 0.628140770123677, 8.19409468881241 ], [ 0.629461889222574, 8.192604556102912 ], [ 0.630628267290958, 8.190990426812251 ], [ 0.631628340124274, 8.189268304431742 ], [ 0.632452192372495, 8.187455263164013 ], [ 0.633091655847123, 8.185569278638626 ], [ 0.633540390505743, 8.183629049690401 ], [ 0.633793947311183, 8.181653812967424 ], [ 0.633849812342063, 8.179663152206844 ], [ 0.633707431717387, 8.177676804069407 ], [ 0.633368217088071, 8.175714462457801 ], [ 0.632835531640949, 8.173795583258944 ], [ 0.60570416064451, 8.092085692120614 ], [ 0.616341980518382, 8.040230177406773 ], [ 0.631527900935721, 8.032136522798744 ], [ 0.633235258436703, 8.031114371596514 ], [ 0.634832589742035, 8.02992761323131 ], [ 0.636304081820015, 8.02858799620364 ], [ 0.637635167404099, 8.02710878226231 ], [ 0.638812669203845, 8.025504615117661 ], [ 0.639824930355566, 8.023791375473859 ], [ 0.640661929821276, 8.021986023815378 ], [ 0.64131538159353, 8.020106432504024 ], [ 0.641778816724055, 8.018171208848688 ], [ 0.642047647364113, 8.016199510899369 ], [ 0.642119212182632, 8.014210857789065 ], [ 0.64199280271247, 8.012224936501038 ], [ 0.641669670363999, 8.010261406974459 ], [ 0.635455037942429, 7.98150980440327 ], [ 0.651643739836026, 7.919665356299108 ], [ 0.652039859508405, 7.917789037004366 ], [ 0.652254456434934, 7.915883405075112 ], [ 0.652285557673226, 7.913965980342915 ], [ 0.652132877287447, 7.912054391058978 ], [ 0.651797818977127, 7.910166211825072 ], [ 0.651283463171949, 7.908318802017708 ], [ 0.647047449171934, 7.895514918017715 ], [ 0.646331074801797, 7.893663315289547 ], [ 0.645434652358884, 7.891891860603423 ], [ 0.644367015245754, 7.890218009984097 ], [ 0.643138684024983, 7.888658257659775 ], [ 0.641761762748886, 7.88722797352696 ], [ 0.640249819685437, 7.885941251694535 ], [ 0.63937740594884, 7.88533695853379 ], [ 0.637521631061996, 7.812748259091993 ], [ 0.63787064864468, 7.812606728223983 ], [ 0.639604487848404, 7.811697035408581 ], [ 0.641241066311729, 7.810622163166802 ], [ 0.642764698496303, 7.809392413448814 ], [ 0.644160781380274, 7.808019572604489 ], [ 0.645415934418737, 7.806516798418924 ], [ 0.646518127787542, 7.80489849400364 ], [ 0.64745679768132, 7.803180169752145 ], [ 0.648222947560676, 7.801378294682911 ], [ 0.648809234378158, 7.799510138594568 ], [ 0.649210038956582, 7.797593606546134 ], [ 0.649421519845186, 7.795647067248684 ], [ 0.650953339845325, 7.769824120248746 ], [ 0.650975656320872, 7.767924940678815 ], [ 0.650817718996155, 7.766032208033831 ], [ 0.650480952221461, 7.764162991833552 ], [ 0.649968393112003, 7.762334149515789 ], [ 0.649284664157847, 7.76056217440841 ], [ 0.648435931536196, 7.758863046985033 ], [ 0.647429849502022, 7.757252090745889 ], [ 0.646275491358519, 7.755743834023558 ], [ 0.64498326762996, 7.75435187895989 ], [ 0.643564832174864, 7.75308877883573 ], [ 0.635488869978254, 7.746557600014534 ], [ 0.648650398051768, 7.713653892442174 ], [ 0.649290257379555, 7.711793781109749 ], [ 0.649744293088584, 7.709879809923105 ], [ 0.650008113025686, 7.70793049384582 ], [ 0.650079165106188, 7.705964689753283 ], [ 0.649956762001729, 7.70400141401911 ], [ 0.649642087789183, 7.702059658558622 ], [ 0.649138186496392, 7.700158207108939 ], [ 0.648449932655507, 7.698315453522894 ], [ 0.64758398414878, 7.696549223834526 ], [ 0.646548717802973, 7.694876603817423 ], [ 0.645354148355414, 7.693313773704028 ], [ 0.644011831575574, 7.691875851664786 ], [ 0.642534752479352, 7.690576747561229 ], [ 0.640937199717409, 7.689429028387743 ], [ 0.639234627352695, 7.688443796703679 ], [ 0.637443505364243, 7.68763058323179 ], [ 0.635581160323429, 7.686997254661984 ], [ 0.633665607783904, 7.686549937552215 ], [ 0.631715378006593, 7.686292959062711 ], [ 0.609626305003605, 7.684481665076873 ], [ 0.605918134573761, 7.622729968666906 ], [ 0.605706577479691, 7.62079200289422 ], [ 0.605307348723495, 7.618883840390558 ], [ 0.604724241445194, 7.617023610931017 ], [ 0.603962795845789, 7.615228988870721 ], [ 0.603030246548872, 7.613517025217785 ], [ 0.60193545386324, 7.611903985628797 ], [ 0.600688819599602, 7.610405195866063 ], [ 0.599302188241216, 7.609034896184936 ], [ 0.597788734407443, 7.607806106034751 ], [ 0.596162837679464, 7.606730500358817 ], [ 0.594439945977435, 7.605818298668819 ], [ 0.53972874108409, 7.580182843487763 ], [ 0.549770560177965, 7.48316289982789 ], [ 0.549876728359458, 7.481169158669204 ], [ 0.549783583829169, 7.479174766634753 ], [ 0.549492054836493, 7.477199599214754 ], [ 0.549005046668625, 7.475263340312894 ], [ 0.548327412697374, 7.473385286082686 ], [ 0.547465906011967, 7.471584152627996 ], [ 0.542313994262976, 7.462065218715064 ], [ 0.57027862834388, 7.421409819147866 ], [ 0.614655942757407, 7.432711481699592 ], [ 0.616458968158806, 7.433083230018987 ], [ 0.618288537520512, 7.433287615345682 ], [ 0.620129149370557, 7.433322905975223 ], [ 0.621965208676803, 7.433188802899158 ], [ 0.623781158979646, 7.432886442338456 ], [ 0.62556161419791, 7.432418386116602 ], [ 0.62729148899117, 7.431788599953918 ], [ 0.628956126573966, 7.431002419867039 ], [ 0.650775806573987, 7.419440486867043 ], [ 0.652457907810848, 7.418440839111081 ], [ 0.654034274055502, 7.417281602435608 ], [ 0.655489816487077, 7.415973872938758 ], [ 0.656810602798218, 7.414530168077178 ], [ 0.65798399055375, 7.41296430685018 ], [ 0.658998748202809, 7.411291277525654 ], [ 0.659845162586128, 7.409527094173857 ], [ 0.660515131909433, 7.407688643382327 ], [ 0.661002243293012, 7.405793522619147 ], [ 0.678491812293032, 7.320674196619107 ], [ 0.678809922347457, 7.318556240118152 ], [ 0.678899731072768, 7.316416411120423 ], [ 0.678760208602282, 7.314279247760524 ], [ 0.67839295488682, 7.3121692576053 ], [ 0.650764132886766, 7.191949488605227 ], [ 0.650165900358614, 7.189869344412935 ], [ 0.649346381640515, 7.187866029387997 ], [ 0.616838400471038, 7.119251225375954 ], [ 0.627361330160077, 7.110626821617157 ], [ 0.628790254337859, 7.109335829088024 ], [ 0.630088392736131, 7.10791339360089 ], [ 0.631243710034653, 7.10637270286104 ], [ 0.632245495038309, 7.10472804094363 ], [ 0.633084459982906, 7.102994655862968 ], [ 0.633752826644032, 7.101188618204883 ], [ 0.634244398450645, 7.099326672132874 ], [ 0.63455461793482, 7.097426080149369 ], [ 0.634680608985007, 7.09550446305135 ], [ 0.634621203511089, 7.093579636564159 ], [ 0.634376952273987, 7.091669446168072 ], [ 0.633950119779446, 7.089791601649021 ], [ 0.633344663283308, 7.087963512907354 ], [ 0.632566196102947, 7.086202128546907 ], [ 0.616927660455191, 7.05497699347656 ], [ 0.61520233806922, 7.001781059884888 ], [ 0.61504895230943, 6.999874194129139 ], [ 0.61471408285668, 6.997990706233938 ], [ 0.614200793485342, 6.996147828532345 ], [ 0.613513780362259, 6.994362421808243 ], [ 0.612659329080763, 6.992650821034316 ], [ 0.611645257152771, 6.991028685920766 ], [ 0.610480842485116, 6.989510857642103 ], [ 0.609176738494486, 6.988111223052869 ], [ 0.607744876637606, 6.986842587634569 ], [ 0.606198357248423, 6.985716558336265 ], [ 0.604551329681054, 6.98474343738074 ], [ 0.602818862855066, 6.983932128007808 ], [ 0.544060358672023, 6.959770817336631 ], [ 0.544647799046121, 6.954436012413242 ], [ 0.575328830739517, 6.938565496668363 ], [ 0.576999271087358, 6.937596449743969 ], [ 0.578568463541828, 6.936470813062706 ], [ 0.580021777647251, 6.935199081562606 ], [ 0.581345663346374, 6.933793112305109 ], [ 0.582527777315097, 6.932266013925068 ], [ 0.583557098046165, 6.930632024411649 ], [ 0.584424028608818, 6.928906378359613 ], [ 0.585120486126331, 6.927105164928708 ], [ 0.58563997713717, 6.925245177835467 ], [ 0.58597765813716, 6.923343758776022 ], [ 0.586130380738167, 6.921418635739822 ], [ 0.586096721022277, 6.919487757721692 ], [ 0.58587699281778, 6.917569127373365 ], [ 0.585473244773166, 6.915680633154724 ], [ 0.576504267773171, 6.881818362154749 ], [ 0.575883945894036, 6.879880566862246 ], [ 0.575069951336112, 6.878015824872305 ], [ 0.574070708637478, 6.876243435564447 ], [ 0.572896559584923, 6.874581742502609 ], [ 0.571559656180334, 6.873047943586134 ], [ 0.570073834872039, 6.871657913057981 ], [ 0.568454473352763, 6.870426037212262 ], [ 0.566718331406279, 6.8693650655015 ], [ 0.564883377449938, 6.868485978584585 ], [ 0.553778486319142, 6.863844714057469 ], [ 0.553242709294883, 6.853477351177875 ], [ 0.554889634310293, 6.852897797557032 ], [ 0.556728163556939, 6.852032219145534 ], [ 0.558469369364091, 6.850984546432153 ], [ 0.560095276324921, 6.849765595107469 ], [ 0.592596895324937, 6.822714017107584 ], [ 0.59404551385962, 6.821382375896937 ], [ 0.595356267940514, 6.819914831106363 ], [ 0.59651647024155, 6.818325587703485 ], [ 0.597514890689053, 6.816630028626681 ], [ 0.598341865162226, 6.814844565887322 ], [ 0.598989389036139, 6.812986481711179 ], [ 0.599451194661777, 6.811073761256682 ], [ 0.599722812033179, 6.809124918529196 ], [ 0.599801612054463, 6.807158817176375 ], [ 0.59968683198792, 6.80519448789918 ], [ 0.599379582836867, 6.803250944245928 ], [ 0.598882838591788, 6.801346998572359 ], [ 0.598201407443862, 6.799501079949136 ], [ 0.59734188524451, 6.797731055779318 ], [ 0.589977063699711, 6.78429052045832 ], [ 0.594246797101572, 6.778327161454705 ], [ 0.656975536683003, 6.756523502255905 ], [ 0.658784259934476, 6.755794148437273 ], [ 0.660513347806383, 6.754892099700013 ], [ 0.662146359107648, 6.753825933257513 ], [ 0.663667766200103, 6.752605786851462 ], [ 0.665063102644467, 6.751243262356196 ], [ 0.666319100755811, 6.749751315461205 ], [ 0.667423817760563, 6.748144132480776 ], [ 0.668366749355468, 6.746436995462108 ], [ 0.669138929588722, 6.744646136874575 ], [ 0.66973301611355, 6.742788585261782 ], [ 0.670143360003585, 6.740882003324104 ], [ 0.670366059466204, 6.738944519971267 ], [ 0.670398996943082, 6.736994557941947 ], [ 0.67024185924519, 6.735050658629464 ], [ 0.657819157123844, 6.639611822287206 ], [ 0.703859112120363, 6.608526559845347 ], [ 0.742177238566395, 6.609039178539745 ], [ 0.744092363010103, 6.608972988731836 ], [ 0.745992362245955, 6.60872381885139 ], [ 0.747859793888019, 6.608293956329441 ], [ 0.749677514527611, 6.607687347392842 ], [ 0.751428837113329, 6.606909560837087 ], [ 0.753097684141638, 6.605967736903613 ], [ 0.754668735251678, 6.604870521730914 ], [ 0.756127567869343, 6.603627987981194 ], [ 0.757460789609497, 6.602251542371247 ], [ 0.758656161220835, 6.600753820956442 ], [ 0.759702708944747, 6.599148573129117 ], [ 0.760590825256686, 6.597450535396313 ], [ 0.761312357065234, 6.595675296095595 ], [ 0.761860680559166, 6.593839152290889 ], [ 0.768272402559219, 6.567894047290998 ], [ 0.768644618899536, 6.565999342312691 ], [ 0.768832387575889, 6.564077573626557 ], [ 0.768833958372055, 6.562146654288154 ], [ 0.76864931664644, 6.560224582647454 ], [ 0.768280183468551, 6.558329274583892 ], [ 0.767729999576689, 6.556478396510124 ], [ 0.767003893306377, 6.554689200701097 ], [ 0.766108632788481, 6.552978364483361 ], [ 0.765052562862579, 6.551361834783533 ], [ 0.763845527293631, 6.549854679484928 ], [ 0.740103484365297, 6.522978666172679 ], [ 0.746686433833659, 6.503971562469184 ], [ 0.747722998074636, 6.503908916804206 ], [ 0.749624230783808, 6.503702414088214 ], [ 0.751497048342156, 6.50331526608127 ], [ 0.753324326973889, 6.502751012602637 ], [ 0.755089359280329, 6.502014812804105 ], [ 0.756776007001054, 6.501113397998197 ], [ 0.758368848571226, 6.500055010111613 ], [ 0.759853320125934, 6.498849326326618 ], [ 0.761215848662323, 6.497507370599456 ], [ 0.762443976141933, 6.496041412864743 ], [ 0.763526473398577, 6.494464856847504 ], [ 0.764453442810227, 6.492792117508574 ], [ 0.765216408796175, 6.491038489243969 ], [ 0.765808395311998, 6.489220006043271 ], [ 0.766223989633792, 6.487353294885692 ], [ 0.76645939184845, 6.485455423714229 ], [ 0.768394503781717, 6.459899347861827 ], [ 0.872342299938293, 6.396214932487122 ], [ 0.8740227621369, 6.395063734462261 ], [ 0.875577413448233, 6.39374757740721 ], [ 0.876990127435011, 6.392280113852313 ], [ 0.878246249979401, 6.390676565834053 ], [ 0.903025422863161, 6.355489918412457 ], [ 1.003626979722043, 6.355337115929997 ], [ 1.005561144751724, 6.355240419427691 ], [ 1.007476890500775, 6.354957112525915 ], [ 1.0093562552025, 6.354489851470924 ], [ 1.011181618193862, 6.353843017237627 ], [ 1.012935865124378, 6.353022674454168 ], [ 1.014602548417899, 6.352036514540818 ], [ 1.016166041482801, 6.350893783596281 ], [ 1.017611685224747, 6.349605195707555 ], [ 1.018925925488323, 6.348182832496136 ], [ 1.020096440138919, 6.346640029842412 ], [ 1.02111225459336, 6.34499125285029 ], [ 1.021963844716072, 6.343251960224394 ], [ 1.022643226116062, 6.341438459331384 ], [ 1.02314402900746, 6.339567753304354 ], [ 1.036158379151841, 6.279435337252225 ], [ 1.080757971802168, 6.232855565728966 ], [ 1.082106610597711, 6.231293044226952 ], [ 1.083287026135535, 6.229599846304923 ], [ 1.084286646104717, 6.227794005790837 ], [ 1.085094823802758, 6.225894756240755 ], [ 1.085702951530949, 6.223922326087035 ], [ 1.093914157364241, 6.191418081557574 ], [ 1.200925271134575, 6.187613118177572 ], [ 1.202853456420316, 6.187450893713371 ], [ 1.204756940458729, 6.187103095225111 ], [ 1.206617905614795, 6.18657297829382 ], [ 1.208418932253114, 6.185865505099276 ], [ 1.21014316179507, 6.184987297971328 ], [ 1.211774454524201, 6.18394657740133 ], [ 1.213297540662629, 6.182753085093914 ], [ 1.2146981633044, 6.181417992779394 ], [ 1.215963211867797, 6.179953797640358 ], [ 1.217080844817441, 6.178374205331309 ], [ 1.218040600507431, 6.176694001686371 ], [ 1.218833495107986, 6.174928914315915 ], [ 1.219452106698924, 6.173095465387668 ], [ 1.219890644742826, 6.171210816970328 ], [ 1.220145004287589, 6.169292610387366 ], [ 1.220212804390982, 6.167358801084743 ], [ 1.219479642391079, 6.112434477084901 ], [ 1.219354932690944, 6.110455617279632 ], [ 1.219034894290949, 6.108498830612478 ], [ 1.218522672719424, 6.106583349550217 ], [ 1.217823302395561, 6.104728000583494 ], [ 1.216943657148146, 6.102951019188848 ], [ 1.215892382655462, 6.101269870599564 ], [ 1.214679811470408, 6.099701078146945 ], [ 1.213317861466007, 6.098260060859148 ], [ 1.211819918699434, 6.096960981913782 ], [ 1.210200705845867, 6.095816609433748 ], [ 1.20605974029564, 6.093187728077504 ], [ 1.303885833164856, 5.812433333431656 ] ] ] } }
]
}
