{
"type": "FeatureCollection",
"name": "gadm_shapes",
"crs": { "type": "name", "properties": { "name": "urn:ogc:def:crs:OGC:1.3:CRS84" } },
"features": [
{ "type": "Feature", "properties": { "GADM_ID": "GH.1_2", "country": "GH", "pop": 568000.60937404633, "gdp": 3315374080.0 }, "geometry": { "type": "Polygon", "coordinates": [ [ [ -2.415986923999924, 6.658800624000037 ], [ -2.395285860999877, 6.648179351000124 ], [ -2.394717715999946, 6.611985077000156 ], [ -2.371139807999896, 6.592155587000093 ], [ -2.385594861999891, 6.567993164000086 ], [ -2.374858, 6.538804307000021 ], [ -2.397237808999932, 6.502952674000085 ], [ -2.423653929999887, 6.492383776999986 ], [ -2.451412359999892, 6.431549649000033 ], [ -2.420718407999914, 6.404628314000036 ], [ -2.434777419999932, 6.35482455600004 ], [ -2.485855835999928, 6.408601166000096 ], [ -2.546881140999915, 6.400516677000098 ], [ -2.55893531199996, 6.429713440000114 ], [ -2.527380634999872, 6.462048034000077 ], [ -2.585227931999896, 6.489741974000026 ], [ -2.606136638999885, 6.519627446000072 ], [ -2.656407725999941, 6.52940656200002 ], [ -2.672706087999927, 6.509759968000026 ], [ -2.681128032999879, 6.572013939000101 ], [ -2.727315302999955, 6.588815797000166 ], [ -2.779570090999925, 6.575687151000125 ], [ -2.803673756999956, 6.61604608500005 ], [ -2.851372835999939, 6.642929788000174 ], [ -2.869416034999915, 6.638231064000024 ], [ -2.877365589999954, 6.653791329000114 ], [ -2.848067110999978, 6.669033968000178 ], [ -2.865911572999948, 6.718689331 ], [ -2.841305000999967, 6.750317991000088 ], [ -2.84983720199989, 6.772808113000167 ], [ -2.837538934999941, 6.788673693000021 ], [ -2.865853762999961, 6.850562575000026 ], [ -2.849314534999905, 6.886803403999977 ], [ -2.852075739999918, 6.942233160000058 ], [ -2.770654640999965, 7.021737757000039 ], [ -2.75316763099994, 7.078502171000025 ], [ -2.699242184999946, 7.106498307000095 ], [ -2.683981317999894, 7.140041321000069 ], [ -2.651376137999875, 7.141499070000179 ], [ -2.607172314999957, 7.180357787000048 ], [ -2.58122097699993, 7.180545401000131 ], [ -2.580552244999922, 7.208813052000153 ], [ -2.555891671999973, 7.230456755000148 ], [ -2.49506172699995, 7.226394401000107 ], [ -2.493714156999829, 7.13341928400007 ], [ -2.447597484999903, 7.140602462000061 ], [ -2.400517481999941, 7.111847543000181 ], [ -2.438491444999897, 7.088842851000152 ], [ -2.372473057999912, 7.102108344000044 ], [ -2.350124194999921, 7.129078135000157 ], [ -2.298389627999882, 7.098300263000169 ], [ -2.288482357999953, 7.141167278000069 ], [ -2.350055194999925, 7.186986604000083 ], [ -2.335531222999975, 7.227275026000029 ], [ -2.285098627999957, 7.226699182000175 ], [ -2.281476012999974, 7.247015053000041 ], [ -2.265177866999977, 7.245506570000032 ], [ -2.265187325999932, 7.277534047000131 ], [ -2.215081206999969, 7.314367823000055 ], [ -2.160934949999955, 7.32861485300009 ], [ -2.135557775999928, 7.395484042000135 ], [ -2.076290292999886, 7.323152502000141 ], [ -2.046975028999952, 7.305554033000021 ], [ -2.001442295999937, 7.316941868000129 ], [ -1.962111364999885, 7.293436586000098 ], [ -1.949872478999964, 7.261482597000054 ], [ -1.912202416999889, 7.253460092000182 ], [ -1.84344747199998, 7.275029928000151 ], [ -1.82669524399995, 7.253358327000171 ], [ -1.86893903299989, 7.203199001000087 ], [ -1.932944433999978, 7.176576850000117 ], [ -1.932504607999817, 7.13008024200019 ], [ -1.953608121999935, 7.085233385000095 ], [ -2.003928187999918, 7.074744552000084 ], [ -2.106015664999916, 7.004416498000126 ], [ -2.121990080999979, 7.002192250000121 ], [ -2.139925067999968, 7.041566378000084 ], [ -2.182410140999934, 7.016755279000051 ], [ -2.185324719999869, 7.036231593000025 ], [ -2.376360315999932, 6.885962190000043 ], [ -2.417806922999887, 6.823422466000181 ], [ -2.34527147599988, 6.844104962000131 ], [ -2.334617181999931, 6.803874995000115 ], [ -2.305294978999882, 6.811616282000159 ], [ -2.258020175999889, 6.790663497000139 ], [ -2.302006649999953, 6.689393233000089 ], [ -2.34561697099997, 6.699653084000147 ], [ -2.372267395999927, 6.671578385000089 ], [ -2.415986923999924, 6.658800624000037 ] ] ] } },
{ "type": "Feature", "properties": { "GADM_ID": "GH.2_2", "country": "GH", "pop": 6350211.3651788235, "gdp": 20791601152.0 }, "geometry": { "type": "Polygon", "coordinates": [ [ [ -0.741954605999979, 6.948883154000157 ], [ -0.757224007999923, 6.844844796000018 ], [ -0.786919835999925, 6.793844362000186 ], [ -0.83367446699998, 6.793402273000083 ], [ -0.851596362999942, 6.777936880000084 ], [ -0.901219677999904, 6.788317881000069 ], [ -0.932498446999944, 6.756247488000156 ], [ -0.985948005999944, 6.743238561000169 ], [ -0.946901018999938, 6.724829949000082 ], [ -0.973894663999829, 6.681078527000125 ], [ -0.976781961999961, 6.614729958000112 ], [ -0.923598611999978, 6.640848390000087 ], [ -0.911700986999904, 6.597937674000036 ], [ -1.000613485999963, 6.500077492 ], [ -1.005733273999908, 6.442778499000099 ], [ -1.018001023999943, 6.436074283000153 ], [ -1.010304463999944, 6.414958626000157 ], [ -1.035621812999864, 6.413019937000058 ], [ -1.114251912999919, 6.352811775000021 ], [ -1.112195289999931, 6.320585007000091 ], [ -1.138643239999965, 6.296330123000132 ], [ -1.11632095799996, 6.268710886000122 ], [ -1.12049233099998, 6.2089891870001 ], [ -1.19345591299998, 6.196803193000108 ], [ -1.179581963999908, 6.147936530000095 ], [ -1.20708567399987, 6.11290870800002 ], [ -1.187174969999944, 6.097502101000032 ], [ -1.204801948999943, 6.090959902000122 ], [ -1.208254405999867, 6.052686916000084 ], [ -1.231241624999882, 6.038726782000026 ], [ -1.246844920999933, 5.990932928000063 ], [ -1.223044131999927, 5.977185841000107 ], [ -1.218919468999957, 5.941956768000125 ], [ -1.24261039299995, 5.932047597000121 ], [ -1.244047850999948, 5.913675070000124 ], [ -1.260880800999871, 5.915357392000033 ], [ -1.262431754999966, 5.89082727400006 ], [ -1.275165575999836, 5.902922477000118 ], [ -1.305770200999973, 5.887603088000105 ], [ -1.30783701799993, 5.926079644000083 ], [ -1.342511233999971, 5.910844180000026 ], [ -1.335888331999968, 5.926850446000117 ], [ -1.377006073999894, 5.934541818000184 ], [ -1.379887476999954, 5.916443874000038 ], [ -1.418734103999896, 5.921433391000164 ], [ -1.42084624599994, 5.903716343000099 ], [ -1.450679020999814, 5.906328514000108 ], [ -1.455522518999885, 5.893626619000145 ], [ -1.466511112999967, 5.904595205000135 ], [ -1.461724211999922, 5.862235028999976 ], [ -1.47587386399988, 5.855063720000032 ], [ -1.500667759999828, 5.876978371000064 ], [ -1.521754133999877, 5.875128570000186 ], [ -1.498008649999974, 5.891445484000087 ], [ -1.531028086999925, 5.939238279 ], [ -1.558555263999949, 5.923788874000081 ], [ -1.571878030999869, 5.93308079600007 ], [ -1.58104814099994, 5.91762781500006 ], [ -1.589955170999815, 5.93494884100005 ], [ -1.595699071999888, 5.923945958000104 ], [ -1.63907721299995, 5.933646119000059 ], [ -1.67245829899997, 5.915323820000083 ], [ -1.692701406999959, 5.943359091000104 ], [ -1.707239865999952, 5.929262200000153 ], [ -1.709648670999911, 5.95489920100016 ], [ -1.73665141999993, 5.970262647000141 ], [ -1.770429377999903, 5.96090965500008 ], [ -1.821707992999961, 6.039236767000034 ], [ -1.864509369999951, 6.009844520000172 ], [ -1.882422224999971, 6.03376913600016 ], [ -1.914376357999913, 6.011732899000037 ], [ -1.94985884599987, 6.057036568000115 ], [ -1.968499269999882, 6.052973599000097 ], [ -1.981289208999954, 6.11921406800019 ], [ -2.012965981999969, 6.112188585000183 ], [ -2.024743960999956, 6.135693207000031 ], [ -2.022598415999823, 6.173242820000155 ], [ -2.040399382999965, 6.197880352000141 ], [ -2.009515081999893, 6.29162038100003 ], [ -2.045202284999903, 6.284438073000103 ], [ -2.099362721999967, 6.309272273000033 ], [ -2.124079019999954, 6.301214500000071 ], [ -2.124647953999954, 6.336765272000093 ], [ -2.172685061999971, 6.364880377000134 ], [ -2.227120480999929, 6.31997357 ], [ -2.215410565999889, 6.363764926000101 ], [ -2.22952611199986, 6.447383352000145 ], [ -2.259833071999935, 6.490351100000112 ], [ -2.354128490999869, 6.482999143000143 ], [ -2.349750595999922, 6.400072855000133 ], [ -2.378123144999961, 6.349495470000022 ], [ -2.389823283999931, 6.334260486000119 ], [ -2.397473875999935, 6.351600912000151 ], [ -2.430576684999892, 6.354091715000095 ], [ -2.420718407999914, 6.404628314000036 ], [ -2.451412359999892, 6.431549649000033 ], [ -2.423653929999887, 6.492383776999986 ], [ -2.397237808999932, 6.502952674000085 ], [ -2.374858, 6.538804307000021 ], [ -2.385594861999891, 6.567993164000086 ], [ -2.371139807999896, 6.592155587000093 ], [ -2.394717715999946, 6.611985077000156 ], [ -2.395285860999877, 6.648179351000124 ], [ -2.41715873499993, 6.658709935000104 ], [ -2.372267395999927, 6.671578385000089 ], [ -2.34561697099997, 6.699653084000147 ], [ -2.302006649999953, 6.689393233000089 ], [ -2.258020175999889, 6.790663497000139 ], [ -2.305294978999882, 6.811616282000159 ], [ -2.334617181999931, 6.803874995000115 ], [ -2.34527147599988, 6.844104962000131 ], [ -2.40092011299987, 6.819234078000022 ], [ -2.416343496999957, 6.832195632000094 ], [ -2.331527640999923, 6.928776847000051 ], [ -2.289025515999867, 6.94565257000005 ], [ -2.205564813999956, 7.026014566000129 ], [ -2.183826280999881, 7.035970442000178 ], [ -2.180632232999926, 7.016986906000113 ], [ -2.139925067999968, 7.041566378000084 ], [ -2.121990080999979, 7.002192250000121 ], [ -2.106015664999916, 7.004416498000126 ], [ -2.003928187999918, 7.074744552000084 ], [ -1.953608121999935, 7.085233385000095 ], [ -1.932504607999817, 7.13008024200019 ], [ -1.932944433999978, 7.176576850000117 ], [ -1.86893903299989, 7.203199001000087 ], [ -1.82669524399995, 7.253358327000171 ], [ -1.859669012999916, 7.278110459000061 ], [ -1.912202416999889, 7.253460092000182 ], [ -1.949872478999964, 7.261482597000054 ], [ -1.962111364999885, 7.293436586000098 ], [ -2.001442295999937, 7.316941868000129 ], [ -2.046975028999952, 7.305554033000021 ], [ -2.076290292999886, 7.323152502000141 ], [ -2.140708150999899, 7.406639932000189 ], [ -2.108060165999973, 7.46481110100018 ], [ -2.03799860599986, 7.457043070000054 ], [ -2.01846352299998, 7.42145121100009 ], [ -1.964455659999885, 7.408061197000109 ], [ -1.927065990999949, 7.442559301000074 ], [ -1.897947316999932, 7.430446937000113 ], [ -1.867032503999894, 7.478264583000055 ], [ -1.856417961999966, 7.461199879000162 ], [ -1.836001092999879, 7.470969218000164 ], [ -1.839924798999903, 7.4250548280001 ], [ -1.807224849999955, 7.348482565000097 ], [ -1.77934277199995, 7.350940251000054 ], [ -1.761453134999897, 7.32197803300005 ], [ -1.728480947999969, 7.311773165000147 ], [ -1.709202692999952, 7.324331799999982 ], [ -1.654152376999946, 7.313537851000149 ], [ -1.57659973199992, 7.402829767000128 ], [ -1.515539533999913, 7.390893068000082 ], [ -1.520232469999826, 7.450029583000173 ], [ -1.472437967999895, 7.496560157000033 ], [ -1.424825872999975, 7.581830594999985 ], [ -1.31617641299988, 7.624692909000146 ], [ -1.292724435999958, 7.539268682000113 ], [ -1.249905133999903, 7.496155569000109 ], [ -1.201898067999934, 7.49514367900008 ], [ -1.153490285999965, 7.468615966000129 ], [ -1.126007370999957, 7.477032680000036 ], [ -1.103586935999886, 7.465214894999974 ], [ -1.024743670999953, 7.533966462000024 ], [ -0.983487373999935, 7.534657755000126 ], [ -0.925210747999927, 7.503715696000143 ], [ -0.866762132999952, 7.520663985000056 ], [ -0.784984408999946, 7.497651892000022 ], [ -0.689120921999915, 7.541444974000058 ], [ -0.6500298549999, 7.50198117400015 ], [ -0.654169712999874, 7.430737882000074 ], [ -0.598668794999867, 7.348577835000185 ], [ -0.492712832999871, 7.343875404000016 ], [ -0.36197990699992, 7.311704747000022 ], [ -0.325575994999951, 7.281558301000018 ], [ -0.288835416999973, 7.284338588000139 ], [ -0.261660724999956, 7.266644981000127 ], [ -0.238704176999818, 7.202302782000061 ], [ -0.287156846999835, 7.194692753000083 ], [ -0.321760999999867, 7.144090290000179 ], [ -0.38779786799995, 7.117876177000028 ], [ -0.561232944999915, 7.137463605000107 ], [ -0.635393603999944, 7.173891996000179 ], [ -0.591007813999965, 7.044483189000118 ], [ -0.564715804999878, 7.018689784000173 ], [ -0.574120735999941, 6.963256957000112 ], [ -0.585302340999874, 6.950869886000078 ], [ -0.657547731999955, 6.947186678000151 ], [ -0.652277580999908, 6.929478992000156 ], [ -0.741954605999979, 6.948883154000157 ] ] ] } },
{ "type": "Feature", "properties": { "GADM_ID": "GH.3_2", "country": "GH", "pop": 1088469.3628473282, "gdp": 5406907392.0 }, "geometry": { "type": "Polygon", "coordinates": [ [ [ -2.866232530999923, 6.852401526 ], [ -2.938595880999912, 6.941395856000099 ], [ -2.988690656999836, 6.946436618000064 ], [ -3.033872285999905, 6.927452421000055 ], [ -3.072777063999979, 6.943675985000027 ], [ -3.075584491999905, 6.971871910000118 ], [ -3.116555622999897, 7.00586911500011 ], [ -3.074941962999958, 7.062858703000131 ], [ -3.032058177999943, 7.071719040000062 ], [ -3.023621307999974, 7.142483154000047 ], [ -2.953354945999934, 7.239177758000039 ], [ -2.97818101199988, 7.272064758000113 ], [ -2.92346035199995, 7.608564250000143 ], [ -2.826105192999876, 7.805732423000109 ], [ -2.832891643999972, 7.848578627000165 ], [ -2.808562474999974, 7.965602956000112 ], [ -2.771733350999966, 7.997129102000031 ], [ -2.631434017999936, 8.053165962000094 ], [ -2.629879806999952, 8.115092677000121 ], [ -2.608473064999941, 8.151898864000145 ], [ -2.559723893999887, 8.143362116000105 ], [ -2.544777012999873, 8.175730379000129 ], [ -2.494887666999944, 8.205178929999988 ], [ -2.504446749999943, 8.334010072000183 ], [ -2.586286228999882, 8.786646491999988 ], [ -2.500657371999921, 8.719855562000134 ], [ -2.464615147999837, 8.652175615000147 ], [ -2.417336604999889, 8.611937543000067 ], [ -2.410162337999964, 8.567047467 ], [ -2.367013313999962, 8.539859131000014 ], [ -2.369293957999957, 8.485547332000181 ], [ -2.299406308999892, 8.384839740000132 ], [ -2.288465477999978, 8.296900301000051 ], [ -2.239713594999955, 8.281185813000093 ], [ -2.205076782999924, 8.231785038000169 ], [ -2.168321167999864, 8.212049818000082 ], [ -2.16209241099989, 8.173601072999986 ], [ -2.101743945999885, 8.135762595000074 ], [ -2.064865034999968, 8.088997408000012 ], [ -2.057485657999905, 8.052025585000138 ], [ -2.025343814999871, 8.023928117000025 ], [ -2.041168532999961, 7.964369762000047 ], [ -1.985039246999975, 7.966177794999965 ], [ -1.914098867999883, 7.877331907000098 ], [ -1.902935502999924, 7.831128866000086 ], [ -1.944315386999961, 7.799232039000117 ], [ -1.970735218999948, 7.805873717000054 ], [ -2.023113122999973, 7.780336743000134 ], [ -2.076393017999976, 7.778582397000093 ], [ -2.073038517999976, 7.71350779200003 ], [ -2.048041538999939, 7.671609162000038 ], [ -2.089658843999871, 7.630785286 ], [ -2.108886892999919, 7.553207118000046 ], [ -2.137707144999922, 7.525760347000073 ], [ -2.111165204999963, 7.498023023000087 ], [ -2.109555978999936, 7.465234565 ], [ -2.14084010299996, 7.409098651000136 ], [ -2.135529442999939, 7.373792155999979 ], [ -2.160934949999955, 7.32861485300009 ], [ -2.215081206999969, 7.314367823000055 ], [ -2.268658588999926, 7.27430469799998 ], [ -2.265177866999977, 7.245506570000032 ], [ -2.281476012999974, 7.247015053000041 ], [ -2.285098627999957, 7.226699182000175 ], [ -2.324949419999939, 7.237125463000154 ], [ -2.34152214799991, 7.215745167000023 ], [ -2.350055194999925, 7.186986604000083 ], [ -2.288359081999943, 7.140901142000075 ], [ -2.298389627999882, 7.098300263000169 ], [ -2.350124194999921, 7.129078135000157 ], [ -2.372473057999912, 7.102108344000044 ], [ -2.438491444999897, 7.088842851000152 ], [ -2.400517481999941, 7.111847543000181 ], [ -2.447597484999903, 7.140602462000061 ], [ -2.493714156999829, 7.13341928400007 ], [ -2.49506172699995, 7.226394401000107 ], [ -2.555891671999973, 7.230456755000148 ], [ -2.580552244999922, 7.208813052000153 ], [ -2.58122097699993, 7.180545401000131 ], [ -2.607172314999957, 7.180357787000048 ], [ -2.651376137999875, 7.141499070000179 ], [ -2.683981317999894, 7.140041321000069 ], [ -2.699242184999946, 7.106498307000095 ], [ -2.75316763099994, 7.078502171000025 ], [ -2.770654640999965, 7.021737757000039 ], [ -2.848909268999932, 6.95166707300001 ], [ -2.849314534999905, 6.886803403999977 ], [ -2.866232530999923, 6.852401526 ] ] ] } },
{ "type": "Feature", "properties": { "GADM_ID": "GH.4_2", "country": "GH", "pop": 1118810.9017190933, "gdp": 4852548608.0 }, "geometry": { "type": "Polygon", "coordinates": [ [ [ -1.433583263999878, 7.573461059000124 ], [ -1.472437967999895, 7.496560157000033 ], [ -1.520232469999826, 7.450029583000173 ], [ -1.515539533999913, 7.390893068000082 ], [ -1.57659973199992, 7.402829767000128 ], [ -1.654152376999946, 7.313537851000149 ], [ -1.709202692999952, 7.324331799999982 ], [ -1.728480947999969, 7.311773165000147 ], [ -1.761453134999897, 7.32197803300005 ], [ -1.77934277199995, 7.350940251000054 ], [ -1.807224849999955, 7.348482565000097 ], [ -1.839924798999903, 7.4250548280001 ], [ -1.836001092999879, 7.470969218000164 ], [ -1.856417961999966, 7.461199879000162 ], [ -1.867032503999894, 7.478264583000055 ], [ -1.897947316999932, 7.430446937000113 ], [ -1.927065990999949, 7.442559301000074 ], [ -1.964455659999885, 7.408061197000109 ], [ -2.01846352299998, 7.42145121100009 ], [ -2.03799860599986, 7.457043070000054 ], [ -2.109661922999919, 7.463597096000171 ], [ -2.111165204999963, 7.498023023000087 ], [ -2.137767924999878, 7.523998837000136 ], [ -2.108886892999919, 7.553207118000046 ], [ -2.089658843999871, 7.630785286 ], [ -2.048041538999939, 7.671609162000038 ], [ -2.073038517999976, 7.71350779200003 ], [ -2.076393017999976, 7.778582397000093 ], [ -2.023113122999973, 7.780336743000134 ], [ -1.970735218999948, 7.805873717000054 ], [ -1.944315386999961, 7.799232039000117 ], [ -1.902935502999924, 7.831128866000086 ], [ -1.914098867999883, 7.877331907000098 ], [ -1.985039246999975, 7.966177794999965 ], [ -2.041168532999961, 7.964369762000047 ], [ -2.025343814999871, 8.023928117000025 ], [ -2.12111213999998, 8.153252428000087 ], [ -2.044178550999959, 8.147543008000184 ], [ -1.961694105999925, 8.168901225000127 ], [ -1.895116786999949, 8.261649439000109 ], [ -1.799684978999949, 8.226190851000126 ], [ -1.772821326999917, 8.23154806000008 ], [ -1.747396551999941, 8.262051680000127 ], [ -1.76990266599995, 8.322712901000045 ], [ -1.802934196999956, 8.33941448600001 ], [ -1.870922, 8.333987219000107 ], [ -1.908075614999973, 8.397648485000047 ], [ -1.909835265999959, 8.438473091000162 ], [ -1.883113765999951, 8.480163735000133 ], [ -1.896832067999924, 8.55278080000005 ], [ -1.868194126999924, 8.641311562000169 ], [ -1.816407245999869, 8.661948812999981 ], [ -1.73339145999995, 8.626364558000148 ], [ -1.693239264999875, 8.643812396000158 ], [ -1.679346443999862, 8.683903919000045 ], [ -1.658362047999901, 8.695399221000116 ], [ -1.61189415299998, 8.67701420100002 ], [ -1.531503763999922, 8.680988110000101 ], [ -1.510786608999979, 8.691741802000138 ], [ -1.484556872999974, 8.75971748000012 ], [ -1.409744640999975, 8.774332610000044 ], [ -1.355961166999919, 8.759058202000119 ], [ -1.229646624999816, 8.674654142000065 ], [ -1.14446946899983, 8.677352349000103 ], [ -1.145983929999886, 8.558537307000051 ], [ -1.172065963999955, 8.535319605000154 ], [ -1.168235521999975, 8.508629650000046 ], [ -1.195932578999873, 8.511505687000067 ], [ -1.194555929999922, 8.494046457000024 ], [ -1.25854096899991, 8.45484929600002 ], [ -1.252725021999936, 8.379240312000093 ], [ -1.280317757999967, 8.308851288000028 ], [ -1.266461541999888, 8.257293677000177 ], [ -1.156541870999945, 8.088609745000042 ], [ -1.157946003999939, 7.999269067000057 ], [ -1.107001481999816, 7.992366181000023 ], [ -1.047454819999871, 8.030085695000082 ], [ -1.016459311999938, 8.01756734300011 ], [ -1.068731373999867, 8.129198142 ], [ -1.040490571999896, 8.165978329999973 ], [ -1.039698667999858, 8.24305948600005 ], [ -1.021929054999873, 8.260774959000059 ], [ -0.9789676339999, 8.227244715999973 ], [ -0.959082154999919, 8.251061863000018 ], [ -0.891341332999957, 8.258353751000129 ], [ -0.86196825199994, 8.272380563000013 ], [ -0.85783623299983, 8.32854555900019 ], [ -0.80143628299993, 8.339631067000084 ], [ -0.740757715999962, 8.335546931000067 ], [ -0.542457166999952, 8.187638446000165 ], [ -0.319326211999851, 8.130429204000109 ], [ -0.214671561999978, 8.030935046000081 ], [ -0.152920752999933, 8.031329795000147 ], [ -0.141533140999968, 8.017858777000072 ], [ -0.173825652999881, 7.957410774000152 ], [ -0.134933423999883, 7.948539016000097 ], [ -0.145403208999937, 7.903046062999977 ], [ -0.126449504999925, 7.788186060000044 ], [ -0.100081640999974, 7.750374650000026 ], [ -0.014507233999893, 7.756908878000104 ], [ 0.004125835000082, 7.742383890000042 ], [ -0.014290690999928, 7.626057104000097 ], [ 0.077105324000172, 7.482061193000163 ], [ 0.090965975000131, 7.429273997000053 ], [ 0.198570284000141, 7.367970535000154 ], [ 0.214990344000171, 7.31000343200003 ], [ 0.182345480000095, 7.17964532700006 ], [ 0.050522116000138, 7.172005288000037 ], [ 0.004410069000187, 7.1939889410001 ], [ -0.052693802999954, 7.196401779000041 ], [ -0.084864996999954, 7.179243806000159 ], [ -0.107116739999867, 7.195061311000188 ], [ -0.215531864999946, 7.199647722000122 ], [ -0.220800568999948, 7.212787397000113 ], [ -0.238704176999818, 7.202302782000061 ], [ -0.261660724999956, 7.266644981000127 ], [ -0.288835416999973, 7.284338588000139 ], [ -0.324422801999901, 7.281043859000079 ], [ -0.36197990699992, 7.311704747000022 ], [ -0.540929571999925, 7.354501841000058 ], [ -0.598668794999867, 7.348577835000185 ], [ -0.654169712999874, 7.430737882000074 ], [ -0.6500298549999, 7.50198117400015 ], [ -0.689120921999915, 7.541444974000058 ], [ -0.784984408999946, 7.497651892000022 ], [ -0.866762132999952, 7.520663985000056 ], [ -0.925210747999927, 7.503715696000143 ], [ -0.983487373999935, 7.534657755000126 ], [ -1.024743670999953, 7.533966462000024 ], [ -1.104849941999873, 7.464834169000142 ], [ -1.126007370999957, 7.477032680000036 ], [ -1.155501680999862, 7.468986041999983 ], [ -1.202889980999942, 7.495405542000185 ], [ -1.247534660999975, 7.494144512000105 ], [ -1.313554502999921, 7.580623805000187 ], [ -1.309842783999954, 7.622966295000083 ], [ -1.386059926999962, 7.605097060000162 ], [ -1.433583263999878, 7.573461059000124 ] ] ] } },
{ "type": "Feature", "properties": { "GADM_ID": "GH.5_2", "country": "GH", "pop": 2781545.3722171783, "gdp": 10306765824.0 }, "geometry": { "type": "Polygon", "coordinates": [ [ [ -0.783756561999951, 5.706113792000053 ], [ -0.695141080999974, 5.715267921000134 ], [ -0.685775011999965, 5.739525975000106 ], [ -0.623309415999927, 5.720973405000052 ], [ -0.568153936999977, 5.740317403000063 ], [ -0.51033151199988, 5.736180304000129 ], [ -0.518462195999916, 5.686398728000029 ], [ -0.497133392999956, 5.646625649000157 ], [ -0.428433192999933, 5.618992757000171 ], [ -0.399968213999955, 5.565882133000116 ], [ -0.416004167999972, 5.537645093000037 ], [ -0.406412970999895, 5.465394823000167 ], [ -0.465237325999908, 5.429365810000149 ], [ -0.499013915999967, 5.37783598600015 ], [ -0.724513628999944, 5.299974679000115 ], [ -0.807384547999959, 5.215706436000175 ], [ -1.083506114999921, 5.196104021000167 ], [ -1.246428321999929, 5.100582645000031 ], [ -1.321738134999976, 5.096785349000129 ], [ -1.580224437999902, 5.033140083000092 ], [ -1.581451687999845, 5.154931346000126 ], [ -1.525064440999927, 5.170665254000085 ], [ -1.509902519999969, 5.208273174000112 ], [ -1.446323296999935, 5.210134911000068 ], [ -1.44409149899991, 5.26781129800014 ], [ -1.399792495999918, 5.298002429000178 ], [ -1.48934004299997, 5.399238702000162 ], [ -1.513863137999977, 5.392679210000097 ], [ -1.628848233999975, 5.421989049000047 ], [ -1.601673776999974, 5.450610291000089 ], [ -1.616219207999961, 5.51880149800013 ], [ -1.594002755999952, 5.529884398000149 ], [ -1.590354102999868, 5.554429112000093 ], [ -1.631970974999888, 5.609827678000102 ], [ -1.676356311999882, 5.608075345000145 ], [ -1.685700401999952, 5.642267600000082 ], [ -1.832180790999814, 5.592435325000167 ], [ -1.818038789999946, 5.674657444000047 ], [ -1.791822664999927, 5.695552295000084 ], [ -1.783789043999946, 5.725477001000172 ], [ -1.816637403999835, 5.724827835000099 ], [ -1.800993038999934, 5.750949017000096 ], [ -1.850725224999962, 5.767583835000153 ], [ -1.828799799999956, 5.786479016000044 ], [ -1.844658510999977, 5.804963905000136 ], [ -1.814932015999943, 5.889195677000146 ], [ -1.841795717999901, 5.901677483000128 ], [ -1.879675515999963, 5.889361462000124 ], [ -1.909020072999965, 5.937177511000016 ], [ -1.939210103999869, 5.955840410000121 ], [ -1.944354738999948, 5.983476229000075 ], [ -1.985300643999949, 6.016471061 ], [ -2.051510426999869, 6.050005113000168 ], [ -2.058677501999853, 6.071533998000064 ], [ -2.140267244999905, 6.091187442000091 ], [ -2.162368775999937, 6.11981348400019 ], [ -2.181744461999926, 6.120996156 ], [ -2.205925670999875, 6.197970027000167 ], [ -2.131388433999973, 6.258936263000066 ], [ -2.098638236999875, 6.239908713000091 ], [ -2.074254994999876, 6.294473162000088 ], [ -2.009515081999893, 6.29162038100003 ], [ -2.040399382999965, 6.197880352000141 ], [ -2.022598415999823, 6.173242820000155 ], [ -2.024743960999956, 6.135693207000031 ], [ -2.012965981999969, 6.112188585000183 ], [ -1.981289208999954, 6.11921406800019 ], [ -1.968499269999882, 6.052973599000097 ], [ -1.94985884599987, 6.057036568000115 ], [ -1.914376357999913, 6.011732899000037 ], [ -1.882422224999971, 6.03376913600016 ], [ -1.864509369999951, 6.009844520000172 ], [ -1.821707992999961, 6.039236767000034 ], [ -1.770429377999903, 5.96090965500008 ], [ -1.73665141999993, 5.970262647000141 ], [ -1.709648670999911, 5.95489920100016 ], [ -1.707239865999952, 5.929262200000153 ], [ -1.692701406999959, 5.943359091000104 ], [ -1.67245829899997, 5.915323820000083 ], [ -1.63907721299995, 5.933646119000059 ], [ -1.595699071999888, 5.923945958000104 ], [ -1.589955170999815, 5.93494884100005 ], [ -1.58104814099994, 5.91762781500006 ], [ -1.571878030999869, 5.93308079600007 ], [ -1.558555263999949, 5.923788874000081 ], [ -1.531028086999925, 5.939238279 ], [ -1.498008649999974, 5.891445484000087 ], [ -1.521754133999877, 5.875128570000186 ], [ -1.500667759999828, 5.876978371000064 ], [ -1.47587386399988, 5.855063720000032 ], [ -1.461724211999922, 5.862235028999976 ], [ -1.466511112999967, 5.904595205000135 ], [ -1.455522518999885, 5.893626619000145 ], [ -1.450679020999814, 5.906328514000108 ], [ -1.42084624599994, 5.903716343000099 ], [ -1.418734103999896, 5.921433391000164 ], [ -1.379887476999954, 5.916443874000038 ], [ -1.377006073999894, 5.934541818000184 ], [ -1.335888331999968, 5.926850446000117 ], [ -1.342511233999971, 5.910844180000026 ], [ -1.30783701799993, 5.926079644000083 ], [ -1.298035597999956, 5.885649889000035 ], [ -1.275165575999836, 5.902922477000118 ], [ -1.262431754999966, 5.89082727400006 ], [ -1.260880800999871, 5.915357392000033 ], [ -1.219573563999916, 5.933667231000015 ], [ -1.163245752999956, 5.897952643000167 ], [ -1.165449091999903, 5.731270350000159 ], [ -1.143888296999876, 5.704138221000107 ], [ -1.120973084999946, 5.720532421000144 ], [ -1.099818866999954, 5.700823113000069 ], [ -1.077178613999877, 5.749127002000023 ], [ -0.994780608999974, 5.739208403000134 ], [ -0.97156487999996, 5.754180822000023 ], [ -0.954217834999952, 5.738522878000026 ], [ -0.903532960999883, 5.738597909000077 ], [ -0.879023046999919, 5.742421234000119 ], [ -0.880200477999892, 5.758554959000037 ], [ -0.812300181999888, 5.744352365000168 ], [ -0.783756561999951, 5.706113792000053 ] ] ] } },
{ "type": "Feature", "properties": { "GADM_ID": "GH.6_2", "country": "GH", "pop": 3154364.38504076, "gdp": 14482298880.0 }, "geometry": { "type": "Polygon", "coordinates": [ [ [ -0.390097624999896, 5.757961660000035 ], [ -0.437433079999948, 5.8008070570001 ], [ -0.443936961999952, 5.777435841000113 ], [ -0.508804472999941, 5.735583521000081 ], [ -0.568153936999977, 5.740317403000063 ], [ -0.623309415999927, 5.720973405000052 ], [ -0.685775011999965, 5.739525975000106 ], [ -0.711988462999898, 5.711450037000077 ], [ -0.783756561999951, 5.706113792000053 ], [ -0.812300181999888, 5.744352365000168 ], [ -0.880200477999892, 5.758554959000037 ], [ -0.879023046999919, 5.742421234000119 ], [ -0.903532960999883, 5.738597909000077 ], [ -0.954217834999952, 5.738522878000026 ], [ -0.97156487999996, 5.754180822000023 ], [ -0.994780608999974, 5.739208403000134 ], [ -1.083366521999949, 5.747566574000075 ], [ -1.099818866999954, 5.700823113000069 ], [ -1.120973084999946, 5.720532421000144 ], [ -1.143888296999876, 5.704138221000107 ], [ -1.151030019999951, 5.725033564000171 ], [ -1.163109092999946, 5.721126199000082 ], [ -1.163245752999956, 5.897952643000167 ], [ -1.224648453999976, 5.935469877000173 ], [ -1.222227638999868, 5.975560837000103 ], [ -1.246844920999933, 5.990932928000063 ], [ -1.231241624999882, 6.038726782000026 ], [ -1.208254405999867, 6.052686916000084 ], [ -1.204801948999943, 6.090959902000122 ], [ -1.187174969999944, 6.097502101000032 ], [ -1.20708567399987, 6.11290870800002 ], [ -1.179581963999908, 6.147936530000095 ], [ -1.192220894999934, 6.199222611000096 ], [ -1.120258781999894, 6.209397430000024 ], [ -1.11632095799996, 6.268710886000122 ], [ -1.138643239999965, 6.296330123000132 ], [ -1.112195289999931, 6.320585007000091 ], [ -1.114251912999919, 6.352811775000021 ], [ -1.035621812999864, 6.413019937000058 ], [ -1.010304463999944, 6.414958626000157 ], [ -1.018001023999943, 6.436074283000153 ], [ -1.005733273999908, 6.442778499000099 ], [ -1.000613485999963, 6.500077492 ], [ -0.912866360999885, 6.594544212000073 ], [ -0.923598611999978, 6.640848390000087 ], [ -0.976781961999961, 6.614729958000112 ], [ -0.973894663999829, 6.681078527000125 ], [ -0.946901018999938, 6.724829949000082 ], [ -0.985948005999944, 6.743238561000169 ], [ -0.932498446999944, 6.756247488000156 ], [ -0.901219677999904, 6.788317881000069 ], [ -0.851596362999942, 6.777936880000084 ], [ -0.83367446699998, 6.793402273000083 ], [ -0.786919835999925, 6.793844362000186 ], [ -0.757224007999923, 6.844844796000018 ], [ -0.757155513999976, 6.925352451000037 ], [ -0.741954605999979, 6.948883154000157 ], [ -0.652277580999908, 6.929478992000156 ], [ -0.657547731999955, 6.947186678000151 ], [ -0.581937115999949, 6.953389335000054 ], [ -0.564703086999884, 7.018639085000132 ], [ -0.591007813999965, 7.044483189000118 ], [ -0.635393603999944, 7.173891996000179 ], [ -0.561232944999915, 7.137463605000107 ], [ -0.393795085999955, 7.117616674000146 ], [ -0.322750099999894, 7.143358491000072 ], [ -0.287156846999835, 7.194692753000083 ], [ -0.260146424999903, 7.189507601 ], [ -0.220800568999948, 7.212787397000113 ], [ -0.215531864999946, 7.199647722000122 ], [ -0.107116739999867, 7.195061311000188 ], [ -0.084864996999954, 7.179243806000159 ], [ -0.052693802999954, 7.196401779000041 ], [ 0.004410069000187, 7.1939889410001 ], [ 0.050522116000138, 7.172005288000037 ], [ 0.12324824500007, 7.183831848000182 ], [ 0.235242462000031, 7.167057875000069 ], [ 0.242642695000086, 7.127042875000143 ], [ 0.196687019000024, 7.067504392000046 ], [ 0.22743148800015, 6.973973242999989 ], [ 0.206182425000179, 6.942492672000071 ], [ 0.135481655999968, 6.909977248000189 ], [ 0.119802566000146, 6.870401622000031 ], [ 0.133159260000014, 6.829078063000168 ], [ 0.192508936000081, 6.789323177000085 ], [ 0.208204202000047, 6.757556591000025 ], [ 0.1990293180001, 6.696956436000164 ], [ 0.123178306000057, 6.665983631000074 ], [ 0.105296492000036, 6.581605277000051 ], [ 0.104435717000115, 6.56692117800003 ], [ 0.15180723200001, 6.577829602000179 ], [ 0.194553122000116, 6.563945363000073 ], [ 0.177788898000188, 6.511453299000038 ], [ 0.189189139000121, 6.475373439000123 ], [ 0.177992639000081, 6.42420555200016 ], [ 0.21646877000012, 6.387958238000067 ], [ 0.169330635000165, 6.327534717999981 ], [ 0.175723832000017, 6.302746723000098 ], [ 0.127748389000089, 6.255217495000181 ], [ 0.091090277000092, 6.160403570000085 ], [ 0.14362008300003, 6.100780729000064 ], [ 0.08916316900013, 6.062671218 ], [ 0.040358079000043, 6.047898814000064 ], [ 0.019002688000114, 6.061874878000026 ], [ 0.005770143000063, 6.012051891000112 ], [ -0.013733939999952, 6.001341902000092 ], [ -0.006304881999881, 5.971169705000079 ], [ -0.12288026799996, 5.879670533000024 ], [ -0.129883613999937, 5.852877165000052 ], [ -0.163945768999895, 5.84165066200012 ], [ -0.149258613999962, 5.833671649000109 ], [ -0.155025153999873, 5.814677374000155 ], [ -0.202542491999964, 5.781898232000117 ], [ -0.225056467999934, 5.740065804000096 ], [ -0.243686994999962, 5.757696739000096 ], [ -0.233406439999953, 5.784340278 ], [ -0.256507468999928, 5.777858429999981 ], [ -0.265498698999977, 5.807629211000062 ], [ -0.362285302999965, 5.763001191000058 ], [ -0.384738846999824, 5.776321774000053 ], [ -0.390097624999896, 5.757961660000035 ] ], [ [ -0.08596098299995, 6.193918538000048 ], [ -0.08596098199996, 6.193918538000048 ], [ -0.085892301999934, 6.194018767999978 ], [ -0.08596098299995, 6.193918538000048 ] ] ] } },
{ "type": "Feature", "properties": { "GADM_ID": "GH.7_2", "country": "GH", "pop": 5325811.7185652256, "gdp": 18288789504.0 }, "geometry": { "type": "Polygon", "coordinates": [ [ [ -0.221059959999934, 5.529820175000111 ], [ -0.358404758999882, 5.497640460000184 ], [ -0.405390106999903, 5.470447043000036 ], [ -0.416004167999972, 5.537645093000037 ], [ -0.399968213999955, 5.565882133000116 ], [ -0.428433192999933, 5.618992757000171 ], [ -0.497133392999956, 5.646625649000157 ], [ -0.518462195999916, 5.686398728000029 ], [ -0.51033151199988, 5.736180304000129 ], [ -0.443936961999952, 5.777435841000113 ], [ -0.437433079999948, 5.8008070570001 ], [ -0.390097624999896, 5.757961660000035 ], [ -0.384738846999824, 5.776321774000053 ], [ -0.366378833999931, 5.762360674000035 ], [ -0.327417378999883, 5.772488654000142 ], [ -0.270702248999953, 5.808256703000097 ], [ -0.256507468999928, 5.777858429999981 ], [ -0.233406439999953, 5.784340278 ], [ -0.243686994999962, 5.757696739000096 ], [ -0.225056467999934, 5.740065804000096 ], [ -0.202542491999964, 5.781898232000117 ], [ -0.155025153999873, 5.814677374000155 ], [ -0.149258613999962, 5.833671649000109 ], [ -0.163945768999895, 5.84165066200012 ], [ -0.129883613999937, 5.852877165000052 ], [ -0.12288026799996, 5.879670533000024 ], [ -0.006304881999881, 5.971169705000079 ], [ -0.013733939999952, 6.001341902000092 ], [ 0.005770143000063, 6.012051891000112 ], [ 0.019002688000114, 6.061874878000026 ], [ 0.040358079000043, 6.047898814000064 ], [ 0.089780787000109, 6.0628731810001 ], [ 0.146788720000131, 6.109133698000107 ], [ 0.189356344000032, 6.096825920000128 ], [ 0.247750601000121, 6.105682061999971 ], [ 0.295470384999987, 6.057291708000037 ], [ 0.337849215000119, 6.047186766000095 ], [ 0.33176655300008, 6.033911471000124 ], [ 0.348659860999987, 6.022161778000054 ], [ 0.329717139000138, 5.996636506000186 ], [ 0.353340475000039, 5.986601417000031 ], [ 0.343881657000054, 5.953911796000057 ], [ 0.434314744000062, 5.973977001000151 ], [ 0.45006851800008, 6.001578729000073 ], [ 0.483711338000148, 5.992484759000092 ], [ 0.484747317000142, 5.975482984000166 ], [ 0.490843764000147, 5.995516288000033 ], [ 0.52536951400009, 5.978826421000122 ], [ 0.524037082000177, 5.954887621000069 ], [ 0.541716086000122, 5.94970437000012 ], [ 0.551000626000018, 5.920294800000022 ], [ 0.559027505000074, 5.939304589000187 ], [ 0.576057590000062, 5.93283512 ], [ 0.588763311000037, 5.918674991000159 ], [ 0.574568851000095, 5.899854147999974 ], [ 0.619073450000087, 5.875759054000127 ], [ 0.614990283000054, 5.864582164000126 ], [ 0.631516780000084, 5.866785767000124 ], [ 0.620294148000028, 5.83425544500011 ], [ 0.642889575000083, 5.840969231000145 ], [ 0.651866190000021, 5.805216844000029 ], [ 0.687974037, 5.777770513000121 ], [ 0.670066771000052, 5.768522677000021 ], [ 0.427921127000161, 5.788920314000109 ], [ 0.276492555000061, 5.773107886000048 ], [ 0.06727636100004, 5.693091618000153 ], [ 0.004151971000113, 5.624406931000124 ], [ -0.221059959999934, 5.529820175000111 ] ] ] } },
{ "type": "Feature", "properties": { "GADM_ID": "GH.8_2", "country": "GH", "pop": 609034.54821443558, "gdp": 2563294208.0 }, "geometry": { "type": "Polygon", "coordinates": [ [ [ -1.58674273999992, 10.080979180000043 ], [ -1.600710834999973, 10.133004938 ], [ -1.659840834999954, 10.165698204000023 ], [ -1.663310593999881, 10.186657296000135 ], [ -1.570250551999948, 10.355423424000151 ], [ -1.40374913799991, 10.48450517200007 ], [ -1.362641320999955, 10.436250400000176 ], [ -1.381349967999881, 10.390378666000061 ], [ -1.350397261999888, 10.373104707000152 ], [ -1.348180594999917, 10.347253462000026 ], [ -1.32636043499997, 10.332058974000176 ], [ -1.26896372799996, 10.325488582000105 ], [ -1.247686025999883, 10.274707233000129 ], [ -1.211081019999881, 10.324060106 ], [ -1.234231095999974, 10.375169617000154 ], [ -1.227013853999949, 10.391650993000098 ], [ -1.165594561999967, 10.412560546000066 ], [ -1.133318535999933, 10.458164441000122 ], [ -1.01033788999996, 10.537498389000064 ], [ -0.91318567299993, 10.527745463000088 ], [ -0.934839025999963, 10.486419640000179 ], [ -0.922741511999902, 10.482425154000055 ], [ -0.890616738999938, 10.518524555000113 ], [ -0.909219029999974, 10.575869417000035 ], [ -0.874594237999929, 10.595263663000139 ], [ -0.843277403999934, 10.574632874000088 ], [ -0.837846218999971, 10.601244489000067 ], [ -0.795920542999909, 10.621734806000177 ], [ -0.792545797999935, 10.651673584000036 ], [ -0.712214605999975, 10.641585758000076 ], [ -0.718193557999882, 10.605622468000035 ], [ -0.685739303999924, 10.567630284000131 ], [ -0.715691998999944, 10.529409309000073 ], [ -0.704856869999958, 10.523632852000105 ], [ -0.689870480999957, 10.542530633000069 ], [ -0.671140188999971, 10.525260496000101 ], [ -0.640729111999974, 10.555590542000175 ], [ -0.593588414999886, 10.546121028000016 ], [ -0.553954068999928, 10.571747044000062 ], [ -0.515950630999953, 10.560501002000024 ], [ -0.499399878999839, 10.623389168000131 ], [ -0.443579428999954, 10.599700967000103 ], [ -0.365550399999961, 10.625153682000075 ], [ -0.262089082999978, 10.631535091000046 ], [ -0.230016874999933, 10.655549438999969 ], [ -0.122854715999949, 10.685597299000165 ], [ -0.090398038999979, 10.711902047000024 ], [ -0.059295168999938, 10.632355699000129 ], [ 0.04125026100013, 10.601558768000075 ], [ 0.060439886999973, 10.561630656000034 ], [ 0.143552151000108, 10.525656533000074 ], [ 0.154500826000117, 10.465301712000098 ], [ 0.192717454000103, 10.40252537900011 ], [ 0.217167132000156, 10.426546617000099 ], [ 0.259568475000094, 10.407787232000032 ], [ 0.284418594000158, 10.421946259000094 ], [ 0.300169859000164, 10.402780669000094 ], [ 0.29012789300009, 10.3764938650001 ], [ 0.337807422000083, 10.325047581000092 ], [ 0.317034616000171, 10.309869597000159 ], [ 0.396027973000059, 10.314177108000138 ], [ 0.361128852999968, 10.258554405000154 ], [ 0.352137399000128, 10.102117540000052 ], [ 0.417415946000062, 10.057963929000096 ], [ 0.410399716000029, 10.021708601000057 ], [ 0.360236754000141, 10.029426864000129 ], [ 0.361451733000081, 9.979363190000129 ], [ 0.386335404000079, 9.949533232000078 ], [ 0.37836229100003, 9.934586647000174 ], [ 0.325037080000072, 9.944016688000147 ], [ 0.30384921600006, 9.977153168000086 ], [ 0.233546815000182, 9.956267737000132 ], [ 0.155442038000047, 9.986102694000181 ], [ 0.130062017000171, 9.95671538400012 ], [ 0.127090079000141, 9.971713574000148 ], [ 0.071661939000023, 9.966353982000044 ], [ 0.063710911000101, 9.999654325000108 ], [ 0.109489096000175, 10.005060756999967 ], [ 0.124429772000042, 10.038841501000093 ], [ 0.111323912000103, 10.131008498000028 ], [ 0.06090673500006, 10.180122409000035 ], [ 0.091011742999967, 10.243475403000048 ], [ 0.073725139000032, 10.29511319400018 ], [ 0.058065135000163, 10.293924607000179 ], [ 0.048967770000161, 10.342689518999975 ], [ -0.018998270999873, 10.32858604200004 ], [ -0.024795083999891, 10.271220632000052 ], [ -0.072582416999921, 10.295174844000144 ], [ -0.088220915999955, 10.295031002000144 ], [ -0.093556236999973, 10.269492449000097 ], [ -0.149328285999957, 10.295227632000035 ], [ -0.203002320999929, 10.26580817700011 ], [ -0.238299075999976, 10.287849818000154 ], [ -0.269433646999971, 10.276225435000129 ], [ -0.309856459999935, 10.290984818000027 ], [ -0.359483172999944, 10.26169920000001 ], [ -0.385897485999919, 10.29792669699998 ], [ -0.455347235999966, 10.301669404000165 ], [ -0.494286323999972, 10.325999065000133 ], [ -0.51072843299994, 10.252675217000103 ], [ -0.498998457999846, 10.23741858000011 ], [ -0.513991058999977, 10.248237074000144 ], [ -0.521935025999937, 10.23397921600008 ], [ -0.534302329999946, 10.267123561000062 ], [ -0.547597277999955, 10.210500450999973 ], [ -0.599111946999926, 10.160207811000078 ], [ -0.625621234999869, 10.165500886000075 ], [ -0.643510451999873, 10.190142699000091 ], [ -0.693971715999908, 10.188537286000042 ], [ -0.718242695999948, 10.17892064800003 ], [ -0.711609383999928, 10.162927995000075 ], [ -0.763985942999966, 10.165128079 ], [ -0.783378939999977, 10.141864364000128 ], [ -0.804040370999928, 10.155237233000037 ], [ -0.821248244999879, 10.118188248000138 ], [ -0.854373911999971, 10.128135636000025 ], [ -0.86468270599994, 10.055741675999968 ], [ -0.881810723999934, 10.059662589000141 ], [ -0.895415404999881, 10.019482319000019 ], [ -0.910113967999962, 10.023541219000151 ], [ -0.921540745999948, 10.000228082000092 ], [ -0.937777934999872, 10.011510537 ], [ -0.94033186199988, 9.989970045000121 ], [ -0.962291753999921, 9.990586544000109 ], [ -0.980948275999936, 9.944439647000081 ], [ -1.002176046999921, 9.965035778000072 ], [ -0.988263795999899, 10.002180355000064 ], [ -1.026178090999906, 10.06007956600007 ], [ -1.012045145999934, 10.092872671000066 ], [ -1.08889001499989, 10.122184656 ], [ -1.086245610999924, 10.152290402000176 ], [ -1.057931491999966, 10.157586127000059 ], [ -1.102491475999955, 10.186386942000127 ], [ -1.131252502999871, 10.14120747100003 ], [ -1.126179796999907, 10.115357453000115 ], [ -1.210230096999908, 10.088434354000128 ], [ -1.237630696999872, 10.026405839 ], [ -1.287671993999879, 10.035479475999978 ], [ -1.310149908999961, 10.066037930000107 ], [ -1.369632108999951, 10.094592446000036 ], [ -1.46740150699992, 10.103644117000101 ], [ -1.538253439999892, 10.071398378000083 ], [ -1.557366685999853, 10.097793400000171 ], [ -1.58674273999992, 10.080979180000043 ] ] ] } },
{ "type": "Feature", "properties": { "GADM_ID": "GH.9_2", "country": "GH", "pop": 1998687.6858053207, "gdp": 7350614016.0 }, "geometry": { "type": "Polygon", "coordinates": [ [ [ 0.082637358000113, 8.527445604000093 ], [ 0.120801445000097, 8.485385799000028 ], [ 0.081583585000089, 8.460783176 ], [ 0.086488141000132, 8.40323964800001 ], [ 0.124820839000108, 8.382823647 ], [ 0.207477968000148, 8.41010354500014 ], [ 0.244329847000074, 8.386455415000114 ], [ 0.235333661000027, 8.343829341 ], [ 0.185765563000189, 8.326380640000025 ], [ 0.193864642000165, 8.253283348000082 ], [ 0.123223585000119, 8.232437935000064 ], [ 0.129896028000019, 8.214579603000061 ], [ 0.11521374300014, 8.229144822000023 ], [ 0.07861525800007, 8.223111499000026 ], [ 0.104374146000055, 8.239033528 ], [ 0.080647277000025, 8.280016890000127 ], [ 0.010578624000118, 8.297635393000121 ], [ -0.047977842999956, 8.352149085000065 ], [ -0.110265326999979, 8.335913498000082 ], [ -0.125499763999869, 8.272364402000051 ], [ -0.142733986999872, 8.272082151 ], [ -0.187144986999954, 8.35801850100006 ], [ -0.278330886999925, 8.319737756 ], [ -0.325896607999937, 8.336938591000091 ], [ -0.306607766999832, 8.358115843000121 ], [ -0.253006066999944, 8.351728681999987 ], [ -0.21879033599987, 8.455519949 ], [ -0.242846475999954, 8.472673090000058 ], [ -0.212859106999929, 8.468020520000039 ], [ -0.21009100699996, 8.48678425300011 ], [ -0.195075767999811, 8.483299835000082 ], [ -0.208230117999904, 8.494637042000136 ], [ -0.196656915999881, 8.552084099000069 ], [ -0.234683734999976, 8.572128807000183 ], [ -0.269644647999939, 8.542058317999988 ], [ -0.277678977999869, 8.557533896000052 ], [ -0.312161884999909, 8.527483079000092 ], [ -0.335454581999898, 8.53061358500014 ], [ -0.343646658999944, 8.568544003000056 ], [ -0.363661113999967, 8.581465977 ], [ -0.35763153399995, 8.598953854000058 ], [ -0.371481143999972, 8.586959643000171 ], [ -0.3733849219999, 8.598037467000154 ], [ -0.411059934999912, 8.598993270000108 ], [ -0.417778957999928, 8.645964787000139 ], [ -0.485110936999888, 8.682489128000157 ], [ -0.490644474999897, 8.711437927000077 ], [ -0.47563915399985, 8.733722501000045 ], [ -0.430948795999882, 8.716472080000131 ], [ -0.413157646999935, 8.734000907000166 ], [ -0.412391865999894, 8.708128328000043 ], [ -0.387402509999959, 8.708777556000143 ], [ -0.353739517999884, 8.75439523700004 ], [ -0.314541784999847, 8.750729622000051 ], [ -0.29523750899989, 8.810303062000173 ], [ -0.321094284999958, 8.819269659000156 ], [ -0.342921537999928, 8.865017475000116 ], [ -0.299661753999942, 8.860812996000163 ], [ -0.302020351999943, 8.885676504000173 ], [ -0.254264884999884, 8.901342003000025 ], [ -0.2364844949999, 8.940068120000149 ], [ -0.198684437999873, 8.951004787000102 ], [ -0.218406709999954, 9.032800648000091 ], [ -0.202628820999905, 9.108870681000042 ], [ -0.282044215999917, 9.137781291000067 ], [ -0.32399143799995, 9.209288875000141 ], [ -0.390824227999929, 9.235400003000166 ], [ -0.426317728999891, 9.22270506600006 ], [ -0.489631082999892, 9.249490789000049 ], [ -0.519507566999891, 9.282200418000116 ], [ -0.543662611999935, 9.275092986000175 ], [ -0.566291621999881, 9.28823062400005 ], [ -0.594418466999912, 9.328719998000111 ], [ -0.627028325999959, 9.30700683900011 ], [ -0.684090382999898, 9.325474049000036 ], [ -0.689046069999961, 9.310138439000013 ], [ -0.714510897999901, 9.326241709000158 ], [ -0.714332935999948, 9.295887119000042 ], [ -0.697345949999942, 9.285001909000187 ], [ -0.694019284999968, 9.278204738000056 ], [ -0.80590089999987, 9.318903920000082 ], [ -0.832810398999868, 9.297302327000068 ], [ -0.885114232999967, 9.310388442000033 ], [ -0.949116372999924, 9.297983355999975 ], [ -0.962558964999914, 9.334718122000083 ], [ -1.019622110999876, 9.313348289000032 ], [ -1.013567615999932, 9.329734182000038 ], [ -1.040729209999938, 9.344764754000039 ], [ -1.099488433999909, 9.309161653000046 ], [ -1.172101527999928, 9.321160449 ], [ -1.242512405999946, 9.284755767000036 ], [ -1.269068901999958, 9.330725906 ], [ -1.243067113999928, 9.419359574000055 ], [ -1.281290042999956, 9.509886848000178 ], [ -1.373507450999966, 9.608638681000116 ], [ -1.314609344999894, 9.65333565800006 ], [ -1.35001340499997, 9.729521718000171 ], [ -1.351538688999938, 9.794371006000176 ], [ -1.341367903999867, 9.808094827000104 ], [ -1.308711730999903, 9.801078115000053 ], [ -1.314206206999927, 9.816259211000101 ], [ -1.307600918999981, 9.823025229 ], [ -1.273563664999813, 9.801982029999976 ], [ -1.263179416999947, 9.824286484000027 ], [ -1.238307142999872, 9.828458747000184 ], [ -1.21305103799989, 9.798422824 ], [ -1.173789442999976, 9.790578469000138 ], [ -1.160055656999873, 9.8565178610001 ], [ -1.182189268999878, 9.897981736000077 ], [ -1.178463067999871, 9.94964899200005 ], [ -1.107645329999968, 9.927292050000119 ], [ -1.142058819999932, 9.980002931000058 ], [ -1.22703766099994, 10.007960363999985 ], [ -1.241407559999914, 10.03546398900005 ], [ -1.210230096999908, 10.088434354000128 ], [ -1.126179796999907, 10.115357453000115 ], [ -1.131252502999871, 10.14120747100003 ], [ -1.110706706999963, 10.187091942 ], [ -1.057931491999966, 10.157586127000059 ], [ -1.086245610999924, 10.152290402000176 ], [ -1.08889001499989, 10.122184656 ], [ -1.012045145999934, 10.092872671000066 ], [ -1.026178090999906, 10.06007956600007 ], [ -0.988263795999899, 10.002180355000064 ], [ -1.002176046999921, 9.965035778000072 ], [ -0.980948275999936, 9.944439647000081 ], [ -0.962291753999921, 9.990586544000109 ], [ -0.94033186199988, 9.989970045000121 ], [ -0.937777934999872, 10.011510537 ], [ -0.921540745999948, 10.000228082000092 ], [ -0.910113967999962, 10.023541219000151 ], [ -0.895415404999881, 10.019482319000019 ], [ -0.881810723999934, 10.059662589000141 ], [ -0.86468270599994, 10.055741675999968 ], [ -0.854373911999971, 10.128135636000025 ], [ -0.821248244999879, 10.118188248000138 ], [ -0.804040370999928, 10.155237233000037 ], [ -0.783378939999977, 10.141864364000128 ], [ -0.763985942999966, 10.165128079 ], [ -0.711609383999928, 10.162927995000075 ], [ -0.718242695999948, 10.17892064800003 ], [ -0.693971715999908, 10.188537286000042 ], [ -0.643510451999873, 10.190142699000091 ], [ -0.625621234999869, 10.165500886000075 ], [ -0.599111946999926, 10.160207811000078 ], [ -0.547597277999955, 10.210500450999973 ], [ -0.534302329999946, 10.267123561000062 ], [ -0.521935025999937, 10.23397921600008 ], [ -0.513991058999977, 10.248237074000144 ], [ -0.498998457999846, 10.23741858000011 ], [ -0.51072843299994, 10.252675217000103 ], [ -0.494286323999972, 10.325999065000133 ], [ -0.455347235999966, 10.301669404000165 ], [ -0.385897485999919, 10.29792669699998 ], [ -0.359483172999944, 10.26169920000001 ], [ -0.309856459999935, 10.290984818000027 ], [ -0.269433646999971, 10.276225435000129 ], [ -0.238299075999976, 10.287849818000154 ], [ -0.203002320999929, 10.26580817700011 ], [ -0.149328285999957, 10.295227632000035 ], [ -0.093556236999973, 10.269492449000097 ], [ -0.088220915999955, 10.295031002000144 ], [ -0.072582416999921, 10.295174844000144 ], [ -0.024795083999891, 10.271220632000052 ], [ -0.018998270999873, 10.32858604200004 ], [ 0.048967770000161, 10.342689518999975 ], [ 0.058065135000163, 10.293924607000179 ], [ 0.073725139000032, 10.29511319400018 ], [ 0.091011742999967, 10.243475403000048 ], [ 0.06090673500006, 10.180122409000035 ], [ 0.111323912000103, 10.131008498000028 ], [ 0.124429772000042, 10.038841501000093 ], [ 0.109489096000175, 10.005060756999967 ], [ 0.063710911000101, 9.999654325000108 ], [ 0.071661939000023, 9.966353982000044 ], [ 0.127090079000141, 9.971713574000148 ], [ 0.130062017000171, 9.95671538400012 ], [ 0.155442038000047, 9.986102694000181 ], [ 0.233546815000182, 9.956267737000132 ], [ 0.303742232000104, 9.977163231000077 ], [ 0.325037080000072, 9.944016688000147 ], [ 0.362622044000148, 9.940509521000138 ], [ 0.358141601000113, 9.848505671999987 ], [ 0.318656293000117, 9.727735768000173 ], [ 0.345848437000086, 9.714466415000174 ], [ 0.350575540000136, 9.67586396300004 ], [ 0.382027804000131, 9.64492135200004 ], [ 0.382665889000123, 9.590722882000023 ], [ 0.351816338000162, 9.57266245600016 ], [ 0.239917836000188, 9.574744649000024 ], [ 0.242990776000056, 9.524007291000089 ], [ 0.290047337000033, 9.523624262999988 ], [ 0.31056471800008, 9.505235927000172 ], [ 0.267038536000086, 9.478940637 ], [ 0.229362771000183, 9.487482882000052 ], [ 0.228442981000114, 9.463769328000183 ], [ 0.275893819000089, 9.427394699000104 ], [ 0.337609061000137, 9.451877393000075 ], [ 0.359626909000042, 9.499181572000111 ], [ 0.44640978000001, 9.50143753500015 ], [ 0.503064560000041, 9.475263233000021 ], [ 0.500640512000189, 9.437428632000149 ], [ 0.553314913000122, 9.423756069000149 ], [ 0.566590189000181, 9.405599734000077 ], [ 0.55977660700006, 9.305739526000139 ], [ 0.539681996000184, 9.306313530000182 ], [ 0.507950693000112, 9.254590685000153 ], [ 0.539054158000113, 9.213539895000167 ], [ 0.503047436000031, 9.153892596000048 ], [ 0.476917269000126, 9.144311170000094 ], [ 0.485903930000177, 9.098660676 ], [ 0.456289143000049, 9.055138718000023 ], [ 0.527566530000172, 8.877791057000081 ], [ 0.496215327000073, 8.84014549900013 ], [ 0.490923408000185, 8.800325298000075 ], [ 0.46867985800003, 8.792115832000093 ], [ 0.447813258000167, 8.810834324000041 ], [ 0.425635256000135, 8.779932519000056 ], [ 0.380132829000104, 8.792563878000067 ], [ 0.378873125000155, 8.771776064999983 ], [ 0.401144122000176, 8.756699984000079 ], [ 0.374383864000094, 8.754753341000026 ], [ 0.384732604000135, 8.744971153000108 ], [ 0.375020232000168, 8.735667128000102 ], [ 0.346339971000077, 8.740934461000052 ], [ 0.358161598000038, 8.718550861000097 ], [ 0.314610582000171, 8.73446621700009 ], [ 0.300718178000182, 8.72617757800009 ], [ 0.297911745000022, 8.742456535000088 ], [ 0.281348031, 8.724131052000189 ], [ 0.231615625000074, 8.753434267000102 ], [ 0.185963548000132, 8.740615875000174 ], [ 0.16715694700008, 8.773479030000146 ], [ 0.181288710000047, 8.71278660400003 ], [ 0.135882588000129, 8.653526607000174 ], [ 0.172298800000135, 8.600432264000176 ], [ 0.109879476000117, 8.593826263000039 ], [ 0.082637358000113, 8.527445604000093 ] ], [ [ 0.370322194000096, 9.618227366999974 ], [ 0.369984203000115, 9.618713112000137 ], [ 0.369619122000188, 9.619092019000107 ], [ 0.370322194000096, 9.618227366999974 ] ], [ [ 0.37128451500007, 9.613397707000047 ], [ 0.371503620000169, 9.612666588000081 ], [ 0.370953121000184, 9.615367138000011 ], [ 0.37128451500007, 9.613397707000047 ] ] ] } },
{ "type": "Feature", "properties": { "GADM_ID": "GH.10_2", "country": "GH", "pop": 738785.45852899551, "gdp": 3145089792.0 }, "geometry": { "type": "Polygon", "coordinates": [ [ [ 0.529049046000068, 7.584218628000144 ], [ 0.520446859, 7.455345013000112 ], [ 0.532134956000164, 7.457175867999979 ], [ 0.553090390000079, 7.405181621000054 ], [ 0.573126201000093, 7.394740993000028 ], [ 0.619591833000129, 7.41333012500013 ], [ 0.644656864000183, 7.39792818900014 ], [ 0.65890108200017, 7.316648866000094 ], [ 0.644188593000081, 7.262980447000132 ], [ 0.574102470000128, 7.287774067000043 ], [ 0.542710992000025, 7.225095437000107 ], [ 0.519333544000176, 7.220469409000145 ], [ 0.54168955300014, 7.271441906000121 ], [ 0.53480887700016, 7.304743019000057 ], [ 0.491426652000087, 7.290138976000094 ], [ 0.448563494000041, 7.29772992200003 ], [ 0.448356918, 7.277095100000111 ], [ 0.427106290000154, 7.280881285000135 ], [ 0.391599930000098, 7.226583438000034 ], [ 0.371206426000072, 7.154228538000041 ], [ 0.357472870000095, 7.13164503600018 ], [ 0.338574708000181, 7.130583964000152 ], [ 0.328501367000058, 7.089203378000036 ], [ 0.224488408000184, 7.099351716000058 ], [ 0.242642695000086, 7.127042875000143 ], [ 0.235242462000031, 7.167057875000069 ], [ 0.182346277000079, 7.179693202000067 ], [ 0.214990344000171, 7.31000343200003 ], [ 0.208366830000159, 7.350877621000052 ], [ 0.090965975000131, 7.429273997000053 ], [ 0.077105324000172, 7.482061193000163 ], [ 0.009443608000026, 7.578420262000179 ], [ -0.016831774999957, 7.648302500000057 ], [ 0.004125835000082, 7.742383890000042 ], [ -0.014507233999893, 7.756908878000104 ], [ -0.100081640999974, 7.750374650000026 ], [ -0.126449504999925, 7.788186060000044 ], [ -0.145403208999937, 7.903046062999977 ], [ -0.134933423999883, 7.948539016000097 ], [ -0.173825652999881, 7.957410774000152 ], [ -0.141533140999968, 8.017858777000072 ], [ -0.152920752999933, 8.031329795000147 ], [ -0.214671561999978, 8.030935046000081 ], [ -0.294878381999922, 8.117327284000169 ], [ -0.384692847999929, 8.152774373000057 ], [ -0.354148664999911, 8.166154457000061 ], [ -0.348632886999951, 8.20165556600017 ], [ -0.384926971999846, 8.194994422000036 ], [ -0.387509131999877, 8.224057026000025 ], [ -0.319294394999872, 8.226766399000098 ], [ -0.280687683999872, 8.245542123 ], [ -0.259444197999869, 8.216274775000159 ], [ -0.173094848999824, 8.228909465000186 ], [ -0.16939143799982, 8.253493892999984 ], [ -0.124203406999925, 8.272989955000185 ], [ -0.110265326999979, 8.335913498000082 ], [ -0.087403098999971, 8.332429880000177 ], [ -0.058507624999947, 8.352446611000175 ], [ 0.010578624000118, 8.297635393000121 ], [ 0.078883861000179, 8.281724961000123 ], [ 0.104374146000055, 8.239033528 ], [ 0.085754966000138, 8.233020218000036 ], [ 0.079501621000134, 8.222486899000046 ], [ 0.11521374300014, 8.229144822000023 ], [ 0.129896028000019, 8.214579603000061 ], [ 0.123223585000119, 8.232437935000064 ], [ 0.193864642000165, 8.253283348000082 ], [ 0.185765563000189, 8.326380640000025 ], [ 0.235333661000027, 8.343829341 ], [ 0.244329847000074, 8.386455415000114 ], [ 0.207477968000148, 8.41010354500014 ], [ 0.149061160000031, 8.386008931000163 ], [ 0.104719828999976, 8.390078147000054 ], [ 0.086488141000132, 8.40323964800001 ], [ 0.081583585000089, 8.460783176 ], [ 0.120801445000097, 8.485385799000028 ], [ 0.082673878000151, 8.526648984000076 ], [ 0.109879476000117, 8.593826263000039 ], [ 0.172298800000135, 8.600432264000176 ], [ 0.135882588000129, 8.653526607000174 ], [ 0.180711496000072, 8.710680055000068 ], [ 0.165368660000183, 8.756138227 ], [ 0.169310937000091, 8.774809030000029 ], [ 0.185590027000046, 8.740757600000109 ], [ 0.231615625000074, 8.753434267000102 ], [ 0.281846272000109, 8.724030158 ], [ 0.297911745000022, 8.742456535000088 ], [ 0.300718178000182, 8.72617757800009 ], [ 0.314610582000171, 8.73446621700009 ], [ 0.358161598000038, 8.718550861000097 ], [ 0.346339971000077, 8.740934461000052 ], [ 0.383506084999965, 8.740621489000091 ], [ 0.471701535000022, 8.599694358000022 ], [ 0.560118065999973, 8.549918282000021 ], [ 0.571730039000045, 8.525958291000052 ], [ 0.645315474000142, 8.493819129000087 ], [ 0.651821013000074, 8.421964029000037 ], [ 0.696125630000097, 8.404325032000145 ], [ 0.710053341000048, 8.35194330600018 ], [ 0.729426314000079, 8.341056617000106 ], [ 0.726389619000088, 8.281511545000058 ], [ 0.638934097000174, 8.260584408000057 ], [ 0.619065357000068, 8.215134946000092 ], [ 0.590034842000136, 8.207748833000096 ], [ 0.613854543000059, 8.180098128000111 ], [ 0.585036679000041, 8.093309129000033 ], [ 0.59863915000011, 8.027002015 ], [ 0.622121116000017, 8.014486809000118 ], [ 0.614897291000148, 7.981066241000121 ], [ 0.63229563200008, 7.914600702000087 ], [ 0.628059618000066, 7.901796818000093 ], [ 0.619757665000122, 7.900466419000054 ], [ 0.617092291000063, 7.796210222000127 ], [ 0.62945661599997, 7.794462747000068 ], [ 0.630988436000109, 7.76863980000013 ], [ 0.611439232000123, 7.752830000000131 ], [ 0.630080873000054, 7.706226057000151 ], [ 0.590702119000184, 7.702997017000143 ], [ 0.585954097000126, 7.623928803000126 ], [ 0.518371633000072, 7.592262397000184 ], [ 0.529049046000068, 7.584218628000144 ] ], [ [ 0.622650540000166, 7.901686958000084 ], [ 0.622163462000174, 7.901481457000045 ], [ 0.624043824000125, 7.901198417000046 ], [ 0.622650540000166, 7.901686958000084 ] ] ] } },
{ "type": "Feature", "properties": { "GADM_ID": "GH.11_2", "country": "GH", "pop": 629109.29749727249, "gdp": 3313434624.0 }, "geometry": { "type": "Polygon", "coordinates": [ [ [ -1.266461541999888, 8.257293677000177 ], [ -1.27774205399993, 8.323396353000135 ], [ -1.252725021999936, 8.379240312000093 ], [ -1.25854096899991, 8.45484929600002 ], [ -1.194555929999922, 8.494046457000024 ], [ -1.195932578999873, 8.511505687000067 ], [ -1.16437579199993, 8.512454485999967 ], [ -1.172065963999955, 8.535319605000154 ], [ -1.141478992999907, 8.576501916999973 ], [ -1.14446946899983, 8.677352349000103 ], [ -1.229646624999816, 8.674654142000065 ], [ -1.355961166999919, 8.759058202000119 ], [ -1.41170769799993, 8.774225729000023 ], [ -1.484785577999958, 8.759540773000026 ], [ -1.510786608999979, 8.691741802000138 ], [ -1.531503763999922, 8.680988110000101 ], [ -1.61189415299998, 8.67701420100002 ], [ -1.658362047999901, 8.695399221000116 ], [ -1.679346443999862, 8.683903919000045 ], [ -1.693239264999875, 8.643812396000158 ], [ -1.73339145999995, 8.626364558000148 ], [ -1.816407245999869, 8.661948812999981 ], [ -1.868194126999924, 8.641311562000169 ], [ -1.896832067999924, 8.55278080000005 ], [ -1.883113765999951, 8.480163735000133 ], [ -1.909835265999959, 8.438473091000162 ], [ -1.908075614999973, 8.397648485000047 ], [ -1.870922, 8.333987219000107 ], [ -1.802934196999956, 8.33941448600001 ], [ -1.76990266599995, 8.322712901000045 ], [ -1.746643138999957, 8.270468384000026 ], [ -1.772821326999917, 8.23154806000008 ], [ -1.799684978999949, 8.226190851000126 ], [ -1.895116786999949, 8.261649439000109 ], [ -1.961694105999925, 8.168901225000127 ], [ -2.064667705999966, 8.146086873000058 ], [ -2.106805121999969, 8.157351533000053 ], [ -2.128407916999947, 8.147791596000161 ], [ -2.161573007999891, 8.17307063800007 ], [ -2.167917157999909, 8.211417091000044 ], [ -2.205076782999924, 8.231785038000169 ], [ -2.213427951999961, 8.257220154000038 ], [ -2.288738508999927, 8.297318323000127 ], [ -2.298807002999979, 8.38338658300006 ], [ -2.337088558999881, 8.454250325000146 ], [ -2.366277277999927, 8.476369926000018 ], [ -2.357954131999975, 8.521561839000071 ], [ -2.414359962999868, 8.573144442000114 ], [ -2.417924803999881, 8.612789663000058 ], [ -2.464315216999978, 8.651796475000026 ], [ -2.499380745999815, 8.718380815000046 ], [ -2.535611855999889, 8.739280714000131 ], [ -2.543035183999905, 8.761518568000156 ], [ -2.628870947999872, 8.794158252000159 ], [ -2.596327714999916, 8.830742101000112 ], [ -2.622904576999929, 8.877881884000033 ], [ -2.618152867999811, 8.922083929999985 ], [ -2.651268590999962, 8.944014767999988 ], [ -2.654100900999936, 9.007438922000063 ], [ -2.760521464999954, 9.025605441000096 ], [ -2.782527042999959, 9.054018813000027 ], [ -2.765552613999944, 9.087894284000072 ], [ -2.779056480999941, 9.137312710000117 ], [ -2.736868019999974, 9.15950971500007 ], [ -2.724247954999953, 9.200202449000074 ], [ -2.656582308999873, 9.255572699000027 ], [ -2.721251601999882, 9.312891539000077 ], [ -2.719540118999873, 9.334728762999987 ], [ -2.681103117999953, 9.361343863000172 ], [ -2.673628587999872, 9.387421309000104 ], [ -2.684677412999861, 9.487396029000081 ], [ -2.771064646999946, 9.575122669000052 ], [ -2.745235499999978, 9.641531347000125 ], [ -2.680467372999942, 9.631593096000188 ], [ -2.538410761999842, 9.677945565000186 ], [ -2.514911824999842, 9.693849811000177 ], [ -2.508888096999954, 9.745831967000072 ], [ -2.421080642999868, 9.772425296000165 ], [ -2.096875973999886, 9.813722672000097 ], [ -2.086429890999966, 9.785465545000079 ], [ -2.04223004399995, 9.779726548000099 ], [ -1.986845486999869, 9.825115949000178 ], [ -1.710720268999864, 9.821864898 ], [ -1.69632628599993, 9.887241743000061 ], [ -1.716121423999937, 9.940013994000083 ], [ -1.717675233999955, 10.00433949700016 ], [ -1.686014884999963, 10.03866272700003 ], [ -1.673624251999968, 10.025289767000061 ], [ -1.66724453199987, 10.045085790000087 ], [ -1.634878684999933, 10.042609433999985 ], [ -1.629064186999869, 10.05288459500008 ], [ -1.655002405999937, 10.074564058000021 ], [ -1.613096961999929, 10.069060368000123 ], [ -1.557366685999853, 10.097793400000171 ], [ -1.54632669699987, 10.070525881000094 ], [ -1.46740150699992, 10.103644117000101 ], [ -1.369632108999951, 10.094592446000036 ], [ -1.310149908999961, 10.066037930000107 ], [ -1.287671993999879, 10.035479475999978 ], [ -1.256201836999935, 10.035509893000096 ], [ -1.22703766099994, 10.007960363999985 ], [ -1.142058819999932, 9.980002931000058 ], [ -1.107645329999968, 9.927292050000119 ], [ -1.178463067999871, 9.94964899200005 ], [ -1.182189268999878, 9.897981736000077 ], [ -1.160055656999873, 9.8565178610001 ], [ -1.174311989999978, 9.789784362999967 ], [ -1.214788573999954, 9.799455370000032 ], [ -1.238307142999872, 9.828458747000184 ], [ -1.263179416999947, 9.824286484000027 ], [ -1.273563664999813, 9.801982029999976 ], [ -1.307600918999981, 9.823025229 ], [ -1.308711730999903, 9.801078115000053 ], [ -1.341367903999867, 9.808094827000104 ], [ -1.351538688999938, 9.794371006000176 ], [ -1.35001340499997, 9.729521718000171 ], [ -1.314609344999894, 9.65333565800006 ], [ -1.373507450999966, 9.608638681000116 ], [ -1.281290042999956, 9.509886848000178 ], [ -1.243067113999928, 9.419359574000055 ], [ -1.269068901999958, 9.330725906 ], [ -1.242512405999946, 9.284755767000036 ], [ -1.172101527999928, 9.321160449 ], [ -1.099488433999909, 9.309161653000046 ], [ -1.040729209999938, 9.344764754000039 ], [ -1.013567615999932, 9.329734182000038 ], [ -1.019622110999876, 9.313348289000032 ], [ -0.962558964999914, 9.334718122000083 ], [ -0.949116372999924, 9.297983355999975 ], [ -0.885114232999967, 9.310388442000033 ], [ -0.832810398999868, 9.297302327000068 ], [ -0.80590089999987, 9.318903920000082 ], [ -0.694019284999968, 9.278204738000056 ], [ -0.714332935999948, 9.295887119000042 ], [ -0.714510897999901, 9.326241709000158 ], [ -0.689046069999961, 9.310138439000013 ], [ -0.684090382999898, 9.325474049000036 ], [ -0.627028325999959, 9.30700683900011 ], [ -0.594418466999912, 9.328719998000111 ], [ -0.566291621999881, 9.28823062400005 ], [ -0.543662611999935, 9.275092986000175 ], [ -0.519507566999891, 9.282200418000116 ], [ -0.489631082999892, 9.249490789000049 ], [ -0.426317728999891, 9.22270506600006 ], [ -0.390824227999929, 9.235400003000166 ], [ -0.32399143799995, 9.209288875000141 ], [ -0.282044215999917, 9.137781291000067 ], [ -0.203082230999939, 9.109502854000027 ], [ -0.218406709999954, 9.032800648000091 ], [ -0.195471181999949, 8.975167730000123 ], [ -0.200335317999929, 8.94776449800014 ], [ -0.2364844949999, 8.940068120000149 ], [ -0.243867314999875, 8.908573048000164 ], [ -0.302020351999943, 8.885676504000173 ], [ -0.299661753999942, 8.860812996000163 ], [ -0.338776906999897, 8.867344769000113 ], [ -0.34403460499982, 8.862539311000091 ], [ -0.321094284999958, 8.819269659000156 ], [ -0.295344799999896, 8.810724548000053 ], [ -0.314541784999847, 8.750729622000051 ], [ -0.353739517999884, 8.75439523700004 ], [ -0.387402509999959, 8.708777556000143 ], [ -0.412391865999894, 8.708128328000043 ], [ -0.413157646999935, 8.734000907000166 ], [ -0.430948795999882, 8.716472080000131 ], [ -0.47563915399985, 8.733722501000045 ], [ -0.490644474999897, 8.711437927000077 ], [ -0.485110936999888, 8.682489128000157 ], [ -0.417778957999928, 8.645964787000139 ], [ -0.411059934999912, 8.598993270000108 ], [ -0.3733849219999, 8.598037467000154 ], [ -0.371481143999972, 8.586959643000171 ], [ -0.35763153399995, 8.598953854000058 ], [ -0.363661113999967, 8.581465977 ], [ -0.343646658999944, 8.568544003000056 ], [ -0.335454581999898, 8.53061358500014 ], [ -0.312161884999909, 8.527483079000092 ], [ -0.277678977999869, 8.557533896000052 ], [ -0.269644647999939, 8.542058317999988 ], [ -0.234683734999976, 8.572128807000183 ], [ -0.197049017999916, 8.552747103000058 ], [ -0.208230117999904, 8.494637042000136 ], [ -0.195075767999811, 8.483299835000082 ], [ -0.21009100699996, 8.48678425300011 ], [ -0.212859106999929, 8.468020520000039 ], [ -0.242846475999954, 8.472673090000058 ], [ -0.21879033599987, 8.455519949 ], [ -0.253006066999944, 8.351728681999987 ], [ -0.306607766999832, 8.358115843000121 ], [ -0.3265428549999, 8.339354028000173 ], [ -0.308005014999878, 8.320597909000014 ], [ -0.278330886999925, 8.319737756 ], [ -0.187144986999954, 8.35801850100006 ], [ -0.142194041999971, 8.279595464000067 ], [ -0.169610638999927, 8.253202095 ], [ -0.168635215999871, 8.231375437999986 ], [ -0.224294548999922, 8.212846581000179 ], [ -0.259444197999869, 8.216274775000159 ], [ -0.280687683999872, 8.245542123 ], [ -0.319294394999872, 8.226766399000098 ], [ -0.378235348999965, 8.228424187000144 ], [ -0.389677056999915, 8.198691567000139 ], [ -0.348632886999951, 8.20165556600017 ], [ -0.354148664999911, 8.166154457000061 ], [ -0.418952513999955, 8.152824900000041 ], [ -0.542457166999952, 8.187638446000165 ], [ -0.740757715999962, 8.335546931000067 ], [ -0.85783623299983, 8.32854555900019 ], [ -0.86196825199994, 8.272380563000013 ], [ -0.878299162999895, 8.263775135000174 ], [ -0.959082154999919, 8.251061863000018 ], [ -0.9789676339999, 8.227244715999973 ], [ -1.019181176999894, 8.261138976000098 ], [ -1.039698667999858, 8.24305948600005 ], [ -1.040490571999896, 8.165978329999973 ], [ -1.068731373999867, 8.129198142 ], [ -1.016459311999938, 8.01756734300011 ], [ -1.05214534199996, 8.02921359100003 ], [ -1.118234097999903, 7.992914454000186 ], [ -1.157946003999939, 7.999269067000057 ], [ -1.156541870999945, 8.088609745000042 ], [ -1.266461541999888, 8.257293677000177 ] ] ] } },
{ "type": "Feature", "properties": { "GADM_ID": "GH.12_2", "country": "GH", "pop": 1117437.1006894112, "gdp": 5851748352.0 }, "geometry": { "type": "Polygon", "coordinates": [ [ [ -1.020459793999976, 10.533526111000185 ], [ -1.133318535999933, 10.458164441000122 ], [ -1.165594561999967, 10.412560546000066 ], [ -1.232030206999923, 10.386989202000109 ], [ -1.211081019999881, 10.324060106 ], [ -1.248248131999958, 10.274615846000131 ], [ -1.26896372799996, 10.325488582000105 ], [ -1.32636043499997, 10.332058974000176 ], [ -1.348180594999917, 10.347253462000026 ], [ -1.350397261999888, 10.373104707000152 ], [ -1.381737600999884, 10.390915672000119 ], [ -1.362375388999965, 10.435032445 ], [ -1.377443964999827, 10.466675810000083 ], [ -1.402344248999952, 10.484650172000158 ], [ -1.418111197999963, 10.466011265000077 ], [ -1.446584145999907, 10.469114231000162 ], [ -1.467094397999915, 10.487874228000123 ], [ -1.448454749999883, 10.516928323 ], [ -1.457101536999971, 10.533293735000143 ], [ -1.518260614999917, 10.562083908999966 ], [ -1.526592247999872, 10.588319746000138 ], [ -1.565979335999941, 10.598639358000071 ], [ -1.568233181999915, 10.723407657000052 ], [ -1.556835659999876, 10.746888277999972 ], [ -1.528972497999916, 10.752123885 ], [ -1.523099009999953, 10.77732763 ], [ -1.496078415999875, 10.786558224000089 ], [ -1.491762291999976, 10.833953949999966 ], [ -1.45842946099998, 10.84903999900007 ], [ -1.447892076999949, 10.964063111000087 ], [ -1.422821365999937, 11.020262167000055 ], [ -1.377201266999975, 10.986100363000048 ], [ -0.916548907999925, 11.002245723000101 ], [ -0.916647420999936, 10.980306955000117 ], [ -0.888974489999953, 10.980768415000114 ], [ -0.892594271999883, 10.962828285000057 ], [ -0.827262101999906, 11.006529179000154 ], [ -0.684064325999884, 10.99864168300013 ], [ -0.68091219899992, 10.982944880000161 ], [ -0.653670591999969, 10.987564722000172 ], [ -0.671172917999968, 10.958873327000049 ], [ -0.653606261999869, 10.963762585000097 ], [ -0.626402664999944, 10.939197743000136 ], [ -0.618301398999961, 10.910127268999986 ], [ -0.593199691999871, 10.923691194000071 ], [ -0.568808207999837, 10.991356791000101 ], [ -0.544679880999979, 10.975002146000065 ], [ -0.529620228999875, 11.000555751999968 ], [ -0.511253217999865, 10.988919023000051 ], [ -0.475679236999952, 11.035259921000034 ], [ -0.437910066999905, 11.030405859000041 ], [ -0.428111713999897, 11.114245655000104 ], [ -0.372557142999881, 11.123053331000051 ], [ -0.359913028999813, 11.06898045600002 ], [ -0.336720865999951, 11.106722380000178 ], [ -0.273408527999948, 11.123537960000078 ], [ -0.289703038999903, 11.147704980000185 ], [ -0.276022037999951, 11.174841667000067 ], [ -0.136490790999972, 11.139848026999971 ], [ -0.143649813999957, 11.106588707000014 ], [ -0.094865042999913, 11.085854407000056 ], [ -0.054440005999936, 11.086120874000187 ], [ -0.017966699999874, 11.114305357999967 ], [ 0.024303262999979, 11.062936425000089 ], [ 0.033877909000125, 10.992621832000054 ], [ 0.024818072000073, 10.972520788000111 ], [ -0.00611194399994, 10.96259048100012 ], [ -0.029851451999946, 10.855878350000182 ], [ -0.022246424999935, 10.819659069000181 ], [ -0.073094801999957, 10.769799307000028 ], [ -0.073597631999974, 10.719133665000129 ], [ -0.122854715999949, 10.685597299000165 ], [ -0.230016874999933, 10.655549438999969 ], [ -0.259978743999966, 10.632078576000026 ], [ -0.365550399999961, 10.625153682000075 ], [ -0.416499905999956, 10.603267990000063 ], [ -0.451866536999944, 10.601441002000058 ], [ -0.498775707999869, 10.623582058000068 ], [ -0.515950630999953, 10.560501002000024 ], [ -0.553954068999928, 10.571747044000062 ], [ -0.593588414999886, 10.546121028000016 ], [ -0.640729111999974, 10.555590542000175 ], [ -0.669794335999939, 10.525802075000058 ], [ -0.691870460999951, 10.54247746100009 ], [ -0.706286543999965, 10.523178214000097 ], [ -0.715443022999921, 10.536860267 ], [ -0.685739303999924, 10.567630284000131 ], [ -0.718193557999882, 10.605622468000035 ], [ -0.712214605999975, 10.641585758000076 ], [ -0.78961645499993, 10.652574524000158 ], [ -0.795920542999909, 10.621734806000177 ], [ -0.837846218999971, 10.601244489000067 ], [ -0.843277403999934, 10.574632874000088 ], [ -0.874594237999929, 10.595263663000139 ], [ -0.909219029999974, 10.575869417000035 ], [ -0.890616738999938, 10.518524555000113 ], [ -0.922741511999902, 10.482425154000055 ], [ -0.934839025999963, 10.486419640000179 ], [ -0.91091056599987, 10.526016651000077 ], [ -0.965842557999906, 10.536898194000059 ], [ -1.020459793999976, 10.533526111000185 ] ] ] } },
{ "type": "Feature", "properties": { "GADM_ID": "GH.13_2", "country": "GH", "pop": 804086.16454792023, "gdp": 3529396736.0 }, "geometry": { "type": "Polygon", "coordinates": [ [ [ -2.421080642999868, 9.772425296000165 ], [ -2.509544452999933, 9.744291413000155 ], [ -2.52150013399995, 9.686727159000043 ], [ -2.680467372999942, 9.631593096000188 ], [ -2.746354861999976, 9.641642273000059 ], [ -2.75850767999998, 9.680706652000083 ], [ -2.786528432999944, 9.693577300000072 ], [ -2.790531855999973, 9.746366771000112 ], [ -2.726796296999908, 9.827285232000179 ], [ -2.762319640999976, 9.88398773 ], [ -2.743302058999973, 9.960117120000064 ], [ -2.790755932999957, 10.069654846000105 ], [ -2.797768134999956, 10.190886226999964 ], [ -2.756200619999959, 10.247310813000126 ], [ -2.850169825999956, 10.318603233000147 ], [ -2.831409828999938, 10.388050148000161 ], [ -2.773193837999884, 10.422407475000114 ], [ -2.864681365999957, 10.457579993000081 ], [ -2.941105227999969, 10.616799512000057 ], [ -2.905462864999947, 10.688224203000061 ], [ -2.939988953999887, 10.709270133000075 ], [ -2.937845443999834, 10.722217070000056 ], [ -2.895002330999944, 10.764215823000086 ], [ -2.864375722999966, 10.886447406000116 ], [ -2.838037877999909, 10.89269731800016 ], [ -2.817519018999917, 10.923773729000061 ], [ -2.840635692999911, 10.967545358 ], [ -2.833997490999934, 11.004090181000095 ], [ -2.768309261999946, 11.004800022000154 ], [ -2.754986502999941, 11.019191325000122 ], [ -2.452309498999966, 11.02332156500006 ], [ -2.360161861999927, 11.008145919000128 ], [ -2.220160518999876, 11.020664172000011 ], [ -2.006304291999868, 11.004013560000089 ], [ -1.743387474999963, 11.008107828000107 ], [ -1.744524602999888, 11.037957536000022 ], [ -1.545810859999904, 11.040231776999974 ], [ -1.544101909999938, 11.010150847000091 ], [ -1.42853380899993, 11.011067574000037 ], [ -1.447892076999949, 10.964063111000087 ], [ -1.45842946099998, 10.84903999900007 ], [ -1.494637472999955, 10.82932734200017 ], [ -1.499746630999823, 10.781874758000015 ], [ -1.523538791999897, 10.77691903300007 ], [ -1.533174843999973, 10.748266488000127 ], [ -1.557291734999865, 10.746330726000053 ], [ -1.57346317799994, 10.66789547500008 ], [ -1.565979335999941, 10.598639358000071 ], [ -1.526592247999872, 10.588319746000138 ], [ -1.518260614999917, 10.562083908999966 ], [ -1.457101536999971, 10.533293735000143 ], [ -1.448454749999883, 10.516928323 ], [ -1.466850025999918, 10.486784275000048 ], [ -1.434011890999841, 10.46772250600003 ], [ -1.570250551999948, 10.355423424000151 ], [ -1.663310593999881, 10.186657296000135 ], [ -1.659840834999954, 10.165698204000023 ], [ -1.600710834999973, 10.133004938 ], [ -1.585784615999955, 10.082050291000087 ], [ -1.655002405999937, 10.074564058000021 ], [ -1.629064186999869, 10.05288459500008 ], [ -1.634878684999933, 10.042609433999985 ], [ -1.66724453199987, 10.045085790000087 ], [ -1.673624251999968, 10.025289767000061 ], [ -1.686014884999963, 10.03866272700003 ], [ -1.714751219999869, 10.012239427000111 ], [ -1.716121423999937, 9.940013994000083 ], [ -1.69632628599993, 9.887241743000061 ], [ -1.707460812999898, 9.823916154000131 ], [ -1.986845486999869, 9.825115949000178 ], [ -2.04223004399995, 9.779726548000099 ], [ -2.086429890999966, 9.785465545000079 ], [ -2.096875973999886, 9.813722672000097 ], [ -2.421080642999868, 9.772425296000165 ] ] ] } },
{ "type": "Feature", "properties": { "GADM_ID": "GH.14_2", "country": "GH", "pop": 1900373.1655421257, "gdp": 9071911936.0 }, "geometry": { "type": "Polygon", "coordinates": [ [ [ 0.684874311000044, 5.774502026000107 ], [ 0.678143736000152, 5.794808169000078 ], [ 0.651866190000021, 5.805216844000029 ], [ 0.646164138000188, 5.838101892000111 ], [ 0.620294148000028, 5.83425544500011 ], [ 0.631516780000084, 5.866785767000124 ], [ 0.614990283000054, 5.864582164000126 ], [ 0.619073450000087, 5.875759054000127 ], [ 0.574568851000095, 5.899854147999974 ], [ 0.581660657000157, 5.927737309000179 ], [ 0.561025248000078, 5.940098166000041 ], [ 0.551000626000018, 5.920294800000022 ], [ 0.541716086000122, 5.94970437000012 ], [ 0.524037082000177, 5.954887621000069 ], [ 0.52536951400009, 5.978826421000122 ], [ 0.490843764000147, 5.995516288000033 ], [ 0.484747317000142, 5.975482984000166 ], [ 0.483711338000148, 5.992484759000092 ], [ 0.45006851800008, 6.001578729000073 ], [ 0.434314744000062, 5.973977001000151 ], [ 0.343881657000054, 5.953911796000057 ], [ 0.353340475000039, 5.986601417000031 ], [ 0.329717139000138, 5.996636506000186 ], [ 0.348659860999987, 6.022161778000054 ], [ 0.33176655300008, 6.033911471000124 ], [ 0.337849215000119, 6.047186766000095 ], [ 0.295470384999987, 6.057291708000037 ], [ 0.247750601000121, 6.105682061999971 ], [ 0.189356344000032, 6.096825920000128 ], [ 0.142587527000046, 6.109537390000128 ], [ 0.091090277000092, 6.160403570000085 ], [ 0.127748389000089, 6.255217495000181 ], [ 0.175723832000017, 6.302746723000098 ], [ 0.169330635000165, 6.327534717999981 ], [ 0.21650471900017, 6.384427563000088 ], [ 0.177992639000081, 6.42420555200016 ], [ 0.189189139000121, 6.475373439000123 ], [ 0.177788898000188, 6.511453299000038 ], [ 0.194553122000116, 6.563945363000073 ], [ 0.15180723200001, 6.577829602000179 ], [ 0.104435717000115, 6.56692117800003 ], [ 0.123178306000057, 6.665983631000074 ], [ 0.1990293180001, 6.696956436000164 ], [ 0.208204202000047, 6.757556591000025 ], [ 0.192508936000081, 6.789323177000085 ], [ 0.133159260000014, 6.829078063000168 ], [ 0.122925775000169, 6.889431483000124 ], [ 0.147824440000022, 6.921485251000149 ], [ 0.206182425000179, 6.942492672000071 ], [ 0.22743148800015, 6.973973242999989 ], [ 0.202880255000139, 7.080564023000136 ], [ 0.224488408000184, 7.099351716000058 ], [ 0.328501367000058, 7.089203378000036 ], [ 0.338574708000181, 7.130583964000152 ], [ 0.357472870000095, 7.13164503600018 ], [ 0.371206426000072, 7.154228538000041 ], [ 0.391599930000098, 7.226583438000034 ], [ 0.427106290000154, 7.280881285000135 ], [ 0.448356918, 7.277095100000111 ], [ 0.448563494000041, 7.29772992200003 ], [ 0.491426652000087, 7.290138976000094 ], [ 0.53480887700016, 7.304743019000057 ], [ 0.54168955300014, 7.271441906000121 ], [ 0.519333544000176, 7.220469409000145 ], [ 0.542710992000025, 7.225095437000107 ], [ 0.574102470000128, 7.287774067000043 ], [ 0.644188593000081, 7.262980447000132 ], [ 0.592072513000062, 7.113689940000143 ], [ 0.614683605000096, 7.095158296000022 ], [ 0.597080392000123, 7.060010331000171 ], [ 0.595212849, 7.002429386000188 ], [ 0.522532994000073, 6.972543660000099 ], [ 0.525940860000105, 6.94159532700013 ], [ 0.566139908000139, 6.920801384000129 ], [ 0.557170931000144, 6.886939113000153 ], [ 0.534454643000117, 6.877444891000096 ], [ 0.531869825000172, 6.827428289000068 ], [ 0.547300831000086, 6.834393472000045 ], [ 0.579802450000102, 6.80734189400016 ], [ 0.566394345000163, 6.782872583000142 ], [ 0.581682152000042, 6.761520739000105 ], [ 0.650409163000177, 6.737632162000182 ], [ 0.636392412000077, 6.629946862000111 ], [ 0.69786095000012, 6.588444527000149 ], [ 0.742444774000091, 6.589040968 ], [ 0.748856496000144, 6.563095863000115 ], [ 0.717383097999971, 6.52746794900014 ], [ 0.732156203000102, 6.484813218000056 ], [ 0.746516482000175, 6.483945342000027 ], [ 0.749223939000103, 6.448189283000147 ], [ 0.861894103000168, 6.379161042000135 ], [ 0.892637126000182, 6.33550567400016 ], [ 1.004351581000094, 6.334736343000145 ], [ 1.017805855000063, 6.269683710000152 ], [ 1.066312112000105, 6.219023822000167 ], [ 1.079135199000177, 6.171172810000144 ], [ 1.200214586000072, 6.167625749000024 ], [ 1.199481424000169, 6.112701425000182 ], [ 1.081840705, 6.04651567000019 ], [ 1.028878725000027, 5.979410589000167 ], [ 0.992877535000048, 5.918633067000087 ], [ 0.984802971000022, 5.848487639000098 ], [ 0.940480753999964, 5.795532936000086 ], [ 0.816520446000141, 5.769636812999977 ], [ 0.684874311000044, 5.774502026000107 ] ] ] } },
{ "type": "Feature", "properties": { "GADM_ID": "GH.15_2", "country": "GH", "pop": 2103346.4982743263, "gdp": 8009910272.0 }, "geometry": { "type": "Polygon", "coordinates": [ [ [ -1.674676304999878, 4.965232374000095 ], [ -1.741958287999978, 4.916294255000025 ], [ -1.748358526999937, 4.894988276000106 ], [ -1.735031439999943, 4.881530870000063 ], [ -1.807297294999898, 4.873522049000087 ], [ -1.912545911999928, 4.825782675000028 ], [ -1.980162825999912, 4.75576554200012 ], [ -2.092127525999956, 4.738774429000159 ], [ -2.11171580499996, 4.754568894000045 ], [ -2.110396958999956, 4.782343232000187 ], [ -2.169509816999891, 4.79148204300003 ], [ -2.174526712999921, 4.8128411080001 ], [ -2.247462003999885, 4.85529420600011 ], [ -2.247733801999914, 4.880324118000033 ], [ -2.268430307999949, 4.899010809000117 ], [ -2.335099087999936, 4.92599295500014 ], [ -2.559892593999905, 4.986972637000065 ], [ -2.564338837999912, 4.975791907000087 ], [ -2.634995605999904, 4.982257234000087 ], [ -3.108599109999886, 5.090203802000076 ], [ -3.109048267999924, 5.115950427000087 ], [ -3.021477699999878, 5.119431884999983 ], [ -2.949095149999891, 5.084054059000096 ], [ -2.929565609999884, 5.09669601500002 ], [ -2.936198698999931, 5.125932532000093 ], [ -2.876391176999903, 5.127964201000054 ], [ -2.844039216999874, 5.107270269000082 ], [ -2.832200567999905, 5.121436134000021 ], [ -2.81755832399989, 5.105601736000096 ], [ -2.785708614999862, 5.117588653999974 ], [ -2.759051643999953, 5.100241146000144 ], [ -2.739082101999941, 5.116495854000163 ], [ -2.723768588999974, 5.140926404000083 ], [ -2.764817341999958, 5.216912506000142 ], [ -2.754573339999979, 5.253219404000163 ], [ -2.778888061999965, 5.263586570000143 ], [ -2.769267285999831, 5.268238296000106 ], [ -2.78525922599988, 5.285594516000174 ], [ -2.766439698999932, 5.305223581000064 ], [ -2.77673110499984, 5.346422861000065 ], [ -2.768382276999944, 5.356993610000131 ], [ -2.755678682999928, 5.343765901000154 ], [ -2.686382543999969, 5.348608824000053 ], [ -2.620540471999902, 5.40864292200007 ], [ -2.604064039999912, 5.465505086000178 ], [ -2.590645304999953, 5.464801038000189 ], [ -2.597534997999958, 5.486122817000137 ], [ -2.579620242999965, 5.485773797000036 ], [ -2.578778271999965, 5.513707257000078 ], [ -2.598613787999966, 5.512321148000012 ], [ -2.604353639999886, 5.526477976000024 ], [ -2.591242121999869, 5.546382208000068 ], [ -2.572213114999954, 5.54191869400006 ], [ -2.576894333999974, 5.562412337000069 ], [ -2.558881896999878, 5.581672359000095 ], [ -2.582071490999965, 5.623245879000024 ], [ -2.57336361799986, 5.647962099000097 ], [ -2.553130480999869, 5.646662271000025 ], [ -2.580661696999925, 5.662489762000121 ], [ -2.563513026999885, 5.676652101000172 ], [ -2.572008559999915, 5.690432442000031 ], [ -2.551044720999869, 5.689684443000033 ], [ -2.581278865999934, 5.740838938000138 ], [ -2.607356901999879, 5.736920578000138 ], [ -2.57120369799992, 5.769385505000173 ], [ -2.582039057999907, 5.807808797000177 ], [ -2.525095707999924, 5.795238643000175 ], [ -2.508809759999963, 5.777277637000168 ], [ -2.501475814999878, 5.810012934000042 ], [ -2.482728530999907, 5.802019835000124 ], [ -2.486007130999951, 5.825687865000134 ], [ -2.520594127999971, 5.835381899000026 ], [ -2.513034502999858, 5.865205304000028 ], [ -2.487136183999837, 5.869914705000042 ], [ -2.510279490999892, 5.899131562999969 ], [ -2.49717192199995, 5.917159756000103 ], [ -2.507565638999949, 5.950037056000099 ], [ -2.515066947999969, 5.966948876000174 ], [ -2.558398406999913, 5.978665698000043 ], [ -2.489315227999896, 6.064601075000098 ], [ -2.50849173499995, 6.080374107000068 ], [ -2.475987016999966, 6.108019655000021 ], [ -2.451673755999934, 6.099673900000084 ], [ -2.438627740999891, 6.119883946000186 ], [ -2.412719654999876, 6.088292383000123 ], [ -2.382465225999965, 6.082661096000038 ], [ -2.354008228999874, 6.105508837000116 ], [ -2.303426797999919, 6.096511465000162 ], [ -2.229984915999978, 6.150172727000097 ], [ -2.189000683999893, 6.147178932000088 ], [ -2.181744461999926, 6.120996156 ], [ -2.162368775999937, 6.11981348400019 ], [ -2.140267244999905, 6.091187442000091 ], [ -2.058677501999853, 6.071533998000064 ], [ -2.051510426999869, 6.050005113000168 ], [ -1.944354738999948, 5.983476229000075 ], [ -1.939210103999869, 5.955840410000121 ], [ -1.909020072999965, 5.937177511000016 ], [ -1.879675515999963, 5.889361462000124 ], [ -1.841795717999901, 5.901677483000128 ], [ -1.814932015999943, 5.889195677000146 ], [ -1.844658510999977, 5.804963905000136 ], [ -1.828799799999956, 5.786479016000044 ], [ -1.850725224999962, 5.767583835000153 ], [ -1.800993038999934, 5.750949017000096 ], [ -1.816637403999835, 5.724827835000099 ], [ -1.783789043999946, 5.725477001000172 ], [ -1.791822664999927, 5.695552295000084 ], [ -1.818038789999946, 5.674657444000047 ], [ -1.832180790999814, 5.592435325000167 ], [ -1.685700401999952, 5.642267600000082 ], [ -1.676356311999882, 5.608075345000145 ], [ -1.631970974999888, 5.609827678000102 ], [ -1.590354102999868, 5.554429112000093 ], [ -1.594002755999952, 5.529884398000149 ], [ -1.616219207999961, 5.51880149800013 ], [ -1.601673776999974, 5.450610291000089 ], [ -1.628848233999975, 5.421989049000047 ], [ -1.513863137999977, 5.392679210000097 ], [ -1.48934004299997, 5.399238702000162 ], [ -1.399792495999918, 5.298002429000178 ], [ -1.44409149899991, 5.26781129800014 ], [ -1.446323296999935, 5.210134911000068 ], [ -1.509902519999969, 5.208273174000112 ], [ -1.525064440999927, 5.170665254000085 ], [ -1.581451687999845, 5.154931346000126 ], [ -1.580224437999902, 5.033140083000092 ], [ -1.622359419999896, 5.020999794000033 ], [ -1.643190549999872, 4.971285339000076 ], [ -1.674676304999878, 4.965232374000095 ] ] ] } },
{ "type": "Feature", "properties": { "GADM_ID": "GH.16_2", "country": "GH", "pop": 776299.071870327, "gdp": 4270139392.0 }, "geometry": { "type": "Polygon", "coordinates": [ [ [ -2.558398406999913, 5.978665698000043 ], [ -2.515066947999969, 5.966948876000174 ], [ -2.49717192199995, 5.917159756000103 ], [ -2.510279490999892, 5.899131562999969 ], [ -2.487136183999837, 5.869914705000042 ], [ -2.513034502999858, 5.865205304000028 ], [ -2.517715254999871, 5.824826563000101 ], [ -2.486007130999951, 5.825687865000134 ], [ -2.482728530999907, 5.802019835000124 ], [ -2.501475814999878, 5.810012934000042 ], [ -2.508809759999963, 5.777277637000168 ], [ -2.525095707999924, 5.795238643000175 ], [ -2.582039057999907, 5.807808797000177 ], [ -2.57120369799992, 5.769385505000173 ], [ -2.607081578999839, 5.735840107000172 ], [ -2.581278865999934, 5.740838938000138 ], [ -2.551044720999869, 5.689684443000033 ], [ -2.572008559999915, 5.690432442000031 ], [ -2.563513026999885, 5.676652101000172 ], [ -2.580661696999925, 5.662489762000121 ], [ -2.553130480999869, 5.646662271000025 ], [ -2.57336361799986, 5.647962099000097 ], [ -2.582071490999965, 5.623245879000024 ], [ -2.558881896999878, 5.581672359000095 ], [ -2.576894333999974, 5.562412337000069 ], [ -2.572213114999954, 5.54191869400006 ], [ -2.591242121999869, 5.546382208000068 ], [ -2.604353639999886, 5.526477976000024 ], [ -2.598613787999966, 5.512321148000012 ], [ -2.578778271999965, 5.513707257000078 ], [ -2.579445301999897, 5.486312782000141 ], [ -2.597534997999958, 5.486122817000137 ], [ -2.590645304999953, 5.464801038000189 ], [ -2.604064039999912, 5.465505086000178 ], [ -2.617815087999929, 5.412476297000069 ], [ -2.640963663999969, 5.387180623000177 ], [ -2.697551557999873, 5.34268085399998 ], [ -2.720592095999962, 5.34591432000019 ], [ -2.7682677869999, 5.554370934000076 ], [ -2.76135356799989, 5.599316277000185 ], [ -2.858353222999938, 5.657083120999971 ], [ -2.934470439999927, 5.619763522000085 ], [ -2.96665057599995, 5.640613324000185 ], [ -2.952731867999887, 5.715983096000059 ], [ -3.026076306999869, 5.709726702000182 ], [ -3.020514957999978, 5.857092456000032 ], [ -3.07400791699996, 5.985276320000082 ], [ -3.1022844499999, 6.151936201000183 ], [ -3.154809784999941, 6.252226472000075 ], [ -3.174295664999818, 6.251570127000036 ], [ -3.170911520999937, 6.295852073000049 ], [ -3.236640982999916, 6.538733313000023 ], [ -3.234145811999952, 6.596473215000117 ], [ -3.262058472999968, 6.617611022000119 ], [ -3.209003874999837, 6.731625200000167 ], [ -3.231298314999833, 6.776650794000091 ], [ -3.231677606999938, 6.821883414000183 ], [ -3.116555622999897, 7.00586911500011 ], [ -3.075584491999905, 6.971871910000118 ], [ -3.065171060999944, 6.939530926000145 ], [ -3.028059806999863, 6.926997830000175 ], [ -2.984332188999815, 6.946344157000169 ], [ -2.919796634999955, 6.924923865000096 ], [ -2.837538934999941, 6.788673693000021 ], [ -2.84983720199989, 6.772808113000167 ], [ -2.841305000999967, 6.750317991000088 ], [ -2.865911572999948, 6.718689331 ], [ -2.848067110999978, 6.669033968000178 ], [ -2.877365589999954, 6.653791329000114 ], [ -2.870759942999825, 6.639976531000116 ], [ -2.803673756999956, 6.61604608500005 ], [ -2.779570090999925, 6.575687151000125 ], [ -2.701446932999943, 6.585117478000143 ], [ -2.681128032999879, 6.572013939000101 ], [ -2.672706087999927, 6.509759968000026 ], [ -2.656407725999941, 6.52940656200002 ], [ -2.619587613999954, 6.525227100000109 ], [ -2.527380634999872, 6.462048034000077 ], [ -2.55893531199996, 6.429713440000114 ], [ -2.546881140999915, 6.400516677000098 ], [ -2.485855835999928, 6.408601166000096 ], [ -2.42738341799992, 6.348283420000087 ], [ -2.397473875999935, 6.351600912000151 ], [ -2.389823283999931, 6.334260486000119 ], [ -2.349750595999922, 6.400072855000133 ], [ -2.359625377999862, 6.477921851000133 ], [ -2.337382780999974, 6.493270461000179 ], [ -2.2626341429999, 6.491131541000129 ], [ -2.22952611199986, 6.447383352000145 ], [ -2.215410565999889, 6.363764926000101 ], [ -2.227120480999929, 6.31997357 ], [ -2.172685061999971, 6.364880377000134 ], [ -2.124647953999954, 6.336765272000093 ], [ -2.124079019999954, 6.301214500000071 ], [ -2.099362721999967, 6.309272273000033 ], [ -2.074254994999876, 6.294473162000088 ], [ -2.098638236999875, 6.239908713000091 ], [ -2.131388433999973, 6.258936263000066 ], [ -2.205925670999875, 6.197970027000167 ], [ -2.189000683999893, 6.147178932000088 ], [ -2.229984915999978, 6.150172727000097 ], [ -2.283465169999943, 6.102235003000146 ], [ -2.354008228999874, 6.105508837000116 ], [ -2.382095951999929, 6.082630767000069 ], [ -2.412719654999876, 6.088292383000123 ], [ -2.438627740999891, 6.119883946000186 ], [ -2.451673755999934, 6.099673900000084 ], [ -2.475987016999966, 6.108019655000021 ], [ -2.50849173499995, 6.080374107000068 ], [ -2.489315227999896, 6.064601075000098 ], [ -2.558398406999913, 5.978665698000043 ] ] ] } }
]
}
