{
"type": "FeatureCollection",
"name": "offshore_shapes",
"features": [
{ "type": "Feature", "properties": { "name": "GH" }, "geometry": { "type": "Polygon", "coordinates": [ [ [ 0.809283614547354, 5.771341323443536 ], [ 0.935023545900322, 5.791555046927996 ], [ 0.980870648000177, 5.840480860000127 ], [ 0.995621615000061, 5.926481220000085 ], [ 1.069630495235778, 6.03026589599635 ], [ 1.199507528949653, 6.111992139825745 ], [ 1.303885833164856, 5.812433333431656 ], [ 2.166937963916411, 2.675564828354339 ], [ 1.912082432958186, 2.58468438037994 ], [ 1.655863511791921, 2.515939344325304 ], [ 1.38872532541339, 2.466248587102584 ], [ 1.097298406596565, 2.433879666413802 ], [ 0.500216144859451, 2.132155199003407 ], [ 0.175350924206128, 2.012346347806073 ], [ -0.159917106189027, 1.926591853831241 ], [ -0.546818117361852, 1.728184745130392 ], [ -0.800700162781936, 1.619466701227481 ], [ -1.162557580267844, 1.505139529965547 ], [ -1.575108073678393, 1.422603061182627 ], [ -1.849536390291973, 1.394118274638743 ], [ -2.136792470195985, 1.387221047413647 ], [ -2.403221117560122, 1.40159369759121 ], [ -2.666407004779074, 1.437085017659498 ], [ -3.139141696131958, 1.556621769978818 ], [ -3.410673847719607, 1.660301793792797 ], [ -3.667219172426485, 1.784613215027932 ], [ -3.788075973413441, 1.80955940549984 ], [ -3.106381646091684, 5.089698384247605 ], [ -2.634995605999904, 4.982257234000087 ], [ -2.386150360050692, 4.94272994992744 ], [ -2.268430307999949, 4.899010809000117 ], [ -2.247462003999885, 4.85529420600011 ], [ -2.174681624970043, 4.81293127687389 ], [ -2.16962424299993, 4.791562829000156 ], [ -2.113763360907383, 4.781634080219834 ], [ -2.11171580499996, 4.754568894000045 ], [ -2.092127525999956, 4.738774429000159 ], [ -2.054561377005598, 4.739725351344106 ], [ -1.980236410981263, 4.754771709746706 ], [ -1.912659477777589, 4.825665077942008 ], [ -1.735033154256342, 4.881387710274822 ], [ -1.747697949600251, 4.896428942541817 ], [ -1.737278647545916, 4.92160086115159 ], [ -1.695583343196347, 4.932492256612747 ], [ -1.700548645501144, 4.955388196082237 ], [ -1.643190549999872, 4.971285339000076 ], [ -1.610385918822382, 5.026562605119596 ], [ -1.321738134999976, 5.096785349000129 ], [ -1.246428321999929, 5.100582645000031 ], [ -1.085693182644892, 5.194821742084972 ], [ -0.807384547999959, 5.215706436000175 ], [ -0.721747001146959, 5.300929949664323 ], [ -0.49809825383096, 5.378050446570938 ], [ -0.465550541623884, 5.428382635350417 ], [ -0.366413657092473, 5.493822615921348 ], [ -0.107846780999978, 5.572143459000188 ], [ -0.059023619144455, 5.606261729995012 ], [ 0.007212638452756, 5.62270665199064 ], [ 0.06727636100004, 5.693091618000153 ], [ 0.229009597171629, 5.75365670068327 ], [ 0.3337074914038, 5.777980809917171 ], [ 0.438848752106433, 5.782146944867467 ], [ 0.809283614547354, 5.771341323443536 ] ], [ [ -1.736318945562658, 4.885962843910676 ], [ -1.735532045067487, 4.886674642920454 ], [ -1.738826513532445, 4.88759541469679 ], [ -1.736318945562658, 4.885962843910676 ] ] ] } }
]
}
